zipcode,city,state
12404,Accord,NY
12405,Acra,NY
13605,Adams,NY
14410,"Adams Basin",NY
13606,"Adams Center",NY
14801,Addison,NY
12808,Adirondack,NY
13730,Afton,NY
14001,Akron,NY
14038,Akron,NY
12201,Albany,NY
12202,Albany,NY
12203,Albany,NY
12204,Albany,NY
12205,Albany,NY
12206,Albany,NY
12207,Albany,NY
12208,Albany,NY
12209,Albany,NY
12210,Albany,NY
12211,Albany,NY
12212,Albany,NY
12214,Albany,NY
12220,Albany,NY
12222,Albany,NY
12224,Albany,NY
12225,Albany,NY
12227,Albany,NY
12228,Albany,NY
12229,Albany,NY
12230,Albany,NY
12231,Albany,NY
12232,Albany,NY
12233,Albany,NY
12234,Albany,NY
12235,Albany,NY
12236,Albany,NY
12237,Albany,NY
12238,Albany,NY
12239,Albany,NY
12240,Albany,NY
12241,Albany,NY
12242,Albany,NY
12243,Albany,NY
12244,Albany,NY
12245,Albany,NY
12246,Albany,NY
12248,Albany,NY
12249,Albany,NY
12250,Albany,NY
12252,Albany,NY
12255,Albany,NY
12256,Albany,NY
12257,Albany,NY
12261,Albany,NY
12288,Albany,NY
11507,Albertson,NY
11577,Albertson,NY
13131,Albion,NY
13142,Albion,NY
13144,Albion,NY
13302,Albion,NY
13493,Albion,NY
14411,Albion,NY
12007,Alcove,NY
14004,Alden,NY
13301,"Alder Creek",NY
14005,Alexander,NY
13607,"Alexandria Bay",NY
14802,Alfred,NY
14803,Alfred,NY
14803,"Alfred Station",NY
14706,Allegany,NY
14707,Allentown,NY
14707,Alma,NY
14708,Alma,NY
14715,Alma,NY
14895,Alma,NY
14804,Almond,NY
14843,Almond,NY
14805,Alpine,NY
12008,Alplaus,NY
12009,Altamont,NY
13302,Altmar,NY
14413,Alton,NY
12910,Altona,NY
12935,Altona,NY
12958,Altona,NY
12992,Altona,NY
11930,Amagansett,NY
11937,Amagansett,NY
10501,Amawalk,NY
12501,Amenia,NY
12522,Amenia,NY
12545,Amenia,NY
12592,Amenia,NY
11701,Amityville,NY
12010,Amsterdam,NY
12069,Amsterdam,NY
12502,Ancram,NY
12503,Ancram,NY
12516,Ancram,NY
12546,Ancram,NY
12567,Ancram,NY
12503,Ancramdale,NY
12455,Andes,NY
12776,Andes,NY
13731,Andes,NY
13752,Andes,NY
14806,Andover,NY
14709,Angelica,NY
14006,Angola,NY
12504,"Annandale On Hudson",NY
13608,Antwerp,NY
13732,Apalachin,NY
14008,Appleton,NY
13020,"Apulia Station",NY
11901,Aquebogue,NY
11931,Aquebogue,NY
14009,Arcade,NY
10910,Arden,NY
10502,Ardsley,NY
10503,"Ardsley On Hudson",NY
12809,Argyle,NY
14807,Arkport,NY
12406,Arkville,NY
10504,Armonk,NY
11692,Arverne,NY
12407,Ashland,NY
12468,Ashland,NY
12496,Ashland,NY
14861,Ashland,NY
14894,Ashland,NY
14901,Ashland,NY
14710,Ashville,NY
11101,Astoria,NY
12015,Athens,NY
12810,Athol,NY
14010,"Athol Springs",NY
14808,Atlanta,NY
11509,"Atlantic Beach",NY
14011,Attica,NY
12912,"Au Sable Forks",NY
13021,Auburn,NY
13022,Auburn,NY
13024,Auburn,NY
12016,Auriesville,NY
13026,Aurora,NY
14052,Aurora,NY
14127,Aurora,NY
14139,Aurora,NY
14169,Aurora,NY
14170,Aurora,NY
12017,Austerlitz,NY
12037,Austerlitz,NY
12060,Austerlitz,NY
12075,Austerlitz,NY
12165,Austerlitz,NY
12529,Austerlitz,NY
13303,Ava,NY
13309,Ava,NY
13471,Ava,NY
13489,Ava,NY
12018,"Averill Park",NY
12153,"Averill Park",NY
14809,Avoca,NY
14414,Avon,NY
11702,Babylon,NY
13733,Bainbridge,NY
12811,"Bakers Mills",NY
11510,Baldwin,NY
11575,Baldwin,NY
14838,Baldwin,NY
14859,Baldwin,NY
14861,Baldwin,NY
14901,Baldwin,NY
10505,"Baldwin Place",NY
13027,Baldwinsville,NY
12019,"Ballston Lake",NY
12020,"Ballston Spa",NY
12506,Bangall,NY
13744,Barker,NY
13746,Barker,NY
13777,Barker,NY
13862,Barker,NY
13905,Barker,NY
14012,Barker,NY
13304,Barneveld,NY
12507,Barrytown,NY
12719,Barryville,NY
13734,Barton,NY
14859,Barton,NY
14883,Barton,NY
14889,Barton,NY
14892,Barton,NY
14013,Basom,NY
14020,Batavia,NY
14021,Batavia,NY
14810,Bath,NY
11706,"Bay Shore",NY
11705,Bayport,NY
11715,Bayport,NY
11772,Bayport,NY
11359,Bayside,NY
11709,Bayville,NY
12508,Beacon,NY
10911,"Bear Mountain",NY
12409,Bearsville,NY
14812,"Beaver Dams",NY
13305,"Beaver Falls",NY
10506,Bedford,NY
10507,Bedford,NY
10536,Bedford,NY
10549,Bedford,NY
10576,Bedford,NY
10507,"Bedford Hills",NY
14711,Belfast,NY
14714,Belfast,NY
14717,Belfast,NY
14739,Belfast,NY
14813,Belfast,NY
11001,Bellerose,NY
13605,Belleville,NY
13650,Belleville,NY
11710,Bellmore,NY
14415,Bellona,NY
11713,Bellport,NY
10912,Bellvale,NY
14813,Belmont,NY
14712,"Bemus Point",NY
14416,Bergen,NY
13736,Berkshire,NY
13811,Berkshire,NY
12022,Berlin,NY
12040,Berlin,NY
12138,Berlin,NY
12153,Berlin,NY
12168,Berlin,NY
12009,Berne,NY
12023,Berne,NY
12059,Berne,NY
12122,Berne,NY
12147,Berne,NY
12186,Berne,NY
12193,Berne,NY
13028,"Bernhards Bay",NY
12701,Bethel,NY
12720,Bethel,NY
12726,Bethel,NY
12734,Bethel,NY
12748,Bethel,NY
12749,Bethel,NY
12762,Bethel,NY
12778,Bethel,NY
12783,Bethel,NY
12786,Bethel,NY
11714,Bethpage,NY
11735,Bethpage,NY
11801,Bethpage,NY
11803,Bethpage,NY
13737,"Bible School Park",NY
14814,"Big Flats",NY
14830,"Big Flats",NY
14845,"Big Flats",NY
14871,"Big Flats",NY
14903,"Big Flats",NY
14905,"Big Flats",NY
12410,"Big Indian",NY
12510,Billings,NY
13901,Binghamton,NY
13902,Binghamton,NY
13903,Binghamton,NY
13904,Binghamton,NY
13905,Binghamton,NY
14714,"Black Creek",NY
13601,"Black River",NY
13612,"Black River",NY
10913,Blauvelt,NY
10960,Blauvelt,NY
10962,Blauvelt,NY
14024,Bliss,NY
13045,"Blodgett Mills",NY
13101,"Blodgett Mills",NY
13738,"Blodgett Mills",NY
14469,Bloomfield,NY
10914,"Blooming Grove",NY
10916,"Blooming Grove",NY
10918,"Blooming Grove",NY
10950,"Blooming Grove",NY
10992,"Blooming Grove",NY
12577,"Blooming Grove",NY
12721,Bloomingburg,NY
12913,Bloomingdale,NY
12411,Bloomington,NY
13739,Bloomville,NY
13308,Blossvale,NY
12812,"Blue Mountain Lake",NY
11715,"Blue Point",NY
11772,"Blue Point",NY
11716,Bohemia,NY
11741,Bohemia,NY
12412,Boiceville,NY
14715,Bolivar,NY
12814,"Bolton Landing",NY
12914,Bombay,NY
12916,Bombay,NY
12957,Bombay,NY
13655,Bombay,NY
13309,Boonville,NY
14025,Boston,NY
14033,Boston,NY
14057,Boston,NY
14075,Boston,NY
14110,Boston,NY
14127,Boston,NY
13310,Bouckville,NY
13740,"Bovina Center",NY
14026,Bowmansville,NY
14815,Bradford,NY
14821,Bradford,NY
14870,Bradford,NY
14879,Bradford,NY
12024,Brainard,NY
12915,Brainardsville,NY
14418,Branchport,NY
14006,Brant,NY
14027,Brant,NY
14061,Brant,NY
14081,Brant,NY
14111,Brant,NY
12815,"Brant Lake",NY
13312,Brantingham,NY
13613,"Brasher Falls",NY
14816,Breesport,NY
14838,Breesport,NY
11697,"Breezy Point",NY
11717,Brentwood,NY
11788,Brentwood,NY
13029,Brewerton,NY
13036,Brewerton,NY
10509,Brewster,NY
10510,"Briarcliff Manor",NY
10562,"Briarcliff Manor",NY
11932,Bridgehampton,NY
11962,Bridgehampton,NY
11963,Bridgehampton,NY
11976,Bridgehampton,NY
13030,Bridgeport,NY
13082,Bridgeport,NY
13313,Bridgewater,NY
13318,Bridgewater,NY
13322,Bridgewater,NY
13480,Bridgewater,NY
13614,"Brier Hill",NY
11718,Brightwaters,NY
12010,Broadalbin,NY
12025,Broadalbin,NY
14420,Brockport,NY
14430,Brockport,NY
14716,Brocton,NY
10451,Bronx,NY
10708,Bronxville,NY
13313,Brookfield,NY
13314,Brookfield,NY
13355,Brookfield,NY
13364,Brookfield,NY
13418,Brookfield,NY
13460,Brookfield,NY
13480,Brookfield,NY
13485,Brookfield,NY
13491,Brookfield,NY
11706,Brookhaven,NY
11713,Brookhaven,NY
11715,Brookhaven,NY
11719,Brookhaven,NY
11720,Brookhaven,NY
11727,Brookhaven,NY
11733,Brookhaven,NY
11738,Brookhaven,NY
11741,Brookhaven,NY
11742,Brookhaven,NY
11755,Brookhaven,NY
11763,Brookhaven,NY
11764,Brookhaven,NY
11766,Brookhaven,NY
11772,Brookhaven,NY
11776,Brookhaven,NY
11777,Brookhaven,NY
11778,Brookhaven,NY
11779,Brookhaven,NY
11780,Brookhaven,NY
11782,Brookhaven,NY
11784,Brookhaven,NY
11786,Brookhaven,NY
11789,Brookhaven,NY
11790,Brookhaven,NY
11792,Brookhaven,NY
11794,Brookhaven,NY
11933,Brookhaven,NY
11934,Brookhaven,NY
11940,Brookhaven,NY
11941,Brookhaven,NY
11949,Brookhaven,NY
11950,Brookhaven,NY
11951,Brookhaven,NY
11953,Brookhaven,NY
11955,Brookhaven,NY
11961,Brookhaven,NY
11967,Brookhaven,NY
11973,Brookhaven,NY
11978,Brookhaven,NY
11980,Brookhaven,NY
501,Brookhaven,NY
544,Brookhaven,NY
11201,Brooklyn,NY
14817,Brooktondale,NY
13615,Brownville,NY
12916,Brushton,NY
10511,Buchanan,NY
14201,Buffalo,NY
14202,Buffalo,NY
14203,Buffalo,NY
14204,Buffalo,NY
14205,Buffalo,NY
14206,Buffalo,NY
14207,Buffalo,NY
14208,Buffalo,NY
14209,Buffalo,NY
14210,Buffalo,NY
14211,Buffalo,NY
14212,Buffalo,NY
14213,Buffalo,NY
14214,Buffalo,NY
14215,Buffalo,NY
14216,Buffalo,NY
14218,Buffalo,NY
14220,Buffalo,NY
14222,Buffalo,NY
14231,Buffalo,NY
14233,Buffalo,NY
14240,Buffalo,NY
14241,Buffalo,NY
14260,Buffalo,NY
14261,Buffalo,NY
14263,Buffalo,NY
14264,Buffalo,NY
14265,Buffalo,NY
14267,Buffalo,NY
14269,Buffalo,NY
14270,Buffalo,NY
14272,Buffalo,NY
14273,Buffalo,NY
14276,Buffalo,NY
10915,Bullville,NY
14818,Burdett,NY
12917,Burke,NY
12722,Burlingham,NY
13315,"Burlington Flats",NY
12019,"Burnt Hills",NY
14028,Burt,NY
12028,Buskirk,NY
14058,Byron,NY
14416,Byron,NY
14422,Byron,NY
14557,Byron,NY
12918,Cadyville,NY
12058,Cairo,NY
12405,Cairo,NY
12413,Cairo,NY
12431,Cairo,NY
12451,Cairo,NY
12470,Cairo,NY
12473,Cairo,NY
12482,Cairo,NY
13616,Calcium,NY
13637,Calcium,NY
14423,Caledonia,NY
12723,Callicoon,NY
12724,Callicoon,NY
12745,Callicoon,NY
12748,Callicoon,NY
12758,Callicoon,NY
12766,Callicoon,NY
12776,Callicoon,NY
12791,Callicoon,NY
12724,"Callicoon Center",NY
11901,Calverton,NY
11933,Calverton,NY
11949,Calverton,NY
11411,"Cambria Heights",NY
12816,Cambridge,NY
13316,Camden,NY
14810,Cameron,NY
14819,Cameron,NY
14820,Cameron,NY
14855,Cameron,NY
14898,Cameron,NY
14819,"Cameron Mills",NY
13031,Camillus,NY
14821,Campbell,NY
14870,Campbell,NY
14879,Campbell,NY
10916,"Campbell Hall",NY
12017,Canaan,NY
12029,Canaan,NY
12060,Canaan,NY
12136,Canaan,NY
13317,Canajoharie,NY
14424,Canandaigua,NY
14822,Canaseraga,NY
13032,Canastota,NY
13743,Candor,NY
14711,Caneadea,NY
14717,Caneadea,NY
14735,Caneadea,NY
14744,Caneadea,NY
14777,Caneadea,NY
14823,Canisteo,NY
13617,Canton,NY
13618,"Cape Vincent",NY
11514,"Carle Place",NY
11590,"Carle Place",NY
12031,Carlisle,NY
12035,Carlisle,NY
12043,Carlisle,NY
12066,Carlisle,NY
12092,Carlisle,NY
12160,Carlisle,NY
12166,Carlisle,NY
13459,Carlisle,NY
10512,Carmel,NY
10541,Carmel,NY
10542,Carmel,NY
12032,"Caroga Lake",NY
12078,"Caroga Lake",NY
13619,Carthage,NY
14718,Cassadaga,NY
13318,Cassville,NY
14427,Castile,NY
13744,"Castle Creek",NY
12511,"Castle Point",NY
12033,"Castleton On Hudson",NY
13620,Castorland,NY
13033,Cato,NY
12414,Catskill,NY
14719,Cattaraugus,NY
13034,Cayuga,NY
14805,Cayuta,NY
14824,Cayuta,NY
14889,Cayuta,NY
13035,Cazenovia,NY
11516,Cedarhurst,NY
14701,Celoron,NY
14720,Celoron,NY
11934,"Center Moriches",NY
11955,"Center Moriches",NY
11720,Centereach,NY
11779,Centereach,NY
11784,Centereach,NY
11721,Centerport,NY
14024,Centerville,NY
14029,Centerville,NY
14060,Centerville,NY
14065,Centerville,NY
14735,Centerville,NY
14744,Centerville,NY
12035,"Central Bridge",NY
12092,"Central Bridge",NY
11722,"Central Islip",NY
11752,"Central Islip",NY
13036,"Central Square",NY
10917,"Central Valley",NY
14721,Ceres,NY
13319,Chadwicks,NY
13413,Chadwicks,NY
14030,Chaffee,NY
12919,Champlain,NY
10514,Chappaqua,NY
12036,Charlotteville,NY
13621,"Chase Mills",NY
12920,Chateaugay,NY
12037,Chatham,NY
13622,Chaumont,NY
14722,Chautauqua,NY
14728,Chautauqua,NY
14757,Chautauqua,NY
14781,Chautauqua,NY
14784,Chautauqua,NY
14787,Chautauqua,NY
12910,Chazy,NY
12921,Chazy,NY
12992,Chazy,NY
12512,Chelsea,NY
14825,Chemung,NY
14859,Chemung,NY
14861,Chemung,NY
14892,Chemung,NY
14901,Chemung,NY
13901,"Chenango Bridge",NY
13746,"Chenango Forks",NY
14723,"Cherry Creek",NY
12040,"Cherry Plain",NY
13320,"Cherry Valley",NY
10918,Chester,NY
12817,Chester,NY
12853,Chester,NY
12857,Chester,NY
12860,Chester,NY
12870,Chester,NY
12885,Chester,NY
12817,Chestertown,NY
12416,Chichester,NY
12922,Childwold,NY
13623,"Chippewa Bay",NY
13037,Chittenango,NY
14428,Churchville,NY
12923,Churubusco,NY
13029,Cicero,NY
13030,Cicero,NY
13039,Cicero,NY
13041,Cicero,NY
13057,Cicero,NY
13082,Cicero,NY
13212,Cicero,NY
13040,Cincinnatus,NY
10919,Circleville,NY
14031,Clarence,NY
14032,Clarence,NY
14051,Clarence,NY
14221,Clarence,NY
14031,"Clarence Center",NY
14032,"Clarence Center",NY
14422,Clarendon,NY
14429,Clarendon,NY
14470,Clarendon,NY
13321,"Clark Mills",NY
13323,"Clark Mills",NY
13492,"Clark Mills",NY
14420,Clarkson,NY
14464,Clarkson,NY
14468,Clarkson,NY
14470,Clarkson,NY
14715,Clarksville,NY
14727,Clarksville,NY
14739,Clarksville,NY
14786,Clarksville,NY
12725,Claryville,NY
12075,Claverack,NY
12513,Claverack,NY
12521,Claverack,NY
12529,Claverack,NY
12530,Claverack,NY
12534,Claverack,NY
12544,Claverack,NY
12565,Claverack,NY
13027,Clay,NY
13029,Clay,NY
13041,Clay,NY
13088,Clay,NY
13090,Clay,NY
13212,Clay,NY
13624,Clayton,NY
13322,Clayville,NY
13456,Clayville,NY
12819,Clemons,NY
13042,Cleveland,NY
12820,Cleverdale,NY
12019,"Clifton Park",NY
12065,"Clifton Park",NY
12148,"Clifton Park",NY
12151,"Clifton Park",NY
14432,"Clifton Springs",NY
12042,Climax,NY
12514,Clinton,NY
12538,Clinton,NY
12572,Clinton,NY
12578,Clinton,NY
12580,Clinton,NY
12923,Clinton,NY
12934,Clinton,NY
12935,Clinton,NY
13323,Clinton,NY
12514,"Clinton Corners",NY
12515,Clintondale,NY
12528,Clintondale,NY
13043,Clockville,NY
14433,Clyde,NY
14724,Clymer,NY
14767,Clymer,NY
12043,Cobleskill,NY
12187,Cobleskill,NY
12720,Cochecton,NY
12723,Cochecton,NY
12726,Cochecton,NY
12727,Cochecton,NY
12752,Cochecton,NY
12764,Cochecton,NY
12727,"Cochecton Center",NY
12007,Coeymans,NY
12045,Coeymans,NY
12046,Coeymans,NY
12067,Coeymans,NY
12087,Coeymans,NY
12143,Coeymans,NY
12158,Coeymans,NY
12046,"Coeymans Hollow",NY
14826,Cohocton,NY
12047,Cohoes,NY
13324,"Cold Brook",NY
10516,"Cold Spring",NY
11724,"Cold Spring Harbor",NY
11743,"Cold Spring Harbor",NY
14025,Colden,NY
14033,Colden,NY
14069,Colden,NY
14080,Colden,NY
14170,Colden,NY
11356,"College Point",NY
13747,Colliersville,NY
14034,Collins,NY
14035,Collins,NY
14070,Collins,NY
14091,Collins,NY
14141,Collins,NY
14035,"Collins Center",NY
12847,Colton,NY
12922,Colton,NY
12927,Colton,NY
12986,Colton,NY
13625,Colton,NY
13687,Colton,NY
12050,Columbiaville,NY
11725,Commack,NY
11731,Commack,NY
11754,Commack,NY
11787,Commack,NY
11788,Commack,NY
12821,Comstock,NY
14435,Conesus,NY
14726,"Conewango Valley",NY
10920,Congers,NY
10989,Congers,NY
13748,Conklin,NY
13749,Conklin,NY
13903,Conklin,NY
12417,Connelly,NY
12917,Constable,NY
12926,Constable,NY
12953,Constable,NY
13325,Constableville,NY
13028,Constantia,NY
13042,Constantia,NY
13044,Constantia,NY
13167,Constantia,NY
14827,"Coopers Plains",NY
14870,"Coopers Plains",NY
13326,Cooperstown,NY
12502,Copake,NY
12516,Copake,NY
12517,Copake,NY
12521,Copake,NY
12529,Copake,NY
12517,"Copake Falls",NY
13626,Copenhagen,NY
11701,Copiague,NY
11726,Copiague,NY
11757,Copiague,NY
11727,Coram,NY
11738,Coram,NY
11763,Coram,NY
11766,Coram,NY
11776,Coram,NY
11784,Coram,NY
11953,Coram,NY
13749,Corbettsville,NY
14036,Corfu,NY
12822,Corinth,NY
14830,Corning,NY
14831,Corning,NY
10930,Cornwall,NY
10953,Cornwall,NY
12518,Cornwall,NY
12520,Cornwall,NY
12553,Cornwall,NY
12577,Cornwall,NY
12584,Cornwall,NY
12520,"Cornwall On Hudson",NY
12418,Cornwallville,NY
11368,Corona,NY
13045,Cortland,NY
10567,"Cortlandt Manor",NY
12823,Cossayuna,NY
12419,Cottekill,NY
14011,Cowlesville,NY
12051,Coxsackie,NY
12192,Coxsackie,NY
12420,Cragsmoor,NY
12566,Cragsmoor,NY
12927,"Cranberry Lake",NY
13666,"Cranberry Lake",NY
12521,Craryville,NY
14038,Crittenden,NY
13327,Croghan,NY
10547,Crompond,NY
10567,Crompond,NY
10598,Crompond,NY
12052,Cropseyville,NY
10518,"Cross River",NY
10519,"Croton Falls",NY
10520,"Croton On Hudson",NY
12870,"Crown Point",NY
12883,"Crown Point",NY
12928,"Crown Point",NY
14727,Cuba,NY
12729,Cuddebackville,NY
11935,Cutchogue,NY
11952,Cutchogue,NY
14039,Dale,NY
14836,Dalton,NY
12929,Dannemora,NY
12981,Dannemora,NY
14572,Dansville,NY
14807,Dansville,NY
14040,"Darien Center",NY
12155,Davenport,NY
13750,Davenport,NY
13751,Davenport,NY
13757,Davenport,NY
13820,Davenport,NY
13860,Davenport,NY
13751,"Davenport Center",NY
13757,"Davenport Center",NY
13820,"Davenport Center",NY
14041,Dayton,NY
14070,Dayton,NY
14129,Dayton,NY
14138,Dayton,NY
14719,Dayton,NY
13630,"De Kalb Junction",NY
13752,"De Lancey",NY
13633,"De Peyster",NY
13654,"De Peyster",NY
13680,"De Peyster",NY
13052,"De Ruyter",NY
13328,Deansboro,NY
11703,"Deer Park",NY
11729,"Deer Park",NY
13627,"Deer River",NY
13619,Deferiet,NY
13628,Deferiet,NY
12053,Delanson,NY
14042,Delevan,NY
13753,Delhi,NY
12054,Delmar,NY
13051,"Delphi Falls",NY
13367,Denmark,NY
13619,Denmark,NY
13620,Denmark,NY
13626,Denmark,NY
13627,Denmark,NY
13631,Denmark,NY
12421,Denver,NY
13622,Depauville,NY
13624,Depauville,NY
13656,Depauville,NY
14043,Depew,NY
14225,Depew,NY
13754,Deposit,NY
14047,Derby,NY
14728,Dewittville,NY
13634,Dexter,NY
12824,"Diamond Point",NY
12930,"Dickinson Center",NY
10503,"Dobbs Ferry",NY
10522,"Dobbs Ferry",NY
13329,Dolgeville,NY
12055,Dormansville,NY
12522,"Dover Plains",NY
13755,Downsville,NY
13782,Downsville,NY
12819,Dresden,NY
12841,Dresden,NY
12887,Dresden,NY
14441,Dresden,NY
13053,Dryden,NY
12053,Duanesburg,NY
12056,Duanesburg,NY
12066,Duanesburg,NY
12137,Duanesburg,NY
12141,Duanesburg,NY
12157,Duanesburg,NY
12306,Duanesburg,NY
14837,Dundee,NY
14048,Dunkirk,NY
12083,Durham,NY
12120,Durham,NY
12405,Durham,NY
12413,Durham,NY
12418,Durham,NY
12422,Durham,NY
12423,Durham,NY
12431,Durham,NY
12439,Durham,NY
12460,Durham,NY
12469,Durham,NY
13054,Durhamville,NY
13331,"Eagle Bay",NY
12057,"Eagle Bridge",NY
12058,Earlton,NY
13332,Earlville,NY
14051,"East Amherst",NY
14052,"East Aurora",NY
12059,"East Berne",NY
14054,"East Bethany",NY
14424,"East Bloomfield",NY
14443,"East Bloomfield",NY
14469,"East Bloomfield",NY
14564,"East Bloomfield",NY
13756,"East Branch",NY
12060,"East Chatham",NY
14055,"East Concord",NY
12423,"East Durham",NY
11369,"East Elmhurst",NY
12061,"East Greenbush",NY
12144,"East Greenbush",NY
12196,"East Greenbush",NY
11937,"East Hampton",NY
11975,"East Hampton",NY
13056,"East Homer",NY
11730,"East Islip",NY
12424,"East Jewett",NY
11939,"East Marion",NY
11530,"East Meadow",NY
11554,"East Meadow",NY
13757,"East Meredith",NY
11934,"East Moriches",NY
11940,"East Moriches",NY
12062,"East Nassau",NY
12123,"East Nassau",NY
11731,"East Northport",NY
11740,"East Northport",NY
11768,"East Northport",NY
11732,"East Norwich",NY
11771,"East Norwich",NY
14171,"East Otto",NY
14719,"East Otto",NY
14729,"East Otto",NY
14056,"East Pembroke",NY
13758,"East Pharsalia",NY
11942,"East Quogue",NY
11946,"East Quogue",NY
11959,"East Quogue",NY
14730,"East Randolph",NY
14772,"East Randolph",NY
14445,"East Rochester",NY
11518,"East Rockaway",NY
11563,"East Rockaway",NY
12063,"East Schodack",NY
11733,"East Setauket",NY
13333,"East Springfield",NY
13057,"East Syracuse",NY
14449,"East Williamson",NY
12064,"East Worcester",NY
10583,Eastchester,NY
10707,Eastchester,NY
10708,Eastchester,NY
10709,Eastchester,NY
11933,Eastport,NY
11940,Eastport,NY
11941,Eastport,NY
11972,Eastport,NY
13061,Eaton,NY
13310,Eaton,NY
13334,Eaton,NY
13346,Eaton,NY
13408,Eaton,NY
13409,Eaton,NY
13484,Eaton,NY
14047,Eden,NY
14057,Eden,NY
14075,Eden,NY
14085,Eden,NY
14111,Eden,NY
13315,Edmeston,NY
13335,Edmeston,NY
13411,Edmeston,NY
13485,Edmeston,NY
13635,Edwards,NY
13642,Edwards,NY
13648,Edwards,NY
13652,Edwards,NY
14058,Elba,NY
13060,Elbridge,NY
12732,Eldred,NY
12932,Elizabethtown,NY
12964,Elizabethtown,NY
12993,Elizabethtown,NY
12523,Elizaville,NY
12427,"Elka Park",NY
12920,Ellenburg,NY
12933,Ellenburg,NY
12934,Ellenburg,NY
12935,Ellenburg,NY
12955,Ellenburg,NY
12934,"Ellenburg Center",NY
12935,"Ellenburg Depot",NY
12420,Ellenville,NY
12428,Ellenville,NY
14731,Ellicottville,NY
14723,Ellington,NY
14726,Ellington,NY
14732,Ellington,NY
14733,Ellington,NY
14740,Ellington,NY
14747,Ellington,NY
14782,Ellington,NY
13636,Ellisburg,NY
13661,Ellisburg,NY
14043,Elma,NY
14052,Elma,NY
14059,Elma,NY
14086,Elma,NY
14127,Elma,NY
14140,Elma,NY
11373,Elmhurst,NY
14901,Elmira,NY
14902,Elmira,NY
14904,Elmira,NY
14905,Elmira,NY
11001,Elmont,NY
11003,Elmont,NY
10523,Elmsford,NY
10607,Elmsford,NY
13760,Endicott,NY
13760,Endwell,NY
13762,Endwell,NY
13061,Erieville,NY
14816,Erin,NY
14824,Erin,NY
14838,Erin,NY
14861,Erin,NY
12401,Esopus,NY
12417,Esopus,NY
12429,Esopus,NY
12466,Esopus,NY
12471,Esopus,NY
12487,Esopus,NY
12493,Esopus,NY
12528,Esopus,NY
12561,Esopus,NY
12066,Esperance,NY
12936,Essex,NY
12993,Essex,NY
12996,Essex,NY
13062,Etna,NY
13637,"Evans Mills",NY
13063,Fabius,NY
13064,"Fair Haven",NY
13156,"Fair Haven",NY
14450,Fairport,NY
14701,Falconer,NY
14733,Falconer,NY
12733,Fallsburg,NY
12738,Fallsburg,NY
12747,Fallsburg,NY
12754,Fallsburg,NY
12759,Fallsburg,NY
12763,Fallsburg,NY
12779,Fallsburg,NY
12788,Fallsburg,NY
12789,Fallsburg,NY
14452,Fancher,NY
11096,"Far Rockaway",NY
14060,"Farmersville Station",NY
11735,Farmingdale,NY
11736,Farmingdale,NY
11774,Farmingdale,NY
14424,Farmington,NY
14425,Farmington,NY
14522,Farmington,NY
14548,Farmington,NY
14564,Farmington,NY
11738,Farmingville,NY
11779,Farmingville,NY
11784,Farmingville,NY
14061,Farnham,NY
14081,Farnham,NY
13148,Fayette,NY
13165,Fayette,NY
14456,Fayette,NY
14541,Fayette,NY
13066,Fayetteville,NY
13612,"Felts Mills",NY
13638,"Felts Mills",NY
12734,Ferndale,NY
12067,"Feura Bush",NY
14735,Fillmore,NY
14736,"Findley Lake",NY
13639,Fine,NY
13648,Fine,NY
13670,Fine,NY
13690,Fine,NY
13695,Fine,NY
14453,Fishers,NY
06390,"Fishers Island",NY
6390,"Fishers Island",NY
13641,"Fishers Landing",NY
12511,Fishkill,NY
12524,Fishkill,NY
12527,Fishkill,NY
13774,"Fishs Eddy",NY
12406,Fleischmanns,NY
12430,Fleischmanns,NY
11001,"Floral Park",NY
11002,"Floral Park",NY
10921,Florida,NY
12010,Florida,NY
12053,Florida,NY
12069,Florida,NY
12137,Florida,NY
11351,Flushing,NY
13337,"Fly Creek",NY
12068,Fonda,NY
11375,"Forest Hills",NY
12729,Forestburgh,NY
12777,Forestburgh,NY
13301,Forestport,NY
13309,Forestport,NY
13338,Forestport,NY
13438,Forestport,NY
13494,Forestport,NY
14062,Forestville,NY
12827,"Fort Ann",NY
12914,"Fort Covington",NY
12916,"Fort Covington",NY
12937,"Fort Covington",NY
13602,"Fort Drum",NY
13603,"Fort Drum",NY
13612,"Fort Drum",NY
13637,"Fort Drum",NY
12828,"Fort Edward",NY
12069,"Fort Hunter",NY
12010,"Fort Johnson",NY
12070,"Fort Johnson",NY
10922,"Fort Montgomery",NY
10928,"Fort Montgomery",NY
13339,"Fort Plain",NY
13340,Frankfort,NY
12912,Franklin,NY
12913,Franklin,NY
12981,Franklin,NY
12983,Franklin,NY
12989,Franklin,NY
13775,Franklin,NY
13341,"Franklin Springs",NY
11001,"Franklin Square",NY
11003,"Franklin Square",NY
11010,"Franklin Square",NY
11580,"Franklin Square",NY
14737,Franklinville,NY
14063,Fredonia,NY
14009,Freedom,NY
14042,Freedom,NY
14060,Freedom,NY
14065,Freedom,NY
14133,Freedom,NY
12431,Freehold,NY
11510,Freeport,NY
11520,Freeport,NY
13068,Freeville,NY
12736,"Fremont Center",NY
11365,"Fresh Meadows",NY
14738,Frewsburg,NY
14739,Friendship,NY
14813,Friendship,NY
14880,Friendship,NY
12071,Fulton,NY
12122,Fulton,NY
12149,Fulton,NY
12175,Fulton,NY
12187,Fulton,NY
12194,Fulton,NY
13069,Fulton,NY
12071,Fultonham,NY
12072,Fultonville,NY
12939,Gabriels,NY
14066,Gainesville,NY
12073,Gallupville,NY
12074,Galway,NY
12831,Gansevoort,NY
11501,"Garden City",NY
11530,"Garden City",NY
11531,"Garden City",NY
11535,"Garden City",NY
11552,"Garden City",NY
12525,Gardiner,NY
12561,Gardiner,NY
12589,Gardiner,NY
10923,Garnerville,NY
13342,Garrattsville,NY
10524,Garrison,NY
14067,Gasport,NY
14454,Geneseo,NY
14456,Geneva,NY
13071,Genoa,NY
13081,Genoa,NY
13092,Genoa,NY
13061,Georgetown,NY
13072,Georgetown,NY
13332,Georgetown,NY
13334,Georgetown,NY
12526,Germantown,NY
14701,Gerry,NY
14733,Gerry,NY
14740,Gerry,NY
14782,Gerry,NY
14068,Getzville,NY
12037,Ghent,NY
12075,Ghent,NY
12184,Ghent,NY
12529,Ghent,NY
12534,Ghent,NY
13776,Gilbertsville,NY
12076,Gilboa,NY
12122,Gilboa,NY
12167,Gilboa,NY
12469,Gilboa,NY
12432,Glasco,NY
12477,Glasco,NY
13777,"Glen Aubrey",NY
13862,"Glen Aubrey",NY
11542,"Glen Cove",NY
11560,"Glen Cove",NY
11542,"Glen Head",NY
11545,"Glen Head",NY
11004,"Glen Oaks",NY
12737,"Glen Spey",NY
12738,"Glen Wild",NY
13312,Glenfield,NY
12433,Glenford,NY
12527,Glenham,NY
12077,Glenmont,NY
12801,"Glens Falls",NY
12804,"Glens Falls",NY
12820,"Glens Falls",NY
14069,Glenwood,NY
11545,"Glenwood Landing",NY
11547,"Glenwood Landing",NY
12078,Gloversville,NY
12095,Gloversville,NY
10526,"Goldens Bridge",NY
14424,Gorham,NY
14461,Gorham,NY
14544,Gorham,NY
14561,Gorham,NY
10924,Goshen,NY
13642,Gouverneur,NY
14070,Gowanda,NY
12052,Grafton,NY
12082,Grafton,NY
12138,Grafton,NY
12180,Grafton,NY
12740,Grahamsville,NY
12434,"Grand Gorge",NY
14072,"Grand Island",NY
10527,"Granite Springs",NY
12832,Granville,NY
13619,"Great Bend",NY
13643,"Great Bend",NY
11021,"Great Neck",NY
11022,"Great Neck",NY
11023,"Great Neck",NY
11024,"Great Neck",NY
11025,"Great Neck",NY
11026,"Great Neck",NY
11027,"Great Neck",NY
11730,"Great River",NY
11739,"Great River",NY
11769,"Great River",NY
14706,"Great Valley",NY
14731,"Great Valley",NY
14741,"Great Valley",NY
14748,"Great Valley",NY
14753,"Great Valley",NY
14779,"Great Valley",NY
13778,Greene,NY
12833,"Greenfield Center",NY
12435,"Greenfield Park",NY
14742,Greenhurst,NY
11721,Greenlawn,NY
11740,Greenlawn,NY
11743,Greenlawn,NY
11944,Greenport,NY
12172,Greenport,NY
12534,Greenport,NY
11548,Greenvale,NY
10530,Greenville,NY
10583,Greenville,NY
10940,Greenville,NY
10998,Greenville,NY
12042,Greenville,NY
12083,Greenville,NY
12087,Greenville,NY
12176,Greenville,NY
12431,Greenville,NY
12451,Greenville,NY
12771,Greenville,NY
12834,Greenwich,NY
14806,Greenwood,NY
14823,Greenwood,NY
14839,Greenwood,NY
14877,Greenwood,NY
10925,"Greenwood Lake",NY
13312,Greig,NY
13343,Greig,NY
13345,Greig,NY
13368,Greig,NY
13073,Groton,NY
14435,Groveland,NY
14437,Groveland,NY
14454,Groveland,NY
14462,Groveland,NY
14510,Groveland,NY
14556,Groveland,NY
12009,Guilderland,NY
12084,Guilderland,NY
12085,Guilderland,NY
12159,Guilderland,NY
12186,Guilderland,NY
12203,Guilderland,NY
12205,Guilderland,NY
12222,Guilderland,NY
12303,Guilderland,NY
12306,Guilderland,NY
12085,"Guilderland Center",NY
13733,Guilford,NY
13780,Guilford,NY
13809,Guilford,NY
13815,Guilford,NY
13843,Guilford,NY
12822,Hadley,NY
12835,Hadley,NY
12010,Hagaman,NY
12086,Hagaman,NY
12836,Hague,NY
12862,Hague,NY
12874,Hague,NY
13642,Hailesboro,NY
12436,"Haines Falls",NY
12438,Halcottsville,NY
14456,Hall,NY
14561,Hall,NY
14010,Hamburg,NY
14075,Hamburg,NY
13752,Hamden,NY
13753,Hamden,NY
13782,Hamden,NY
13856,Hamden,NY
13346,Hamilton,NY
14420,Hamlin,NY
14464,Hamlin,NY
14468,Hamlin,NY
14470,Hamlin,NY
14476,Hamlin,NY
13646,Hammond,NY
14840,Hammondsport,NY
12837,Hampton,NY
12887,Hampton,NY
11901,"Hampton Bays",NY
11946,"Hampton Bays",NY
13783,Hancock,NY
12741,Hankins,NY
12087,Hannacroix,NY
13625,"Hannawa Falls",NY
13647,"Hannawa Falls",NY
13676,"Hannawa Falls",NY
13074,Hannibal,NY
13053,Harford,NY
13784,Harford,NY
13803,Harford,NY
13835,Harford,NY
12093,Harpersfield,NY
12167,Harpersfield,NY
13786,Harpersfield,NY
13788,Harpersfield,NY
13787,Harpursville,NY
10926,Harriman,NY
10950,Harriman,NY
12742,Harris,NY
10528,Harrison,NY
10577,Harrison,NY
10580,Harrison,NY
10604,Harrison,NY
13648,Harrisville,NY
12809,Hartford,NY
12827,Hartford,NY
12832,Hartford,NY
12838,Hartford,NY
10530,Hartsdale,NY
10583,Hartsdale,NY
13326,Hartwick,NY
13348,Hartwick,NY
13807,Hartwick,NY
13810,Hartwick,NY
13820,Hartwick,NY
13036,Hastings,NY
13076,Hastings,NY
13103,Hastings,NY
13131,Hastings,NY
13132,Hastings,NY
10706,"Hastings On Hudson",NY
11760,Hauppauge,NY
11787,Hauppauge,NY
11788,Hauppauge,NY
10927,Haverstraw,NY
10532,Hawthorne,NY
14805,Hector,NY
14818,Hector,NY
14841,Hector,NY
14863,Hector,NY
14865,Hector,NY
14869,Hector,NY
14886,Hector,NY
13649,Helena,NY
14466,Hemlock,NY
14487,Hemlock,NY
11549,Hempstead,NY
11550,Hempstead,NY
11551,Hempstead,NY
13605,Henderson,NY
13650,Henderson,NY
13651,Henderson,NY
13685,Henderson,NY
13651,"Henderson Harbor",NY
14467,Henrietta,NY
14534,Henrietta,NY
14543,Henrietta,NY
14586,Henrietta,NY
14618,Henrietta,NY
14623,Henrietta,NY
12439,Hensonville,NY
13350,Herkimer,NY
13652,Hermon,NY
13654,Heuvelton,NY
11557,Hewlett,NY
11563,Hewlett,NY
11598,Hewlett,NY
11590,Hicksville,NY
11791,Hicksville,NY
11801,Hicksville,NY
11802,Hicksville,NY
11815,Hicksville,NY
11819,Hicksville,NY
11854,Hicksville,NY
11855,Hicksville,NY
12440,"High Falls",NY
12528,Highland,NY
12719,Highland,NY
12732,Highland,NY
12743,Highland,NY
12764,Highland,NY
12792,Highland,NY
10928,"Highland Falls",NY
10996,"Highland Falls",NY
12743,"Highland Lake",NY
10930,"Highland Mills",NY
12441,Highmount,NY
10931,Hillburn,NY
12075,Hillsdale,NY
12521,Hillsdale,NY
12529,Hillsdale,NY
14468,Hilton,NY
14842,Himrod,NY
13352,Hinckley,NY
14706,Hinsdale,NY
14727,Hinsdale,NY
14743,Hinsdale,NY
14760,Hinsdale,NY
13788,Hobart,NY
11549,Hoffmeister,NY
13655,Hogansburg,NY
11741,Holbrook,NY
11779,Holbrook,NY
14080,Holland,NY
14139,Holland,NY
14145,Holland,NY
13354,"Holland Patent",NY
14470,Holley,NY
11423,Hollis,NY
12530,Hollowville,NY
12531,Holmes,NY
11738,Holtsville,NY
11741,Holtsville,NY
11742,Holtsville,NY
11763,Holtsville,NY
11772,Holtsville,NY
11779,Holtsville,NY
501,Holtsville,NY
544,Holtsville,NY
13045,Homer,NY
13077,Homer,NY
14471,Honeoye,NY
14472,"Honeoye Falls",NY
12028,Hoosick,NY
12057,Hoosick,NY
12089,Hoosick,NY
12090,Hoosick,NY
12133,Hoosick,NY
12090,"Hoosick Falls",NY
12533,"Hopewell Junction",NY
14843,Hornell,NY
14845,Horseheads,NY
14903,Horseheads,NY
12723,Hortonville,NY
12745,Hortonville,NY
14744,Houghton,NY
11414,"Howard Beach",NY
10932,Howells,NY
12092,"Howes Cave",NY
13355,Hubbardsville,NY
12534,Hudson,NY
12839,"Hudson Falls",NY
12537,Hughsonville,NY
12746,Huguenot,NY
12841,"Huletts Landing",NY
14065,Hume,NY
14536,Hume,NY
14735,Hume,NY
14745,Hume,NY
14846,Hunt,NY
12442,Hunter,NY
11721,Huntington,NY
11724,Huntington,NY
11725,Huntington,NY
11729,Huntington,NY
11731,Huntington,NY
11740,Huntington,NY
11743,Huntington,NY
11746,Huntington,NY
11747,Huntington,NY
11750,Huntington,NY
11768,Huntington,NY
11775,Huntington,NY
11743,"Huntington Station",NY
11746,"Huntington Station",NY
12401,Hurley,NY
12433,Hurley,NY
12443,Hurley,NY
12491,Hurley,NY
12498,Hurley,NY
12747,Hurleyville,NY
12538,"Hyde Park",NY
12572,"Hyde Park",NY
12580,"Hyde Park",NY
12601,"Hyde Park",NY
13357,Ilion,NY
12812,"Indian Lake",NY
12842,"Indian Lake",NY
12864,"Indian Lake",NY
13360,Inlet,NY
13436,Inlet,NY
14847,Interlaken,NY
11096,Inwood,NY
11559,Inwood,NY
14475,Ionia,NY
14081,Irving,NY
10533,Irvington,NY
11558,"Island Park",NY
11749,Islandia,NY
11702,Islip,NY
11705,Islip,NY
11706,Islip,NY
11715,Islip,NY
11716,Islip,NY
11717,Islip,NY
11718,Islip,NY
11722,Islip,NY
11730,Islip,NY
11739,Islip,NY
11741,Islip,NY
11742,Islip,NY
11749,Islip,NY
11751,Islip,NY
11752,Islip,NY
11760,Islip,NY
11769,Islip,NY
11770,Islip,NY
11772,Islip,NY
11779,Islip,NY
11782,Islip,NY
11788,Islip,NY
11795,Islip,NY
11796,Islip,NY
11752,"Islip Terrace",NY
14850,Ithaca,NY
14851,Ithaca,NY
14852,Ithaca,NY
14853,Ithaca,NY
11372,"Jackson Heights",NY
14854,Jacksonville,NY
11405,Jamaica,NY
11901,Jamesport,NY
11947,Jamesport,NY
11948,Jamesport,NY
11970,Jamesport,NY
14701,Jamestown,NY
14702,Jamestown,NY
13078,Jamesville,NY
14819,Jasper,NY
14823,Jasper,NY
14839,Jasper,NY
14855,Jasper,NY
14898,Jasper,NY
14082,"Java Center",NY
14083,"Java Village",NY
12912,Jay,NY
12941,Jay,NY
12987,Jay,NY
12093,Jefferson,NY
12167,Jefferson,NY
12175,Jefferson,NY
10535,"Jefferson Valley",NY
12748,Jeffersonville,NY
11590,Jericho,NY
11753,Jericho,NY
11801,Jericho,NY
11853,Jericho,NY
12424,Jewett,NY
12439,Jewett,NY
12442,Jewett,NY
12444,Jewett,NY
12811,Johnsburg,NY
12843,Johnsburg,NY
12853,Johnsburg,NY
12856,Johnsburg,NY
12862,Johnsburg,NY
12885,Johnsburg,NY
12886,Johnsburg,NY
10933,Johnson,NY
13790,"Johnson City",NY
13850,"Johnson City",NY
12094,Johnsonville,NY
12095,Johnstown,NY
13080,Jordan,NY
13361,Jordanville,NY
14856,Kanona,NY
10536,Katonah,NY
12844,"Kattskill Bay",NY
12749,"Kauneonga Lake",NY
12942,Keene,NY
12943,Keene,NY
12943,"Keene Valley",NY
12944,Keeseville,NY
14464,Kendall,NY
14470,Kendall,NY
14476,Kendall,NY
14477,Kendall,NY
14508,Kendall,NY
14747,Kennedy,NY
12750,"Kenoza Lake",NY
10512,Kent,NY
12531,Kent,NY
12533,Kent,NY
12582,Kent,NY
12446,Kerhonkson,NY
14478,"Keuka Park",NY
14527,"Keuka Park",NY
11415,"Kew Gardens",NY
12751,"Kiamesha Lake",NY
14748,"Kill Buck",NY
13794,Killawog,NY
12106,Kinderhook,NY
13081,"King Ferry",NY
11754,"Kings Park",NY
12401,Kingston,NY
12402,Kingston,NY
13082,Kirkville,NY
13795,Kirkwood,NY
13865,Kirkwood,NY
13904,Kirkwood,NY
14479,Knowlesville,NY
12009,Knox,NY
12023,Knox,NY
12053,Knox,NY
12059,Knox,NY
12107,Knox,NY
12157,Knox,NY
12186,Knox,NY
13362,Knoxboro,NY
13656,"La Fargeville",NY
13084,"La Fayette",NY
13083,Lacona,NY
12540,Lagrangeville,NY
12945,"Lake Clear",NY
12845,"Lake George",NY
11755,"Lake Grove",NY
12448,"Lake Hill",NY
12752,"Lake Huntington",NY
12449,"Lake Katrine",NY
12477,"Lake Katrine",NY
12804,"Lake Luzerne",NY
12846,"Lake Luzerne",NY
10537,"Lake Peekskill",NY
12946,"Lake Placid",NY
12108,"Lake Pleasant",NY
12164,"Lake Pleasant",NY
14085,"Lake View",NY
14857,Lakemont,NY
14454,Lakeville,NY
14480,Lakeville,NY
14487,Lakeville,NY
14750,Lakewood,NY
14043,Lancaster,NY
14086,Lancaster,NY
12450,Lanesville,NY
14850,Lansing,NY
10538,Larchmont,NY
12110,Latham,NY
11948,Laurel,NY
11952,Laurel,NY
13796,Laurens,NY
11559,Lawrence,NY
12930,Lawrence,NY
12965,Lawrence,NY
12967,Lawrence,NY
13613,Lawrence,NY
13697,Lawrence,NY
12949,Lawrenceville,NY
14091,Lawtons,NY
14482,"Le Roy",NY
13363,"Lee Center",NY
12451,Leeds,NY
14481,Leicester,NY
14138,Leon,NY
14719,Leon,NY
14726,Leon,NY
14751,Leon,NY
13364,Leonardsville,NY
11714,Levittown,NY
11756,Levittown,NY
11783,Levittown,NY
11793,Levittown,NY
12932,Lewis,NY
12950,Lewis,NY
12993,Lewis,NY
12996,Lewis,NY
13309,Lewis,NY
13316,Lewis,NY
13325,Lewis,NY
13471,Lewis,NY
13489,Lewis,NY
14092,Lewiston,NY
12430,Lexington,NY
12442,Lexington,NY
12444,Lexington,NY
12452,Lexington,NY
12468,Lexington,NY
12480,Lexington,NY
12492,Lexington,NY
12754,Liberty,NY
14752,"Lily Dale",NY
14485,Lima,NY
13657,Limerick,NY
14753,Limestone,NY
10505,Lincolndale,NY
10541,Lincolndale,NY
10589,Lincolndale,NY
11757,Lindenhurst,NY
14830,Lindley,NY
14858,Lindley,NY
14870,Lindley,NY
14486,Linwood,NY
14525,Linwood,NY
13617,Lisbon,NY
13654,Lisbon,NY
13658,Lisbon,NY
13669,Lisbon,NY
13680,Lisbon,NY
13797,Lisle,NY
13365,"Little Falls",NY
14754,"Little Genesee",NY
11362,"Little Neck",NY
14755,"Little Valley",NY
13087,"Little York",NY
13088,Liverpool,NY
12523,Livingston,NY
12526,Livingston,NY
12534,Livingston,NY
12541,Livingston,NY
12583,Livingston,NY
12758,"Livingston Manor",NY
14487,Livonia,NY
14487,"Livonia Center",NY
12747,"Loch Sheldrake",NY
12754,"Loch Sheldrake",NY
12759,"Loch Sheldrake",NY
13073,Locke,NY
13092,Locke,NY
13118,Locke,NY
14094,Lockport,NY
14095,Lockport,NY
14859,Lockwood,NY
11560,"Locust Valley",NY
14860,Lodi,NY
11561,"Long Beach",NY
12760,"Long Eddy",NY
11101,"Long Island City",NY
12847,"Long Lake",NY
13436,"Long Lake",NY
13605,Lorraine,NY
13659,Lorraine,NY
13661,Lorraine,NY
14861,Lowman,NY
13367,Lowville,NY
13093,Lycoming,NY
11563,Lynbrook,NY
14098,Lyndonville,NY
12935,"Lyon Mountain",NY
12952,"Lyon Mountain",NY
14489,Lyons,NY
13368,"Lyons Falls",NY
14502,Macedon,NY
14042,Machias,NY
14101,Machias,NY
14171,Machias,NY
14737,Machias,NY
13402,Madison,NY
13621,Madrid,NY
13658,Madrid,NY
13660,Madrid,NY
13667,Madrid,NY
10541,Mahopac,NY
10542,Mahopac,NY
10542,"Mahopac Falls",NY
13760,Maine,NY
13777,Maine,NY
13790,Maine,NY
13802,Maine,NY
13811,Maine,NY
13905,Maine,NY
12115,"Malden Bridge",NY
12453,"Malden On Hudson",NY
13103,Mallory,NY
12953,Malone,NY
11565,Malverne,NY
10538,Mamaroneck,NY
10543,Mamaroneck,NY
14504,Manchester,NY
14548,Manchester,NY
11020,Manhasset,NY
11030,Manhasset,NY
13104,Manlius,NY
13661,Mannsville,NY
11949,Manorville,NY
11955,Manorville,NY
11967,Manorville,NY
14756,"Maple Springs",NY
13107,"Maple View",NY
12454,Maplecrest,NY
13803,Marathon,NY
13108,Marcellus,NY
13354,Marcy,NY
13403,Marcy,NY
13440,Marcy,NY
13469,Marcy,NY
13502,Marcy,NY
12455,Margaretville,NY
13110,Marietta,NY
14004,Marilla,NY
14037,Marilla,NY
14052,Marilla,NY
14059,Marilla,NY
14086,Marilla,NY
14102,Marilla,NY
14505,Marion,NY
14519,Marion,NY
14568,Marion,NY
12542,Marlboro,NY
13343,Martinsburg,NY
13367,Martinsburg,NY
13404,Martinsburg,NY
13473,Martinsburg,NY
13111,Martville,NY
10545,Maryknoll,NY
12116,Maryland,NY
12155,Maryland,NY
12197,Maryland,NY
13733,Masonville,NY
13804,Masonville,NY
13838,Masonville,NY
13839,Masonville,NY
13849,Masonville,NY
13856,Masonville,NY
11378,Maspeth,NY
11758,Massapequa,NY
11762,"Massapequa Park",NY
13662,Massena,NY
11949,Mastic,NY
11950,Mastic,NY
11951,"Mastic Beach",NY
11967,"Mastic Beach",NY
11935,Mattituck,NY
11952,Mattituck,NY
12543,Maybrook,NY
12078,Mayfield,NY
12117,Mayfield,NY
14757,Mayville,NY
13401,"Mc Connellsville",NY
13801,"Mc Donough",NY
13101,"Mc Graw",NY
13102,"Mc Lean",NY
12118,Mechanicville,NY
14863,Mecklenburg,NY
11738,Medford,NY
11763,Medford,NY
14103,Medina,NY
12120,Medusa,NY
12544,Mellenville,NY
12121,Melrose,NY
11746,Melville,NY
11747,Melville,NY
11775,Melville,NY
13112,Memphis,NY
14467,Mendon,NY
14472,Mendon,NY
14506,Mendon,NY
14534,Mendon,NY
13806,Meridale,NY
13033,Meridian,NY
13113,Meridian,NY
11520,Merrick,NY
11566,Merrick,NY
13114,Mexico,NY
12555,"Mid Hudson",NY
12848,"Middle Falls",NY
12849,"Middle Granville",NY
12850,"Middle Grove",NY
11763,"Middle Island",NY
11953,"Middle Island",NY
11379,"Middle Village",NY
12122,Middleburgh,NY
14105,Middleport,NY
14507,Middlesex,NY
14512,Middlesex,NY
14544,Middlesex,NY
10940,Middletown,NY
10943,Middletown,NY
12406,Middletown,NY
12421,Middletown,NY
12430,Middletown,NY
12438,Middletown,NY
12441,Middletown,NY
12455,Middletown,NY
12459,Middletown,NY
12465,Middletown,NY
13406,Middleville,NY
13416,Middleville,NY
13807,Milford,NY
11560,"Mill Neck",NY
11765,"Mill Neck",NY
11771,"Mill Neck",NY
12545,Millbrook,NY
11764,"Miller Place",NY
11766,"Miller Place",NY
11953,"Miller Place",NY
12546,Millerton,NY
14864,Millport,NY
10546,Millwood,NY
12020,Milton,NY
12542,Milton,NY
12547,Milton,NY
12850,Milton,NY
12863,Milton,NY
12866,Milton,NY
11501,Mineola,NY
12851,Minerva,NY
12852,Minerva,NY
12853,Minerva,NY
12857,Minerva,NY
13069,Minetto,NY
13115,Minetto,NY
13126,Minetto,NY
12956,Mineville,NY
12974,Mineville,NY
12998,Mineville,NY
13057,Minoa,NY
13116,Minoa,NY
14107,"Model City",NY
12548,Modena,NY
12068,Mohawk,NY
12095,Mohawk,NY
12177,Mohawk,NY
13407,Mohawk,NY
10547,"Mohegan Lake",NY
12916,Moira,NY
12957,Moira,NY
12762,"Mongaup Valley",NY
10949,Monroe,NY
10950,Monroe,NY
10952,Monsey,NY
10977,Monsey,NY
11954,Montauk,NY
13021,Montezuma,NY
13034,Montezuma,NY
13117,Montezuma,NY
13140,Montezuma,NY
12549,Montgomery,NY
12701,Monticello,NY
14865,"Montour Falls",NY
14891,"Montour Falls",NY
10520,Montrose,NY
10548,Montrose,NY
12910,Mooers,NY
12921,Mooers,NY
12935,Mooers,NY
12958,Mooers,NY
12959,Mooers,NY
12959,"Mooers Forks",NY
13118,Moravia,NY
12956,Moriah,NY
12960,Moriah,NY
12961,Moriah,NY
12974,Moriah,NY
12993,Moriah,NY
12998,Moriah,NY
12961,"Moriah Center",NY
11955,Moriches,NY
13808,Morris,NY
12901,Morrisonville,NY
12962,Morrisonville,NY
13664,Morristown,NY
13408,Morrisville,NY
14508,Morton,NY
13119,Mottville,NY
10549,"Mount Kisco",NY
12456,"Mount Marion",NY
14510,"Mount Morris",NY
11766,"Mount Sinai",NY
11776,"Mount Sinai",NY
12457,"Mount Tremper",NY
13809,"Mount Upton",NY
10550,"Mount Vernon",NY
10551,"Mount Vernon",NY
10552,"Mount Vernon",NY
10553,"Mount Vernon",NY
10557,"Mount Vernon",NY
10558,"Mount Vernon",NY
10708,"Mount Vernon",NY
13810,"Mount Vision",NY
12763,"Mountain Dale",NY
10953,Mountainville,NY
14511,Mumford,NY
13409,Munnsville,NY
10954,Nanuet,NY
10977,Nanuet,NY
10994,Nanuet,NY
12458,Napanoch,NY
12489,Napanoch,NY
14512,Naples,NY
12764,Narrowsburg,NY
12123,Nassau,NY
13665,"Natural Bridge",NY
13120,Nedrow,NY
13205,Nedrow,NY
13339,Nelliston,NY
13410,Nelliston,NY
13428,Nelliston,NY
11767,Nesconset,NY
11780,Nesconset,NY
11787,Nesconset,NY
12458,Neversink,NY
12725,Neversink,NY
12740,Neversink,NY
12754,Neversink,NY
12758,Neversink,NY
12759,Neversink,NY
12765,Neversink,NY
12768,Neversink,NY
12788,Neversink,NY
12042,"New Baltimore",NY
12046,"New Baltimore",NY
12051,"New Baltimore",NY
12058,"New Baltimore",NY
12087,"New Baltimore",NY
12124,"New Baltimore",NY
12143,"New Baltimore",NY
12192,"New Baltimore",NY
13411,"New Berlin",NY
10920,"New City",NY
10954,"New City",NY
10956,"New City",NY
10958,"New Hampton",NY
13413,"New Hartford",NY
13069,"New Haven",NY
13114,"New Haven",NY
13121,"New Haven",NY
13126,"New Haven",NY
11040,"New Hyde Park",NY
11041,"New Hyde Park",NY
11043,"New Hyde Park",NY
11044,"New Hyde Park",NY
11099,"New Hyde Park",NY
12459,"New Kingston",NY
12029,"New Lebanon",NY
12060,"New Lebanon",NY
12062,"New Lebanon",NY
12125,"New Lebanon",NY
12195,"New Lebanon",NY
13315,"New Lisbon",NY
13335,"New Lisbon",NY
13342,"New Lisbon",NY
13348,"New Lisbon",NY
13415,"New Lisbon",NY
13796,"New Lisbon",NY
13808,"New Lisbon",NY
13810,"New Lisbon",NY
10959,"New Milford",NY
12561,"New Paltz",NY
10538,"New Rochelle",NY
10583,"New Rochelle",NY
10801,"New Rochelle",NY
10802,"New Rochelle",NY
10804,"New Rochelle",NY
10805,"New Rochelle",NY
12964,"New Russia",NY
11956,"New Suffolk",NY
10992,"New Windsor",NY
12543,"New Windsor",NY
12550,"New Windsor",NY
12553,"New Windsor",NY
12575,"New Windsor",NY
12577,"New Windsor",NY
13122,"New Woodstock",NY
10001,"New York",NY
10002,"New York",NY
10003,"New York",NY
10004,"New York",NY
10005,"New York",NY
10006,"New York",NY
10007,"New York",NY
10008,"New York",NY
10009,"New York",NY
10010,"New York",NY
10011,"New York",NY
10012,"New York",NY
10013,"New York",NY
10014,"New York",NY
10016,"New York",NY
10017,"New York",NY
10018,"New York",NY
10019,"New York",NY
10021,"New York",NY
10022,"New York",NY
10023,"New York",NY
10024,"New York",NY
10025,"New York",NY
10026,"New York",NY
10027,"New York",NY
10028,"New York",NY
10029,"New York",NY
10030,"New York",NY
10031,"New York",NY
10032,"New York",NY
10033,"New York",NY
10034,"New York",NY
10035,"New York",NY
10036,"New York",NY
10037,"New York",NY
10038,"New York",NY
10039,"New York",NY
10040,"New York",NY
10043,"New York",NY
10044,"New York",NY
10046,"New York",NY
10047,"New York",NY
10065,"New York",NY
10069,"New York",NY
10072,"New York",NY
10075,"New York",NY
10079,"New York",NY
10080,"New York",NY
10081,"New York",NY
10082,"New York",NY
10087,"New York",NY
10094,"New York",NY
10096,"New York",NY
10101,"New York",NY
10102,"New York",NY
10108,"New York",NY
10109,"New York",NY
10113,"New York",NY
10114,"New York",NY
10116,"New York",NY
10117,"New York",NY
10124,"New York",NY
10125,"New York",NY
10126,"New York",NY
10128,"New York",NY
10129,"New York",NY
10130,"New York",NY
10131,"New York",NY
10132,"New York",NY
10133,"New York",NY
10138,"New York",NY
10149,"New York",NY
10150,"New York",NY
10156,"New York",NY
10157,"New York",NY
10159,"New York",NY
10160,"New York",NY
10163,"New York",NY
10164,"New York",NY
10179,"New York",NY
10184,"New York",NY
10185,"New York",NY
10196,"New York",NY
10197,"New York",NY
10203,"New York",NY
10211,"New York",NY
10212,"New York",NY
10213,"New York",NY
10242,"New York",NY
10249,"New York",NY
10256,"New York",NY
10257,"New York",NY
10258,"New York",NY
10259,"New York",NY
10260,"New York",NY
10261,"New York",NY
10265,"New York",NY
10268,"New York",NY
10269,"New York",NY
10272,"New York",NY
10273,"New York",NY
10274,"New York",NY
10275,"New York",NY
10276,"New York",NY
10277,"New York",NY
10280,"New York",NY
10282,"New York",NY
10285,"New York",NY
10286,"New York",NY
10292,"New York",NY
10301,"New York",NY
10302,"New York",NY
10303,"New York",NY
10304,"New York",NY
10305,"New York",NY
10306,"New York",NY
10307,"New York",NY
10308,"New York",NY
10309,"New York",NY
10310,"New York",NY
10311,"New York",NY
10312,"New York",NY
10313,"New York",NY
10314,"New York",NY
10451,"New York",NY
10452,"New York",NY
10453,"New York",NY
10454,"New York",NY
10455,"New York",NY
10456,"New York",NY
10457,"New York",NY
10458,"New York",NY
10459,"New York",NY
10460,"New York",NY
10461,"New York",NY
10462,"New York",NY
10463,"New York",NY
10464,"New York",NY
10465,"New York",NY
10466,"New York",NY
10467,"New York",NY
10468,"New York",NY
10469,"New York",NY
10470,"New York",NY
10471,"New York",NY
10472,"New York",NY
10473,"New York",NY
10474,"New York",NY
10475,"New York",NY
10499,"New York",NY
11001,"New York",NY
11004,"New York",NY
11005,"New York",NY
11040,"New York",NY
11101,"New York",NY
11102,"New York",NY
11103,"New York",NY
11104,"New York",NY
11105,"New York",NY
11106,"New York",NY
11109,"New York",NY
11120,"New York",NY
11201,"New York",NY
11202,"New York",NY
11203,"New York",NY
11204,"New York",NY
11205,"New York",NY
11206,"New York",NY
11207,"New York",NY
11208,"New York",NY
11209,"New York",NY
11210,"New York",NY
11211,"New York",NY
11212,"New York",NY
11213,"New York",NY
11214,"New York",NY
11215,"New York",NY
11216,"New York",NY
11217,"New York",NY
11218,"New York",NY
11219,"New York",NY
11220,"New York",NY
11221,"New York",NY
11222,"New York",NY
11223,"New York",NY
11224,"New York",NY
11225,"New York",NY
11226,"New York",NY
11228,"New York",NY
11229,"New York",NY
11230,"New York",NY
11231,"New York",NY
11232,"New York",NY
11233,"New York",NY
11234,"New York",NY
11235,"New York",NY
11236,"New York",NY
11237,"New York",NY
11238,"New York",NY
11239,"New York",NY
11244,"New York",NY
11245,"New York",NY
11247,"New York",NY
11248,"New York",NY
11251,"New York",NY
11254,"New York",NY
11255,"New York",NY
11352,"New York",NY
11354,"New York",NY
11355,"New York",NY
11356,"New York",NY
11357,"New York",NY
11358,"New York",NY
11359,"New York",NY
11360,"New York",NY
11361,"New York",NY
11362,"New York",NY
11363,"New York",NY
11364,"New York",NY
11365,"New York",NY
11366,"New York",NY
11367,"New York",NY
11368,"New York",NY
11369,"New York",NY
11370,"New York",NY
11371,"New York",NY
11372,"New York",NY
11373,"New York",NY
11374,"New York",NY
11375,"New York",NY
11377,"New York",NY
11378,"New York",NY
11379,"New York",NY
11380,"New York",NY
11381,"New York",NY
11385,"New York",NY
11386,"New York",NY
11390,"New York",NY
11405,"New York",NY
11411,"New York",NY
11412,"New York",NY
11413,"New York",NY
11414,"New York",NY
11415,"New York",NY
11416,"New York",NY
11417,"New York",NY
11418,"New York",NY
11419,"New York",NY
11420,"New York",NY
11421,"New York",NY
11422,"New York",NY
11423,"New York",NY
11424,"New York",NY
11425,"New York",NY
11426,"New York",NY
11427,"New York",NY
11428,"New York",NY
11429,"New York",NY
11430,"New York",NY
11431,"New York",NY
11432,"New York",NY
11433,"New York",NY
11434,"New York",NY
11435,"New York",NY
11436,"New York",NY
11439,"New York",NY
11451,"New York",NY
11499,"New York",NY
11690,"New York",NY
11691,"New York",NY
11692,"New York",NY
11693,"New York",NY
11694,"New York",NY
11695,"New York",NY
11697,"New York",NY
14513,Newark,NY
13811,"Newark Valley",NY
12550,Newburgh,NY
12551,Newburgh,NY
12552,Newburgh,NY
12852,Newcomb,NY
12855,Newcomb,NY
14008,Newfane,NY
14028,Newfane,NY
14094,Newfane,NY
14108,Newfane,NY
14126,Newfane,NY
14850,Newfield,NY
14867,Newfield,NY
14883,Newfield,NY
13416,Newport,NY
13666,"Newton Falls",NY
12110,Newtonville,NY
14301,"Niagara Falls",NY
14302,"Niagara Falls",NY
14303,"Niagara Falls",NY
14304,"Niagara Falls",NY
14305,"Niagara Falls",NY
14109,"Niagara University",NY
13812,Nichols,NY
12965,Nicholville,NY
13813,Nineveh,NY
14758,Niobe,NY
12130,Niverville,NY
12184,Niverville,NY
13613,Norfolk,NY
13621,Norfolk,NY
13662,Norfolk,NY
13667,Norfolk,NY
13668,Norfolk,NY
13678,Norfolk,NY
11702,"North Babylon",NY
11703,"North Babylon",NY
11704,"North Babylon",NY
12966,"North Bangor",NY
13123,"North Bay",NY
12131,"North Blenheim",NY
14075,"North Boston",NY
14110,"North Boston",NY
12766,"North Branch",NY
13418,"North Brookfield",NY
12132,"North Chatham",NY
14514,"North Chili",NY
14111,"North Collins",NY
12853,"North Creek",NY
14112,"North Evans",NY
12854,"North Granville",NY
14515,"North Greece",NY
12133,"North Hoosick",NY
12855,"North Hudson",NY
14113,"North Java",NY
12967,"North Lawrence",NY
13460,"North Norwich",NY
13464,"North Norwich",NY
13814,"North Norwich",NY
13815,"North Norwich",NY
13124,"North Pitcher",NY
12856,"North River",NY
14516,"North Rose",NY
10519,"North Salem",NY
10560,"North Salem",NY
10578,"North Salem",NY
10589,"North Salem",NY
14120,"North Tonawanda",NY
11768,Northport,NY
11901,Northville,NY
11947,Northville,NY
12134,Northville,NY
13815,Norwich,NY
13668,Norwood,NY
14517,Nunda,NY
10960,Nyack,NY
12460,"Oak Hill",NY
11769,Oakdale,NY
14125,Oakfield,NY
11364,"Oakland Gardens",NY
14518,"Oaks Corners",NY
12767,Obernburg,NY
11770,"Ocean Beach",NY
11510,Oceanside,NY
11572,Oceanside,NY
14869,Odessa,NY
13669,Ogdensburg,NY
14028,Olcott,NY
14126,Olcott,NY
11735,"Old Bethpage",NY
11803,"Old Bethpage",NY
11804,"Old Bethpage",NY
12136,"Old Chatham",NY
13420,"Old Forge",NY
11548,"Old Westbury",NY
11568,"Old Westbury",NY
14760,Olean,NY
12461,Olivebridge,NY
12857,Olmstedville,NY
13032,Oneida,NY
13163,Oneida,NY
13409,Oneida,NY
13421,Oneida,NY
13820,Oneonta,NY
14519,Ontario,NY
14520,Ontario,NY
14520,"Ontario Center",NY
10962,Orangeburg,NY
10976,Orangeburg,NY
14127,"Orchard Park",NY
11957,Orient,NY
13424,Oriskany,NY
13425,"Oriskany Falls",NY
13083,Orwell,NY
13144,Orwell,NY
13302,Orwell,NY
13426,Orwell,NY
10510,Ossining,NY
10562,Ossining,NY
13654,Oswegatchie,NY
13669,Oswegatchie,NY
13680,Oswegatchie,NY
13126,Oswego,NY
13825,Otego,NY
10963,Otisville,NY
14719,Otto,NY
14729,Otto,NY
14755,Otto,NY
14766,Otto,NY
13826,Ouaquaga,NY
14521,Ovid,NY
13827,Owego,NY
12969,"Owls Head",NY
13608,Oxbow,NY
13830,Oxford,NY
11542,"Oyster Bay",NY
11545,"Oyster Bay",NY
11547,"Oyster Bay",NY
11548,"Oyster Bay",NY
11560,"Oyster Bay",NY
11568,"Oyster Bay",NY
11576,"Oyster Bay",NY
11579,"Oyster Bay",NY
11590,"Oyster Bay",NY
11709,"Oyster Bay",NY
11714,"Oyster Bay",NY
11732,"Oyster Bay",NY
11735,"Oyster Bay",NY
11736,"Oyster Bay",NY
11753,"Oyster Bay",NY
11758,"Oyster Bay",NY
11762,"Oyster Bay",NY
11765,"Oyster Bay",NY
11771,"Oyster Bay",NY
11773,"Oyster Bay",NY
11774,"Oyster Bay",NY
11783,"Oyster Bay",NY
11791,"Oyster Bay",NY
11797,"Oyster Bay",NY
11801,"Oyster Bay",NY
11802,"Oyster Bay",NY
11803,"Oyster Bay",NY
11804,"Oyster Bay",NY
11815,"Oyster Bay",NY
11819,"Oyster Bay",NY
11853,"Oyster Bay",NY
11854,"Oyster Bay",NY
11855,"Oyster Bay",NY
11416,"Ozone Park",NY
14870,"Painted Post",NY
13428,"Palatine Bridge",NY
12463,Palenville,NY
10964,Palisades,NY
14522,Palmyra,NY
14767,Panama,NY
12858,Paradox,NY
13131,Parish,NY
13625,Parishville,NY
13672,Parishville,NY
13676,Parishville,NY
13687,Parishville,NY
12768,Parksville,NY
11772,Patchogue,NY
10509,Patterson,NY
10512,Patterson,NY
12531,Patterson,NY
12563,Patterson,NY
12137,Pattersonville,NY
12970,"Paul Smiths",NY
14054,Pavilion,NY
14482,Pavilion,NY
14525,Pavilion,NY
14591,Pavilion,NY
12564,Pawling,NY
10954,"Pearl River",NY
10962,"Pearl River",NY
10965,"Pearl River",NY
10994,"Pearl River",NY
11958,Peconic,NY
11971,Peconic,NY
10566,Peekskill,NY
10803,Pelham,NY
14450,Penfield,NY
14502,Penfield,NY
14526,Penfield,NY
14580,Penfield,NY
14609,Penfield,NY
14625,Penfield,NY
14527,"Penn Yan",NY
13132,Pennellville,NY
14529,Perkinsville,NY
14530,Perry,NY
14070,Perrysburg,NY
14081,Perrysburg,NY
14129,Perrysburg,NY
14138,Perrysburg,NY
14168,Perrysburg,NY
12901,Peru,NY
12972,Peru,NY
12985,Peru,NY
13134,Peterboro,NY
12138,Petersburg,NY
14532,Phelps,NY
13673,Philadelphia,NY
12769,Phillipsport,NY
12565,Philmont,NY
12464,Phoenicia,NY
13135,Phoenix,NY
12847,Piercefield,NY
12922,Piercefield,NY
12973,Piercefield,NY
12986,Piercefield,NY
10960,Piermont,NY
10968,Piermont,NY
13605,"Pierrepont Manor",NY
13661,"Pierrepont Manor",NY
13674,"Pierrepont Manor",NY
14533,Piffard,NY
14024,Pike,NY
14066,Pike,NY
14130,Pike,NY
14427,Pike,NY
14536,Pike,NY
14735,Pike,NY
12566,"Pine Bush",NY
14871,"Pine City",NY
12410,"Pine Hill",NY
12441,"Pine Hill",NY
12465,"Pine Hill",NY
10969,"Pine Island",NY
12546,"Pine Plains",NY
12567,"Pine Plains",NY
12571,"Pine Plains",NY
12581,"Pine Plains",NY
14845,"Pine Valley",NY
14864,"Pine Valley",NY
14872,"Pine Valley",NY
12139,Piseco,NY
13040,Pitcher,NY
13052,Pitcher,NY
13124,Pitcher,NY
13136,Pitcher,NY
13155,Pitcher,NY
13801,Pitcher,NY
14534,Pittsford,NY
11797,Plainview,NY
11803,Plainview,NY
13137,Plainville,NY
12515,Plattekill,NY
12525,Plattekill,NY
12528,Plattekill,NY
12542,Plattekill,NY
12548,Plattekill,NY
12561,Plattekill,NY
12568,Plattekill,NY
12589,Plattekill,NY
12901,Plattsburgh,NY
12903,Plattsburgh,NY
12538,"Pleasant Valley",NY
12569,"Pleasant Valley",NY
12578,"Pleasant Valley",NY
12601,"Pleasant Valley",NY
10570,Pleasantville,NY
10571,Pleasantville,NY
10572,Pleasantville,NY
13656,Plessis,NY
13675,Plessis,NY
13691,Plessis,NY
13464,Plymouth,NY
13815,Plymouth,NY
13832,Plymouth,NY
13844,Plymouth,NY
12018,Poestenkill,NY
12138,Poestenkill,NY
12140,Poestenkill,NY
12196,Poestenkill,NY
12198,Poestenkill,NY
11569,"Point Lookout",NY
13431,Poland,NY
14701,Poland,NY
14733,Poland,NY
14738,Poland,NY
14747,Poland,NY
10901,Pomona,NY
10970,Pomona,NY
13035,Pompey,NY
13051,Pompey,NY
13063,Pompey,NY
13078,Pompey,NY
13084,Pompey,NY
13104,Pompey,NY
13122,Pompey,NY
13138,Pompey,NY
12770,"Pond Eddy",NY
13139,"Poplar Ridge",NY
13140,"Port Byron",NY
10573,"Port Chester",NY
13833,"Port Crane",NY
12401,"Port Ewen",NY
12417,"Port Ewen",NY
12466,"Port Ewen",NY
12487,"Port Ewen",NY
14432,"Port Gibson",NY
14522,"Port Gibson",NY
14537,"Port Gibson",NY
12974,"Port Henry",NY
11777,"Port Jefferson",NY
11733,"Port Jefferson Station",NY
11776,"Port Jefferson Station",NY
11777,"Port Jefferson Station",NY
12771,"Port Jervis",NY
12975,"Port Kent",NY
13433,"Port Leyden",NY
11050,"Port Washington",NY
11051,"Port Washington",NY
11052,"Port Washington",NY
11053,"Port Washington",NY
11054,"Port Washington",NY
11055,"Port Washington",NY
14536,Portageville,NY
12859,"Porter Corners",NY
14048,Portland,NY
14063,Portland,NY
14716,Portland,NY
14728,Portland,NY
14757,Portland,NY
14769,Portland,NY
14787,Portland,NY
13834,Portlandville,NY
14770,Portville,NY
13676,Potsdam,NY
13699,Potsdam,NY
12860,Pottersville,NY
12601,Poughkeepsie,NY
12602,Poughkeepsie,NY
12603,Poughkeepsie,NY
12604,Poughkeepsie,NY
12570,Poughquag,NY
10506,"Pound Ridge",NY
10518,"Pound Ridge",NY
10576,"Pound Ridge",NY
14512,Prattsburgh,NY
14873,Prattsburgh,NY
12468,Prattsville,NY
12496,Prattsville,NY
13077,Preble,NY
13087,Preble,NY
13141,Preble,NY
13159,Preble,NY
12469,"Preston Hollow",NY
13435,Prospect,NY
13438,Prospect,NY
13142,Pulaski,NY
14418,Pulteney,NY
14840,Pulteney,NY
14873,Pulteney,NY
14874,Pulteney,NY
14589,Pultneyville,NY
10577,Purchase,NY
10578,Purdys,NY
12470,Purling,NY
12861,"Putnam Station",NY
10512,"Putnam Valley",NY
10516,"Putnam Valley",NY
10524,"Putnam Valley",NY
10537,"Putnam Valley",NY
10541,"Putnam Valley",NY
10579,"Putnam Valley",NY
10588,"Putnam Valley",NY
13677,Pyrites,NY
12141,"Quaker Street",NY
11427,"Queens Village",NY
12801,Queensbury,NY
12804,Queensbury,NY
12845,Queensbury,NY
11942,Quogue,NY
11959,Quogue,NY
11978,Quogue,NY
12976,"Rainbow Lake",NY
14730,Randolph,NY
14747,Randolph,NY
14772,Randolph,NY
14131,Ransomville,NY
13436,"Raquette Lake",NY
12143,Ravena,NY
12158,Ravena,NY
12977,"Ray Brook",NY
13678,Raymondville,NY
14876,"Reading Center",NY
13143,"Red Creek",NY
12571,"Red Hook",NY
13083,Redfield,NY
13144,Redfield,NY
13302,Redfield,NY
13437,Redfield,NY
13493,Redfield,NY
12978,Redford,NY
12981,Redford,NY
13679,Redwood,NY
11374,"Rego Park",NY
13438,Remsen,NY
11960,Remsenburg,NY
12144,Rensselaer,NY
13680,"Rensselaer Falls",NY
12023,Rensselaerville,NY
12083,Rensselaerville,NY
12120,Rensselaerville,NY
12122,Rensselaerville,NY
12147,Rensselaerville,NY
12469,Rensselaerville,NY
14533,Retsof,NY
14539,Retsof,NY
12148,Rexford,NY
14877,Rexville,NY
12572,Rhinebeck,NY
12574,Rhinebeck,NY
12572,Rhinecliff,NY
12574,Rhinecliff,NY
14715,Richburg,NY
14774,Richburg,NY
13439,"Richfield Springs",NY
13736,Richford,NY
13835,Richford,NY
14817,Richford,NY
13083,Richland,NY
13114,Richland,NY
13142,Richland,NY
13144,Richland,NY
11418,"Richmond Hill",NY
12149,Richmondville,NY
13681,Richville,NY
11786,Ridge,NY
11792,Ridge,NY
11961,Ridge,NY
11385,Ridgewood,NY
12471,Rifton,NY
12487,Rifton,NY
12561,Rifton,NY
12862,Riparius,NY
14775,Ripley,NY
14787,Ripley,NY
11792,Riverhead,NY
11901,Riverhead,NY
11931,Riverhead,NY
11933,Riverhead,NY
11947,Riverhead,NY
11948,Riverhead,NY
11949,Riverhead,NY
11970,Riverhead,NY
12404,Rochester,NY
12440,Rochester,NY
12446,Rochester,NY
12458,Rochester,NY
12484,Rochester,NY
14602,Rochester,NY
14604,Rochester,NY
14605,Rochester,NY
14606,Rochester,NY
14607,Rochester,NY
14608,Rochester,NY
14609,Rochester,NY
14610,Rochester,NY
14611,Rochester,NY
14612,Rochester,NY
14613,Rochester,NY
14614,Rochester,NY
14615,Rochester,NY
14616,Rochester,NY
14617,Rochester,NY
14618,Rochester,NY
14619,Rochester,NY
14620,Rochester,NY
14621,Rochester,NY
14622,Rochester,NY
14623,Rochester,NY
14624,Rochester,NY
14627,Rochester,NY
14638,Rochester,NY
14639,Rochester,NY
14642,Rochester,NY
14643,Rochester,NY
14644,Rochester,NY
14645,Rochester,NY
14646,Rochester,NY
14647,Rochester,NY
14649,Rochester,NY
14650,Rochester,NY
14651,Rochester,NY
14652,Rochester,NY
14653,Rochester,NY
14664,Rochester,NY
14673,Rochester,NY
14683,Rochester,NY
14692,Rochester,NY
14694,Rochester,NY
12863,"Rock City Falls",NY
12775,"Rock Hill",NY
14878,"Rock Stream",NY
12575,"Rock Tavern",NY
11694,"Rockaway Park",NY
11563,"Rockville Centre",NY
11570,"Rockville Centre",NY
11571,"Rockville Centre",NY
11764,"Rocky Point",NY
11778,"Rocky Point",NY
11789,"Rocky Point",NY
11961,"Rocky Point",NY
13601,Rodman,NY
13605,Rodman,NY
13606,Rodman,NY
13682,Rodman,NY
13308,Rome,NY
13440,Rome,NY
13441,Rome,NY
13442,Rome,NY
13449,Rome,NY
13471,Rome,NY
13478,Rome,NY
14521,Romulus,NY
14541,Romulus,NY
14588,Romulus,NY
11779,Ronkonkoma,NY
11520,Roosevelt,NY
11575,Roosevelt,NY
13683,Rooseveltown,NY
12776,Roscoe,NY
14433,Rose,NY
14489,Rose,NY
14516,Rose,NY
14542,Rose,NY
14590,Rose,NY
12043,Roseboom,NY
12155,Roseboom,NY
13320,Roseboom,NY
13326,Roseboom,NY
13450,Roseboom,NY
13488,Roseboom,NY
11413,Rosedale,NY
12401,Rosendale,NY
12411,Rosendale,NY
12419,Rosendale,NY
12440,Rosendale,NY
12472,Rosendale,NY
12486,Rosendale,NY
12561,Rosendale,NY
11576,Roslyn,NY
11577,Roslyn,NY
11507,"Roslyn Heights",NY
11577,"Roslyn Heights",NY
12150,"Rotterdam Junction",NY
12118,"Round Lake",NY
12151,"Round Lake",NY
12473,"Round Top",NY
12979,"Rouses Point",NY
12167,Roxbury,NY
12421,Roxbury,NY
12430,Roxbury,NY
12434,Roxbury,NY
12459,Roxbury,NY
12468,Roxbury,NY
12474,Roxbury,NY
12475,Ruby,NY
14414,Rush,NY
14472,Rush,NY
14543,Rush,NY
14060,Rushford,NY
14717,Rushford,NY
14727,Rushford,NY
14744,Rushford,NY
14777,Rushford,NY
14544,Rushville,NY
13617,Russell,NY
13635,Russell,NY
13639,Russell,NY
13652,Russell,NY
13677,Russell,NY
13684,Russell,NY
10528,Rye,NY
10573,Rye,NY
10580,Rye,NY
12864,Sabael,NY
13685,"Sackets Harbor",NY
11963,"Sag Harbor",NY
11932,Sagaponack,NY
11962,Sagaponack,NY
11412,"Saint Albans",NY
14778,"Saint Bonaventure",NY
11780,"Saint James",NY
13452,"Saint Johnsville",NY
12980,"Saint Regis Falls",NY
14779,Salamanca,NY
12865,Salem,NY
13454,"Salisbury Center",NY
12577,"Salisbury Mills",NY
12578,"Salt Point",NY
14132,Sanborn,NY
12018,"Sand Lake",NY
12061,"Sand Lake",NY
12153,"Sand Lake",NY
12196,"Sand Lake",NY
14065,Sandusky,NY
13083,"Sandy Creek",NY
13145,"Sandy Creek",NY
13425,Sangerfield,NY
13455,Sangerfield,NY
13480,Sangerfield,NY
12918,Saranac,NY
12929,Saranac,NY
12952,Saranac,NY
12978,Saranac,NY
12981,Saranac,NY
12983,"Saranac Lake",NY
12020,"Saratoga Springs",NY
12833,"Saratoga Springs",NY
12866,"Saratoga Springs",NY
14030,Sardinia,NY
14055,Sardinia,NY
14069,Sardinia,NY
14080,Sardinia,NY
14134,Sardinia,NY
14141,Sardinia,NY
12477,Saugerties,NY
13456,Sauquoit,NY
13146,Savannah,NY
14433,Savannah,NY
14879,Savona,NY
11716,Sayville,NY
11782,Sayville,NY
11796,Sayville,NY
10583,Scarsdale,NY
12154,Schaghticoke,NY
12301,Schenectady,NY
12303,Schenectady,NY
12304,Schenectady,NY
12305,Schenectady,NY
12306,Schenectady,NY
12307,Schenectady,NY
12308,Schenectady,NY
12309,Schenectady,NY
12325,Schenectady,NY
12345,Schenectady,NY
12155,Schenevus,NY
12156,"Schodack Landing",NY
12157,Schoharie,NY
12870,"Schroon Lake",NY
12901,"Schuyler Falls",NY
12918,"Schuyler Falls",NY
12962,"Schuyler Falls",NY
12972,"Schuyler Falls",NY
12985,"Schuyler Falls",NY
13457,"Schuyler Lake",NY
12871,Schuylerville,NY
14707,Scio,NY
14880,Scio,NY
14895,Scio,NY
13147,"Scipio Center",NY
14545,Scottsburg,NY
14546,Scottsville,NY
11579,"Sea Cliff",NY
11783,Seaford,NY
11793,Seaford,NY
11738,Selden,NY
11776,Selden,NY
11784,Selden,NY
12158,Selkirk,NY
14547,"Seneca Castle",NY
13148,"Seneca Falls",NY
13165,"Seneca Falls",NY
12872,Severance,NY
12410,Shandaken,NY
12412,Shandaken,NY
12416,Shandaken,NY
12441,Shandaken,NY
12457,Shandaken,NY
12464,Shandaken,NY
12465,Shandaken,NY
12480,Shandaken,NY
13459,"Sharon Springs",NY
11964,"Shelter Island",NY
11965,"Shelter Island",NY
11964,"Shelter Island Heights",NY
11965,"Shelter Island Heights",NY
10598,Shenorock,NY
13460,Sherburne,NY
14048,Sheridan,NY
14062,Sheridan,NY
14063,Sheridan,NY
14135,Sheridan,NY
14136,Sheridan,NY
14781,Sherman,NY
13461,Sherrill,NY
13755,Shinhopple,NY
11950,Shirley,NY
11951,Shirley,NY
11967,Shirley,NY
12481,Shokan,NY
11786,Shoreham,NY
14548,Shortsville,NY
10547,"Shrub Oak",NY
10588,"Shrub Oak",NY
12873,Shushan,NY
13838,Sidney,NY
13839,"Sidney Center",NY
12874,"Silver Bay",NY
14136,"Silver Creek",NY
14549,"Silver Lake",NY
14550,"Silver Springs",NY
14782,Sinclairville,NY
13152,Skaneateles,NY
13119,"Skaneateles Falls",NY
10973,"Slate Hill",NY
14881,"Slaterville Springs",NY
12159,Slingerlands,NY
12160,Sloansville,NY
10974,Sloatsburg,NY
12762,Smallwood,NY
12778,Smallwood,NY
12786,Smallwood,NY
13840,Smithboro,NY
11725,Smithtown,NY
11754,Smithtown,NY
11755,Smithtown,NY
11767,Smithtown,NY
11768,Smithtown,NY
11780,Smithtown,NY
11787,Smithtown,NY
11788,Smithtown,NY
11790,Smithtown,NY
13778,"Smithville Flats",NY
13841,"Smithville Flats",NY
13464,Smyrna,NY
14551,Sodus,NY
14555,"Sodus Point",NY
13465,Solsville,NY
10501,Somers,NY
10505,Somers,NY
10519,Somers,NY
10527,Somers,NY
10536,Somers,NY
10540,Somers,NY
10541,Somers,NY
10578,Somers,NY
10587,Somers,NY
10589,Somers,NY
10598,Somers,NY
14556,Sonyea,NY
11789,"Sound Beach",NY
12161,"South Bethlehem",NY
13154,"South Butler",NY
14557,"South Byron",NY
12482,"South Cairo",NY
13687,"South Colton",NY
14138,"South Dayton",NY
12733,"South Fallsburg",NY
12747,"South Fallsburg",NY
12779,"South Fallsburg",NY
12803,"South Glens Falls",NY
11970,"South Jamesport",NY
13842,"South Kortright",NY
14414,"South Lima",NY
14485,"South Lima",NY
14487,"South Lima",NY
13843,"South New Berlin",NY
13155,"South Otselic",NY
11420,"South Ozone Park",NY
13844,"South Plymouth",NY
11419,"South Richmond Hill",NY
10590,"South Salem",NY
14139,"South Wales",NY
11968,Southampton,NY
11969,Southampton,NY
10975,Southfields,NY
06390,Southold,NY
11935,Southold,NY
11939,Southold,NY
11944,Southold,NY
11948,Southold,NY
11952,Southold,NY
11956,Southold,NY
11957,Southold,NY
11958,Southold,NY
11971,Southold,NY
6390,Southold,NY
10976,Sparkill,NY
10983,Sparkill,NY
12780,"Sparrow Bush",NY
12108,Speculator,NY
12164,Speculator,NY
14883,Spencer,NY
14559,Spencerport,NY
12165,Spencertown,NY
11972,Speonk,NY
12166,Sprakers,NY
14140,"Spring Brook",NY
12483,"Spring Glen",NY
10952,"Spring Valley",NY
10977,"Spring Valley",NY
13468,"Springfield Center",NY
11413,"Springfield Gardens",NY
14141,Springville,NY
14435,Springwater,NY
14437,Springwater,NY
14471,Springwater,NY
14560,Springwater,NY
14572,Springwater,NY
12580,Staatsburg,NY
14020,Stafford,NY
14054,Stafford,NY
14143,Stafford,NY
14416,Stafford,NY
14422,Stafford,NY
14482,Stafford,NY
14525,Stafford,NY
12167,Stamford,NY
12581,Stanfordville,NY
14561,Stanley,NY
13690,"Star Lake",NY
10301,"Staten Island",NY
14783,Steamburg,NY
14092,"Stella Niagara",NY
12018,Stephentown,NY
12062,Stephentown,NY
12168,Stephentown,NY
12169,Stephentown,NY
13064,Sterling,NY
13111,Sterling,NY
13126,Sterling,NY
13143,Sterling,NY
13156,Sterling,NY
10979,"Sterling Forest",NY
12170,Stillwater,NY
13469,Stittville,NY
14718,Stockton,NY
14728,Stockton,NY
14782,Stockton,NY
14784,Stockton,NY
12440,"Stone Ridge",NY
12484,"Stone Ridge",NY
11733,"Stony Brook",NY
11780,"Stony Brook",NY
11790,"Stony Brook",NY
11794,"Stony Brook",NY
12835,"Stony Creek",NY
12878,"Stony Creek",NY
10980,"Stony Point",NY
10986,"Stony Point",NY
12582,Stormville,NY
12172,Stottville,NY
12534,Stottville,NY
14785,Stow,NY
13329,Stratford,NY
13470,Stratford,NY
14145,Strykersville,NY
12106,Stuyvesant,NY
12156,Stuyvesant,NY
12173,Stuyvesant,NY
12174,Stuyvesant,NY
12184,Stuyvesant,NY
12174,"Stuyvesant Falls",NY
10901,Suffern,NY
10981,"Sugar Loaf",NY
12036,Summit,NY
12064,Summit,NY
12093,Summit,NY
12149,Summit,NY
12175,Summit,NY
12781,Summitville,NY
11104,Sunnyside,NY
12176,Surprise,NY
14884,Swain,NY
12783,"Swan Lake",NY
13157,"Sylvan Beach",NY
13308,"Sylvan Beach",NY
11773,Syosset,NY
11791,Syosset,NY
13120,Syracuse,NY
13201,Syracuse,NY
13202,Syracuse,NY
13203,Syracuse,NY
13204,Syracuse,NY
13205,Syracuse,NY
13206,Syracuse,NY
13207,Syracuse,NY
13208,Syracuse,NY
13210,Syracuse,NY
13214,Syracuse,NY
13215,Syracuse,NY
13217,Syracuse,NY
13218,Syracuse,NY
13219,Syracuse,NY
13220,Syracuse,NY
13221,Syracuse,NY
13224,Syracuse,NY
13225,Syracuse,NY
13235,Syracuse,NY
13244,Syracuse,NY
13250,Syracuse,NY
13251,Syracuse,NY
13252,Syracuse,NY
13261,Syracuse,NY
13290,Syracuse,NY
13471,Taberg,NY
10982,Tallman,NY
12485,Tannersville,NY
10962,Tappan,NY
10964,Tappan,NY
10983,Tappan,NY
10533,Tarrytown,NY
10591,Tarrytown,NY
13472,Thendara,NY
13691,Theresa,NY
10923,Thiells,NY
10984,Thiells,NY
10985,"Thompson Ridge",NY
12784,Thompsonville,NY
10570,Thornwood,NY
10594,Thornwood,NY
13692,"Thousand Island Park",NY
13622,"Three Mile Bay",NY
13693,"Three Mile Bay",NY
12836,Ticonderoga,NY
12883,Ticonderoga,NY
12928,Ticonderoga,NY
12472,Tillson,NY
12486,Tillson,NY
12561,Tillson,NY
13845,"Tioga Center",NY
12583,Tivoli,NY
10986,"Tomkins Cove",NY
14150,Tonawanda,NY
13846,Treadwell,NY
12068,"Tribes Hill",NY
12177,"Tribes Hill",NY
14839,Troupsburg,NY
14885,Troupsburg,NY
14898,Troupsburg,NY
13847,"Trout Creek",NY
12180,Troy,NY
12181,Troy,NY
12182,Troy,NY
14886,Trumansburg,NY
13040,Truxton,NY
13045,Truxton,NY
13101,Truxton,NY
13158,Truxton,NY
13159,Truxton,NY
10707,Tuckahoe,NY
11968,Tuckahoe,NY
13159,Tully,NY
13848,Tunnel,NY
12986,"Tupper Lake",NY
13473,Turin,NY
10987,"Tuxedo Park",NY
14815,Tyrone,NY
14837,Tyrone,NY
14840,Tyrone,NY
14878,Tyrone,NY
14887,Tyrone,NY
14891,Tyrone,NY
14893,Tyrone,NY
12487,"Ulster Park",NY
13849,Unadilla,NY
14563,"Union Hill",NY
13034,"Union Springs",NY
13160,"Union Springs",NY
11530,Uniondale,NY
11549,Uniondale,NY
11553,Uniondale,NY
11555,Uniondale,NY
11556,Uniondale,NY
11590,Uniondale,NY
10988,Unionville,NY
12987,"Upper Jay",NY
11973,Upton,NY
13413,Utica,NY
13501,Utica,NY
13502,Utica,NY
13503,Utica,NY
13504,Utica,NY
13505,Utica,NY
13599,Utica,NY
12553,"Vails Gate",NY
12106,Valatie,NY
12184,Valatie,NY
10595,Valhalla,NY
10920,"Valley Cottage",NY
10960,"Valley Cottage",NY
10989,"Valley Cottage",NY
10994,"Valley Cottage",NY
12185,"Valley Falls",NY
11536,"Valley Stream",NY
11580,"Valley Stream",NY
11581,"Valley Stream",NY
11582,"Valley Stream",NY
14166,"Van Buren Point",NY
14889,"Van Etten",NY
13475,"Van Hornesville",NY
14167,Varysburg,NY
12585,Verbank,NY
12989,Vermontville,NY
13476,Vernon,NY
13477,"Vernon Center",NY
13054,Verona,NY
13157,Verona,NY
13162,Verona,NY
13308,Verona,NY
13421,Verona,NY
13440,Verona,NY
13476,Verona,NY
13478,Verona,NY
13162,"Verona Beach",NY
10548,Verplanck,NY
10596,Verplanck,NY
14168,Versailles,NY
13737,Vestal,NY
13761,Vestal,NY
13763,Vestal,NY
13850,Vestal,NY
13851,Vestal,NY
13902,Vestal,NY
14564,Victor,NY
12884,"Victory Mills",NY
12186,Voorheesville,NY
10597,Waccabuc,NY
13694,Waddington,NY
11792,"Wading River",NY
11933,"Wading River",NY
11937,Wainscott,NY
11975,Wainscott,NY
12586,Walden,NY
14169,"Wales Center",NY
12566,"Walker Valley",NY
10919,Wallkill,NY
10924,Wallkill,NY
10932,Wallkill,NY
10940,Wallkill,NY
10941,Wallkill,NY
12549,Wallkill,NY
12589,Wallkill,NY
12721,Wallkill,NY
13856,Walton,NY
14450,Walworth,NY
14502,Walworth,NY
14519,Walworth,NY
14568,Walworth,NY
14580,Walworth,NY
13032,Wampsville,NY
13163,Wampsville,NY
13421,Wampsville,NY
13695,Wanakena,NY
11710,Wantagh,NY
11793,Wantagh,NY
12590,"Wappingers Falls",NY
13164,Warners,NY
12187,Warnerville,NY
12817,Warrensburg,NY
12845,Warrensburg,NY
12846,Warrensburg,NY
12885,Warrensburg,NY
14569,Warsaw,NY
10959,Warwick,NY
10990,Warwick,NY
13413,"Washington Mills",NY
10992,Washingtonville,NY
12592,Wassaic,NY
11968,"Water Mill",NY
11976,"Water Mill",NY
12188,Waterford,NY
13165,Waterloo,NY
14571,Waterport,NY
13601,Watertown,NY
13480,Waterville,NY
12189,Watervliet,NY
14891,"Watkins Glen",NY
12980,Waverly,NY
14892,Waverly,NY
12420,Wawarsing,NY
12428,Wawarsing,NY
12435,Wawarsing,NY
12446,Wawarsing,NY
12458,Wawarsing,NY
12483,Wawarsing,NY
12489,Wawarsing,NY
12566,Wawarsing,NY
12740,Wawarsing,NY
14572,Wayland,NY
14837,Wayne,NY
14840,Wayne,NY
14580,Webster,NY
13166,Weedsport,NY
13640,"Wellesley Island",NY
12190,Wells,NY
13859,"Wells Bridge",NY
14894,Wellsburg,NY
14895,Wellsville,NY
11702,"West Babylon",NY
11704,"West Babylon",NY
11707,"West Babylon",NY
11757,"West Babylon",NY
14469,"West Bloomfield",NY
14472,"West Bloomfield",NY
14475,"West Bloomfield",NY
14485,"West Bloomfield",NY
14564,"West Bloomfield",NY
14585,"West Bloomfield",NY
13482,"West Burlington",NY
12490,"West Camp",NY
12992,"West Chazy",NY
14786,"West Clarksville",NY
12593,"West Copake",NY
12192,"West Coxsackie",NY
13860,"West Davenport",NY
13484,"West Eaton",NY
13485,"West Edmeston",NY
14170,"West Falls",NY
12194,"West Fulton",NY
10604,"West Harrison",NY
10923,"West Haverstraw",NY
10993,"West Haverstraw",NY
11550,"West Hempstead",NY
11552,"West Hempstead",NY
14586,"West Henrietta",NY
12401,"West Hurley",NY
12433,"West Hurley",NY
12491,"West Hurley",NY
12498,"West Hurley",NY
11706,"West Islip",NY
11795,"West Islip",NY
12492,"West Kill",NY
12195,"West Lebanon",NY
13489,"West Leyden",NY
13036,"West Monroe",NY
13044,"West Monroe",NY
13103,"West Monroe",NY
13131,"West Monroe",NY
13167,"West Monroe",NY
10994,"West Nyack",NY
13861,"West Oneonta",NY
12493,"West Park",NY
10928,"West Point",NY
10996,"West Point",NY
10997,"West Point",NY
12018,"West Sand Lake",NY
12196,"West Sand Lake",NY
11769,"West Sayville",NY
11796,"West Sayville",NY
12494,"West Shokan",NY
13696,"West Stockholm",NY
14171,"West Valley",NY
13491,"West Winfield",NY
12785,Westbrookville,NY
11590,Westbury,NY
11594,Westbury,NY
11595,Westbury,NY
11597,Westbury,NY
13483,Westdale,NY
12023,Westerlo,NY
12083,Westerlo,NY
12087,Westerlo,NY
12147,Westerlo,NY
12193,Westerlo,NY
13486,Westernville,NY
14787,Westfield,NY
12116,Westford,NY
12155,Westford,NY
12197,Westford,NY
13488,Westford,NY
11977,Westhampton,NY
11978,Westhampton,NY
11978,"Westhampton Beach",NY
13323,Westmoreland,NY
13424,Westmoreland,NY
13440,Westmoreland,NY
13476,Westmoreland,NY
13478,Westmoreland,NY
13490,Westmoreland,NY
13492,Westmoreland,NY
14788,"Westons Mills",NY
12936,Westport,NY
12993,Westport,NY
10998,Westtown,NY
12886,Wevertown,NY
12995,Whippleville,NY
12786,"White Lake",NY
10601,"White Plains",NY
10602,"White Plains",NY
10603,"White Plains",NY
10604,"White Plains",NY
10605,"White Plains",NY
10606,"White Plains",NY
10607,"White Plains",NY
10610,"White Plains",NY
12787,"White Sulphur Springs",NY
12887,Whitehall,NY
13492,Whitesboro,NY
11357,Whitestone,NY
14897,Whitesville,NY
13862,"Whitney Point",NY
14588,Willard,NY
13040,Willet,NY
13803,Willet,NY
13841,Willet,NY
13862,Willet,NY
13863,Willet,NY
14449,Williamson,NY
14505,Williamson,NY
14519,Williamson,NY
14538,Williamson,NY
14589,Williamson,NY
13302,Williamstown,NY
13493,Williamstown,NY
11501,"Williston Park",NY
11596,"Williston Park",NY
12495,Willow,NY
12944,Willsboro,NY
12996,Willsboro,NY
13864,Willseyville,NY
12997,Wilmington,NY
14172,Wilson,NY
12439,Windham,NY
12454,Windham,NY
12496,Windham,NY
13865,Windsor,NY
12594,Wingdale,NY
13613,Winthrop,NY
13697,Winthrop,NY
12998,Witherbee,NY
13154,Wolcott,NY
14590,Wolcott,NY
12788,Woodbourne,NY
10917,Woodbury,NY
10926,Woodbury,NY
10930,Woodbury,NY
10950,Woodbury,NY
11797,Woodbury,NY
13494,Woodgate,NY
11421,Woodhaven,NY
14801,Woodhull,NY
14898,Woodhull,NY
11516,Woodmere,NY
11557,Woodmere,NY
11559,Woodmere,NY
11581,Woodmere,NY
11598,Woodmere,NY
12789,Woodridge,NY
11377,Woodside,NY
12401,Woodstock,NY
12409,Woodstock,NY
12416,Woodstock,NY
12448,Woodstock,NY
12457,Woodstock,NY
12477,Woodstock,NY
12495,Woodstock,NY
12498,Woodstock,NY
12036,Worcester,NY
12064,Worcester,NY
12197,Worcester,NY
12790,Wurtsboro,NY
11704,Wyandanch,NY
11798,Wyandanch,NY
12180,Wynantskill,NY
12198,Wynantskill,NY
14591,Wyoming,NY
11719,Yaphank,NY
11763,Yaphank,NY
11980,Yaphank,NY
10583,Yonkers,NY
10701,Yonkers,NY
10703,Yonkers,NY
10704,Yonkers,NY
10705,Yonkers,NY
10706,Yonkers,NY
10707,Yonkers,NY
10708,Yonkers,NY
10710,Yonkers,NY
14423,York,NY
14482,York,NY
14486,York,NY
14525,York,NY
14533,York,NY
14539,York,NY
14592,York,NY
14009,Yorkshire,NY
14030,Yorkshire,NY
14042,Yorkshire,NY
14141,Yorkshire,NY
14173,Yorkshire,NY
10598,"Yorktown Heights",NY
13495,Yorkville,NY
13502,Yorkville,NY
14174,Youngstown,NY
12791,Youngsville,NY
12792,Yulan,NY
11596,"East Williston",NY
11020,"Lake Success",NY
11042,"Lake Success",NY
11576,"East Hills",NY
11577,"East Hills",NY
11590,"New Cassel",NY
11801,"New Cassel",NY
11001,"North New Hyde Park",NY
11040,"North New Hyde Park",NY
11042,"North New Hyde Park",NY
11021,"Great Neck Plaza",NY
11050,"Port Washington North",NY
11030,"North Hills",NY
11040,"North Hills",NY
11042,"North Hills",NY
11576,"North Hills",NY
11577,"North Hills",NY
11030,"Flower Hill",NY
11050,"Flower Hill",NY
11576,"Flower Hill",NY
11040,"Garden City Park",NY
11021,Thomaston,NY
11507,Searingtown,NY
11576,Searingtown,NY
11577,Searingtown,NY
11023,"Saddle Rock",NY
11020,"University Gardens",NY
11021,"University Gardens",NY
11547,"Roslyn Harbor",NY
11548,"Roslyn Harbor",NY
11576,"Roslyn Harbor",NY
11050,"Sands Point",NY
11021,"Great Neck Estates",NY
11590,"East Westbury",NY
11050,"Baxter Estates",NY
11050,Manorhaven,NY
11040,Herricks,NY
11596,Herricks,NY
11023,"Kings Point",NY
11024,"Kings Point",NY
11030,"Munsey Park",NY
11040,"Manhasset Hills",NY
11042,"Manhasset Hills",NY
11030,"Plandome Manor",NY
11030,Plandome,NY
11596,Williston,NY
11021,Kensington,NY
11576,"Roslyn Estates",NY
11021,"Russell Gardens",NY
12514,Washington,NY
12522,Washington,NY
12545,Washington,NY
12578,Washington,NY
12592,Washington,NY
11030,"North Manhasset",NY
11030,"Plandome Heights",NY
11733,Setauket,NY
11050,"North Port Washington",NY
13605,"Adams (town)",NY
13606,"Adams (town)",NY
13685,"Adams (town)",NY
14801,"Addison (town)",NY
14821,"Addison (town)",NY
13730,"Afton (town)",NY
13733,"Afton (town)",NY
13787,"Afton (town)",NY
13813,"Afton (town)",NY
10901,Airmont,NY
10952,Airmont,NY
10982,Airmont,NY
14001,Alabama,NY
14013,Alabama,NY
14020,Alabama,NY
14036,Alabama,NY
14105,Alabama,NY
14125,Alabama,NY
14411,"Albion (town)",NY
14001,"Alden (town)",NY
14004,"Alden (town)",NY
14086,"Alden (town)",NY
14005,"Alexander (town)",NY
14011,"Alexander (town)",NY
14020,"Alexander (town)",NY
14036,"Alexander (town)",NY
13607,Alexandria,NY
13640,Alexandria,NY
13641,Alexandria,NY
13646,Alexandria,NY
13656,Alexandria,NY
13675,Alexandria,NY
13679,Alexandria,NY
13691,Alexandria,NY
13692,Alexandria,NY
14802,"Alfred (town)",NY
14803,"Alfred (town)",NY
14804,"Alfred (town)",NY
14806,"Alfred (town)",NY
14706,"Allegany (town)",NY
14753,"Allegany (town)",NY
14760,"Allegany (town)",NY
14778,"Allegany (town)",NY
14709,Allen,NY
14711,Allen,NY
14735,Allen,NY
14803,"Almond (town)",NY
14804,"Almond (town)",NY
14807,"Almond (town)",NY
14822,"Almond (town)",NY
14843,"Almond (town)",NY
12910,"Altona (cdp)",NY
13028,Amboy,NY
13044,Amboy,NY
13167,Amboy,NY
13316,Amboy,NY
13493,Amboy,NY
12501,"Amenia (cdp)",NY
13317,Ames,NY
14051,Amherst,NY
14068,Amherst,NY
14221,Amherst,NY
14225,Amherst,NY
14226,Amherst,NY
14228,Amherst,NY
14261,Amherst,NY
14739,Amity,NY
14813,Amity,NY
14880,Amity,NY
12010,"Amsterdam (town)",NY
12068,"Amsterdam (town)",NY
12070,"Amsterdam (town)",NY
12086,"Amsterdam (town)",NY
12177,"Amsterdam (town)",NY
13731,"Andes (cdp)",NY
14806,"Andover (town)",NY
14880,"Andover (town)",NY
14895,"Andover (town)",NY
14709,"Angelica (town)",NY
14711,"Angelica (town)",NY
14804,"Angelica (town)",NY
14813,"Angelica (town)",NY
14006,"Angola On The Lake",NY
13308,Annsville,NY
13316,Annsville,NY
13471,Annsville,NY
13608,"Antwerp (town)",NY
13642,"Antwerp (town)",NY
13671,"Antwerp (town)",NY
13673,"Antwerp (town)",NY
13691,"Antwerp (town)",NY
14009,"Arcade (town)",NY
14024,"Arcade (town)",NY
14030,"Arcade (town)",NY
14489,Arcadia,NY
14505,Arcadia,NY
14513,Arcadia,NY
14551,Arcadia,NY
12809,"Argyle (town)",NY
12823,"Argyle (town)",NY
12828,"Argyle (town)",NY
12834,"Argyle (town)",NY
12865,"Argyle (town)",NY
12032,Arietta,NY
12139,Arietta,NY
12847,Arietta,NY
13353,Arietta,NY
13436,Arietta,NY
14062,Arkwright,NY
14063,Arkwright,NY
14718,Arkwright,NY
14723,Arkwright,NY
12603,Arlington,NY
11768,Asharoken,NY
14101,Ashford,NY
14141,Ashford,NY
14171,Ashford,NY
12015,"Athens (town)",NY
12058,"Athens (town)",NY
12414,"Athens (town)",NY
12451,"Athens (town)",NY
14011,"Attica (town)",NY
14569,"Attica (town)",NY
13328,Augusta,NY
13362,Augusta,NY
13402,Augusta,NY
13425,Augusta,NY
13477,Augusta,NY
13021,Aurelius,NY
13034,Aurelius,NY
13140,Aurelius,NY
12911,"Au Sable",NY
12912,"Au Sable",NY
12924,"Au Sable",NY
12944,"Au Sable",NY
12972,"Au Sable",NY
14809,"Avoca (town)",NY
14810,"Avoca (town)",NY
14826,"Avoca (town)",NY
14414,"Avon (town)",NY
14454,"Avon (town)",NY
14472,"Avon (town)",NY
11701,"Babylon (town)",NY
11702,"Babylon (town)",NY
11703,"Babylon (town)",NY
11704,"Babylon (town)",NY
11707,"Babylon (town)",NY
11726,"Babylon (town)",NY
11729,"Babylon (town)",NY
11735,"Babylon (town)",NY
11746,"Babylon (town)",NY
11757,"Babylon (town)",NY
11798,"Babylon (town)",NY
13733,"Bainbridge (town)",NY
11901,"Baiting Hollow",NY
11933,"Baiting Hollow",NY
11510,"Baldwin Harbor",NY
12019,Ballston,NY
12020,Ballston,NY
12027,Ballston,NY
12302,Ballston,NY
12550,Balmville,NY
12916,Bangor,NY
12930,Bangor,NY
12953,Bangor,NY
12966,Bangor,NY
10954,Bardonia,NY
10956,Bardonia,NY
10994,Bardonia,NY
11558,"Barnum Island",NY
14058,Barre,NY
14103,Barre,NY
14125,Barre,NY
14411,Barre,NY
14470,Barre,NY
14527,Barrington,NY
14837,Barrington,NY
14842,Barrington,NY
14020,"Batavia (town)",NY
14036,"Batavia (town)",NY
14056,"Batavia (town)",NY
14810,"Bath (town)",NY
14821,"Bath (town)",NY
14856,"Bath (town)",NY
14879,"Bath (town)",NY
11518,"Bay Park",NY
11706,Baywood,NY
12553,"Beaver Dam Lake",NY
12577,"Beaver Dam Lake",NY
10506,"Bedford (cdp)",NY
12531,Beekman,NY
12533,Beekman,NY
12540,Beekman,NY
12564,Beekman,NY
12570,Beekman,NY
12582,Beekman,NY
12901,Beekmantown,NY
12910,Beekmantown,NY
12918,Beekmantown,NY
12962,Beekmantown,NY
12992,Beekmantown,NY
14711,"Belfast (cdp)",NY
11001,"Bellerose Terrace",NY
11777,"Belle Terre",NY
12915,Bellmont,NY
12917,Bellmont,NY
12920,Bellmont,NY
12953,Bellmont,NY
12955,Bellmont,NY
12969,Bellmont,NY
14004,Bennington,NY
14011,Bennington,NY
14037,Bennington,NY
14040,Bennington,NY
14145,Bennington,NY
14167,Bennington,NY
12134,Benson,NY
14415,Benton,NY
14456,Benton,NY
14527,Benton,NY
14561,Benton,NY
14416,"Bergen (town)",NY
14005,Bethany,NY
14020,Bethany,NY
14054,Bethany,NY
14143,Bethany,NY
14525,Bethany,NY
14591,Bethany,NY
12054,Bethlehem,NY
12067,Bethlehem,NY
12077,Bethlehem,NY
12143,Bethlehem,NY
12158,Bethlehem,NY
12159,Bethlehem,NY
12161,Bethlehem,NY
12203,Bethlehem,NY
14814,"Big Flats (cdp)",NY
14845,"Big Flats (cdp)",NY
14903,"Big Flats (cdp)",NY
14052,"Billington Heights",NY
14059,"Billington Heights",NY
13850,"Binghamton (town)",NY
13903,"Binghamton (town)",NY
13850,"Binghamton University",NY
13902,"Binghamton University",NY
14709,Birdsall,NY
14804,Birdsall,NY
14807,Birdsall,NY
14822,Birdsall,NY
14884,Birdsall,NY
12912,"Black Brook",NY
12972,"Black Brook",NY
12981,"Black Brook",NY
12985,"Black Brook",NY
14219,Blasdell,NY
12078,Bleecker,NY
12134,Bleecker,NY
12071,Blenheim,NY
12076,Blenheim,NY
12093,Blenheim,NY
12131,Blenheim,NY
12167,Blenheim,NY
12175,Blenheim,NY
12194,Blenheim,NY
14707,"Bolivar (town)",NY
14708,"Bolivar (town)",NY
14715,"Bolivar (town)",NY
14754,"Bolivar (town)",NY
14774,"Bolivar (town)",NY
12814,Bolton,NY
12824,Bolton,NY
12836,Bolton,NY
12885,Bolton,NY
13301,"Boonville (town)",NY
13309,"Boonville (town)",NY
13338,"Boonville (town)",NY
13731,Bovina,NY
13740,Bovina,NY
13753,Bovina,NY
13083,Boylston,NY
13144,Boylston,NY
13661,Boylston,NY
12930,Brandon,NY
12953,Brandon,NY
12966,Brandon,NY
12914,Brasher,NY
12967,Brasher,NY
13613,Brasher,NY
13649,Brasher,NY
13662,Brasher,NY
10509,"Brewster Hill",NY
13313,"Bridgewater (cdp)",NY
13318,"Bridgewater (cdp)",NY
12939,Brighton,NY
12945,Brighton,NY
12970,Brighton,NY
12976,Brighton,NY
12980,Brighton,NY
12983,Brighton,NY
12989,Brighton,NY
14610,Brighton,NY
14618,Brighton,NY
14620,Brighton,NY
14623,Brighton,NY
14625,Brighton,NY
14610,"Brighton (cdp)",NY
14618,"Brighton (cdp)",NY
14620,"Brighton (cdp)",NY
14623,"Brighton (cdp)",NY
14625,"Brighton (cdp)",NY
12524,Brinckerhoff,NY
14424,Bristol,NY
14469,Bristol,NY
14471,Bristol,NY
12010,"Broadalbin (town)",NY
12025,"Broadalbin (town)",NY
11713,"Brookhaven (cdp)",NY
11719,"Brookhaven (cdp)",NY
11545,Brookville,NY
11548,Brookville,NY
11568,Brookville,NY
12076,Broome,NY
12122,Broome,NY
12469,Broome,NY
13601,"Brownville (town)",NY
13615,"Brownville (town)",NY
13622,"Brownville (town)",NY
13634,"Brownville (town)",NY
13657,"Brownville (town)",NY
12052,Brunswick,NY
12180,Brunswick,NY
12182,Brunswick,NY
12198,Brunswick,NY
13080,Brutus,NY
13166,Brutus,NY
12917,"Burke (town)",NY
12920,"Burke (town)",NY
12953,"Burke (town)",NY
13315,Burlington,NY
13335,Burlington,NY
13342,Burlington,NY
13348,Burlington,NY
14807,Burns,NY
14822,Burns,NY
14701,Busti,NY
14710,Busti,NY
14750,Busti,NY
14701,"Busti (cdp)",NY
13143,Butler,NY
13146,Butler,NY
14590,Butler,NY
13776,Butternuts,NY
13808,Butternuts,NY
13809,Butternuts,NY
13825,Butternuts,NY
13843,Butternuts,NY
13849,Butternuts,NY
14517,Byersville,NY
12413,"Cairo (cdp)",NY
14423,"Caledonia (town)",NY
14482,"Caledonia (town)",NY
12723,"Callicoon (cdp)",NY
14094,Cambria,NY
14131,Cambria,NY
14132,Cambria,NY
12028,"Cambridge (town)",NY
12057,"Cambridge (town)",NY
12094,"Cambridge (town)",NY
12185,"Cambridge (town)",NY
12816,"Cambridge (town)",NY
12834,"Cambridge (town)",NY
13316,"Camden (town)",NY
13471,"Camden (town)",NY
13483,"Camden (town)",NY
13031,"Camillus (town)",NY
13060,"Camillus (town)",NY
13108,"Camillus (town)",NY
13112,"Camillus (town)",NY
13164,"Camillus (town)",NY
13209,"Camillus (town)",NY
13219,"Camillus (town)",NY
14821,"Campbell (cdp)",NY
14466,Canadice,NY
14471,Canadice,NY
14560,Canadice,NY
13317,"Canajoharie (town)",NY
13339,"Canajoharie (town)",NY
13459,"Canajoharie (town)",NY
14424,"Canandaigua (town)",NY
13736,"Candor (town)",NY
13743,"Candor (town)",NY
13811,"Candor (town)",NY
13827,"Candor (town)",NY
13864,"Candor (town)",NY
14819,"Canisteo (town)",NY
14823,"Canisteo (town)",NY
14843,"Canisteo (town)",NY
14855,"Canisteo (town)",NY
13617,"Canton (town)",NY
13630,"Canton (town)",NY
13652,"Canton (town)",NY
13677,"Canton (town)",NY
13680,"Canton (town)",NY
13618,"Cape Vincent (town)",NY
13624,"Cape Vincent (town)",NY
14098,Carlton,NY
14411,Carlton,NY
14477,Carlton,NY
14571,Carlton,NY
10512,"Carmel Hamlet",NY
12032,Caroga,NY
12078,Caroga,NY
12095,Caroga,NY
13053,Caroline,NY
13736,Caroline,NY
13864,Caroline,NY
14817,Caroline,NY
14850,Caroline,NY
14881,Caroline,NY
14701,Carroll,NY
14738,Carroll,NY
14706,Carrollton,NY
14748,Carrollton,NY
14753,Carrollton,NY
14427,"Castile (town)",NY
14530,"Castile (town)",NY
14549,"Castile (town)",NY
14550,"Castile (town)",NY
12033,Castleton-on-hudson,NY
14805,Catharine,NY
14865,Catharine,NY
14869,Catharine,NY
14812,Catlin,NY
14845,Catlin,NY
14864,Catlin,NY
14872,Catlin,NY
14830,Caton,NY
14858,Caton,NY
14871,Caton,NY
13033,"Cato (town)",NY
13080,"Cato (town)",NY
13113,"Cato (town)",NY
13166,"Cato (town)",NY
12015,"Catskill (town)",NY
12413,"Catskill (town)",NY
12414,"Catskill (town)",NY
12451,"Catskill (town)",NY
12463,"Catskill (town)",NY
12482,"Catskill (town)",NY
14850,"Cayuga Heights",NY
13035,"Cazenovia (town)",NY
13061,"Cazenovia (town)",NY
13104,"Cazenovia (town)",NY
13122,"Cazenovia (town)",NY
11771,"Centre Island",NY
13601,Champion,NY
13602,Champion,NY
13612,Champion,NY
13619,Champion,NY
13626,Champion,NY
13643,Champion,NY
12919,"Champlain (town)",NY
12921,"Champlain (town)",NY
12979,"Champlain (town)",NY
12010,Charleston,NY
12066,Charleston,NY
12072,Charleston,NY
12166,Charleston,NY
14718,Charlotte,NY
14723,Charlotte,NY
14782,Charlotte,NY
12010,Charlton,NY
12019,Charlton,NY
12020,Charlton,NY
12027,Charlton,NY
12074,Charlton,NY
12302,Charlton,NY
12917,"Chateaugay (town)",NY
12920,"Chateaugay (town)",NY
12024,"Chatham (town)",NY
12037,"Chatham (town)",NY
12060,"Chatham (town)",NY
12115,"Chatham (town)",NY
12132,"Chatham (town)",NY
12136,"Chatham (town)",NY
12184,"Chatham (town)",NY
14722,"Chautauqua (cdp)",NY
14757,"Chautauqua (cdp)",NY
12921,"Chazy (cdp)",NY
14043,Cheektowaga,NY
14206,Cheektowaga,NY
14211,Cheektowaga,NY
14212,Cheektowaga,NY
14215,Cheektowaga,NY
14224,Cheektowaga,NY
14225,Cheektowaga,NY
14227,Cheektowaga,NY
14043,"Cheektowaga (cdp)",NY
14206,"Cheektowaga (cdp)",NY
14211,"Cheektowaga (cdp)",NY
14215,"Cheektowaga (cdp)",NY
14224,"Cheektowaga (cdp)",NY
14225,"Cheektowaga (cdp)",NY
14227,"Cheektowaga (cdp)",NY
13744,Chenango,NY
13746,Chenango,NY
13862,Chenango,NY
13901,Chenango,NY
13905,Chenango,NY
14138,"Cherry Creek (town)",NY
14723,"Cherry Creek (town)",NY
13317,"Cherry Valley (town)",NY
13320,"Cherry Valley (town)",NY
13459,"Cherry Valley (town)",NY
12944,Chesterfield,NY
12972,Chesterfield,NY
12975,Chesterfield,NY
10918,"Chester (town)",NY
10950,"Chester (town)",NY
10981,"Chester (town)",NY
10990,"Chester (town)",NY
10952,"Chestnut Ridge",NY
10965,"Chestnut Ridge",NY
10977,"Chestnut Ridge",NY
14428,Chili,NY
14514,Chili,NY
14546,Chili,NY
14623,Chili,NY
14624,Chili,NY
13666,Clare,NY
13684,Clare,NY
14031,"Clarence (cdp)",NY
14420,"Clarkson (cdp)",NY
10920,Clarkstown,NY
10954,Clarkstown,NY
10956,Clarkstown,NY
10960,Clarkstown,NY
10977,Clarkstown,NY
10989,Clarkstown,NY
10994,Clarkstown,NY
12513,"Claverack-red Mills",NY
12534,"Claverack-red Mills",NY
13601,"Clayton (town)",NY
13622,"Clayton (town)",NY
13624,"Clayton (town)",NY
13632,"Clayton (town)",NY
13656,"Clayton (town)",NY
12523,Clermont,NY
12526,Clermont,NY
12571,Clermont,NY
12583,Clermont,NY
12927,Clifton,NY
13666,Clifton,NY
13684,Clifton,NY
13690,Clifton,NY
12043,"Cobleskill (town)",NY
12092,"Cobleskill (town)",NY
12157,"Cobleskill (town)",NY
12187,"Cobleskill (town)",NY
14512,"Cohocton (town)",NY
14572,"Cohocton (town)",NY
14808,"Cohocton (town)",NY
14809,"Cohocton (town)",NY
14826,"Cohocton (town)",NY
14873,"Cohocton (town)",NY
12758,Colchester,NY
12776,Colchester,NY
13752,Colchester,NY
13755,Colchester,NY
13782,Colchester,NY
13837,Colchester,NY
14755,Coldspring,NY
14772,Coldspring,NY
14779,Coldspring,NY
14783,Coldspring,NY
13787,Colesville,NY
13813,Colesville,NY
13833,Colesville,NY
13848,Colesville,NY
13865,Colesville,NY
13904,Colesville,NY
12205,Colonie,NY
12047,"Colonie (town)",NY
12110,"Colonie (town)",NY
12128,"Colonie (town)",NY
12189,"Colonie (town)",NY
12204,"Colonie (town)",NY
12205,"Colonie (town)",NY
12211,"Colonie (town)",NY
12303,"Colonie (town)",NY
12304,"Colonie (town)",NY
12309,"Colonie (town)",NY
13625,"Colton (cdp)",NY
13357,Columbia,NY
13361,Columbia,NY
13407,Columbia,NY
13439,Columbia,NY
13491,Columbia,NY
13411,Columbus,NY
13460,Columbus,NY
13485,Columbus,NY
14025,Concord,NY
14055,Concord,NY
14069,Concord,NY
14141,Concord,NY
14435,"Conesus Hamlet",NY
14435,"Conesus Lake",NY
14454,"Conesus Lake",NY
14480,"Conesus Lake",NY
14487,"Conesus Lake",NY
12076,Conesville,NY
12469,Conesville,NY
14719,Conewango,NY
14726,Conewango,NY
14747,Conewango,NY
14772,Conewango,NY
13033,Conquest,NY
13140,Conquest,NY
13143,Conquest,NY
13166,Conquest,NY
13044,"Constantia (cdp)",NY
13167,"Constantia (cdp)",NY
12516,"Copake Hamlet",NY
12516,"Copake Lake",NY
12521,"Copake Lake",NY
12529,"Copake Lake",NY
12822,"Corinth (town)",NY
12833,"Corinth (town)",NY
12859,"Corinth (town)",NY
14814,"Corning (town)",NY
14830,"Corning (town)",NY
14870,"Corning (town)",NY
12520,Cornwall-on-hudson,NY
10511,Cortlandt,NY
10517,Cortlandt,NY
10520,Cortlandt,NY
10521,Cortlandt,NY
10537,Cortlandt,NY
10547,Cortlandt,NY
10548,Cortlandt,NY
10562,Cortlandt,NY
10567,Cortlandt,NY
10596,Cortlandt,NY
13045,Cortlandville,NY
13077,Cortlandville,NY
13101,Cortlandville,NY
13738,Cortlandville,NY
13803,Cortlandville,NY
13045,"Cortland West",NY
12019,"Country Knolls",NY
11771,"Cove Neck",NY
13730,Coventry,NY
13733,Coventry,NY
13778,Coventry,NY
13787,Coventry,NY
13830,Coventry,NY
14847,Covert,NY
14886,Covert,NY
14525,Covington,NY
14530,Covington,NY
14533,Covington,NY
14591,Covington,NY
12015,"Coxsackie (town)",NY
12042,"Coxsackie (town)",NY
12051,"Coxsackie (town)",NY
12058,"Coxsackie (town)",NY
12176,"Coxsackie (town)",NY
12192,"Coxsackie (town)",NY
12414,"Coxsackie (town)",NY
10915,Crawford,NY
10919,Crawford,NY
10941,Crawford,NY
10985,Crawford,NY
12549,Crawford,NY
12566,Crawford,NY
12586,Crawford,NY
12589,Crawford,NY
12721,Crawford,NY
13305,"Croghan (town)",NY
13327,"Croghan (town)",NY
13619,"Croghan (town)",NY
13620,"Croghan (town)",NY
13648,"Croghan (town)",NY
13665,"Croghan (town)",NY
10520,Croton-on-hudson,NY
10521,Croton-on-hudson,NY
12601,"Crown Heights",NY
10520,Crugers,NY
14424,"Crystal Beach",NY
14714,"Cuba (town)",NY
14727,"Cuba (town)",NY
14739,"Cuba (town)",NY
12901,"Cumberland Head",NY
14437,Cumminsville,NY
13040,Cuyler,NY
13158,Cuyler,NY
14481,Cuylerville,NY
13864,Danby,NY
14817,Danby,NY
14850,Danby,NY
14867,Danby,NY
14883,Danby,NY
12918,"Dannemora (town)",NY
12929,"Dannemora (town)",NY
12935,"Dannemora (town)",NY
12952,"Dannemora (town)",NY
12955,"Dannemora (town)",NY
12962,"Dannemora (town)",NY
13339,Danube,NY
13365,Danube,NY
13407,Danube,NY
14004,Darien,NY
14005,Darien,NY
14036,Darien,NY
14040,Darien,NY
12822,Day,NY
12835,Day,NY
12197,Decatur,NY
13320,Decatur,NY
13304,Deerfield,NY
13431,Deerfield,NY
13502,Deerfield,NY
12729,Deerpark,NY
12746,Deerpark,NY
12771,Deerpark,NY
12780,Deerpark,NY
12785,Deerpark,NY
13617,"De Kalb",NY
13630,"De Kalb",NY
13642,"De Kalb",NY
13652,"De Kalb",NY
13680,"De Kalb",NY
13681,"De Kalb",NY
13630,"Dekalb Junction",NY
12723,Delaware,NY
12726,Delaware,NY
12745,Delaware,NY
12748,Delaware,NY
12750,Delaware,NY
13740,"Delhi (town)",NY
13752,"Delhi (town)",NY
13753,"Delhi (town)",NY
12410,Denning,NY
12458,Denning,NY
12725,Denning,NY
12740,Denning,NY
12758,Denning,NY
13754,"Deposit (town)",NY
13783,"Deposit (town)",NY
11964,"Dering Harbor",NY
13052,Deruyter,NY
13052,"Deruyter (town)",NY
13072,"Deruyter (town)",NY
13122,"Deruyter (town)",NY
13057,"De Witt",NY
13066,"De Witt",NY
13078,"De Witt",NY
13206,"De Witt",NY
13211,"De Witt",NY
13214,"De Witt",NY
13224,"De Witt",NY
13648,Diana,NY
13665,Diana,NY
12916,Dickinson,NY
12930,Dickinson,NY
12980,Dickinson,NY
13901,Dickinson,NY
13904,Dickinson,NY
13905,Dickinson,NY
14812,Dix,NY
14864,Dix,NY
14865,Dix,NY
14891,Dix,NY
11729,"Dix Hills",NY
11731,"Dix Hills",NY
11743,"Dix Hills",NY
11746,"Dix Hills",NY
11747,"Dix Hills",NY
12522,Dover,NY
12564,Dover,NY
12592,Dover,NY
12594,Dover,NY
13045,"Dryden (town)",NY
13053,"Dryden (town)",NY
13062,"Dryden (town)",NY
13068,"Dryden (town)",NY
13073,"Dryden (town)",NY
14817,"Dryden (town)",NY
14850,"Dryden (town)",NY
12953,Duane,NY
12969,Duane,NY
12056,"Duane Lake",NY
12053,"Duanesburg (cdp)",NY
12056,"Duanesburg (cdp)",NY
14048,"Dunkirk (town)",NY
14063,"Dunkirk (town)",NY
14009,Eagle,NY
14024,Eagle,NY
11509,"East Atlantic Beach",NY
11561,"East Atlantic Beach",NY
14414,"East Avon",NY
10583,"Eastchester (cdp)",NY
10708,"Eastchester (cdp)",NY
10709,"Eastchester (cdp)",NY
11735,"East Farmingdale",NY
11757,"East Farmingdale",NY
12524,"East Fishkill",NY
12531,"East Fishkill",NY
12533,"East Fishkill",NY
12582,"East Fishkill",NY
12590,"East Fishkill",NY
12008,"East Glenville",NY
12027,"East Glenville",NY
12302,"East Glenville",NY
12061,"East Greenbush (cdp)",NY
12144,"East Greenbush (cdp)",NY
11930,"East Hampton North",NY
11937,"East Hampton North",NY
11975,"East Hampton North",NY
11930,"East Hampton (town)",NY
11937,"East Hampton (town)",NY
11954,"East Hampton (town)",NY
11963,"East Hampton (town)",NY
11975,"East Hampton (town)",NY
14850,"East Ithaca",NY
12401,"East Kingston",NY
11758,"East Massapequa",NY
11762,"East Massapequa",NY
12094,Easton,NY
12154,Easton,NY
12185,Easton,NY
12816,Easton,NY
12834,Easton,NY
12848,Easton,NY
11713,"East Patchogue",NY
11772,"East Patchogue",NY
14445,"East Rochester (town)",NY
11786,"East Shoreham",NY
11792,"East Shoreham",NY
11961,"East Shoreham",NY
11768,"Eatons Neck",NY
14057,"Eden (cdp)",NY
12134,Edinburg,NY
12835,Edinburg,NY
13335,"Edmeston (cdp)",NY
13635,"Edwards (cdp)",NY
14226,Eggertsville,NY
14020,"Elba (town)",NY
14058,"Elba (town)",NY
14125,"Elba (town)",NY
13060,"Elbridge (town)",NY
13080,"Elbridge (town)",NY
13112,"Elbridge (town)",NY
13166,"Elbridge (town)",NY
12932,"Elizabethtown (cdp)",NY
14701,Ellery,NY
14712,Ellery,NY
14728,Ellery,NY
14742,Ellery,NY
14756,Ellery,NY
14782,Ellery,NY
14701,Ellicott,NY
14720,Ellicott,NY
14733,Ellicott,NY
14101,"Ellicottville (town)",NY
14171,"Ellicottville (town)",NY
14731,"Ellicottville (town)",NY
13083,"Ellisburg (town)",NY
13605,"Ellisburg (town)",NY
13611,"Ellisburg (town)",NY
13636,"Ellisburg (town)",NY
13650,"Ellisburg (town)",NY
13661,"Ellisburg (town)",NY
13674,"Ellisburg (town)",NY
14059,"Elma Center",NY
14140,"Elma Center",NY
14903,"Elmira Heights",NY
14861,"Elmira (town)",NY
14901,"Elmira (town)",NY
14903,"Elmira (town)",NY
14905,"Elmira (town)",NY
11731,Elwood,NY
11740,Elwood,NY
11743,Elwood,NY
14850,Enfield,NY
14867,Enfield,NY
14886,Enfield,NY
12095,Ephratah,NY
13329,Ephratah,NY
13339,Ephratah,NY
13452,Ephratah,NY
14838,"Erin (cdp)",NY
14801,Erwin,NY
14827,Erwin,NY
14830,Erwin,NY
14870,Erwin,NY
12035,"Esperance (town)",NY
12066,"Esperance (town)",NY
12092,"Esperance (town)",NY
12157,"Esperance (town)",NY
12160,"Esperance (town)",NY
14006,Evans,NY
14047,Evans,NY
14057,Evans,NY
14111,Evans,NY
14112,Evans,NY
13315,Exeter,NY
13348,Exeter,NY
13357,Exeter,NY
13439,Exeter,NY
13457,Exeter,NY
13491,Exeter,NY
13020,"Fabius (town)",NY
13052,"Fabius (town)",NY
13063,"Fabius (town)",NY
13084,"Fabius (town)",NY
13122,"Fabius (town)",NY
13158,"Fabius (town)",NY
13159,"Fabius (town)",NY
13365,Fairfield,NY
13406,Fairfield,NY
13416,Fairfield,NY
13031,Fairmount,NY
13209,Fairmount,NY
13219,Fairmount,NY
10603,Fairview,NY
10607,Fairview,NY
12538,Fairview,NY
12601,Fairview,NY
14042,Farmersville,NY
14060,Farmersville,NY
14101,Farmersville,NY
14737,Farmersville,NY
13032,Fenner,NY
13035,Fenner,NY
13037,Fenner,NY
13745,Fenton,NY
13746,Fenton,NY
13833,Fenton,NY
13901,Fenton,NY
13904,Fenton,NY
11702,"Fire Island",NY
11706,"Fire Island",NY
11770,"Fire Island",NY
11772,"Fire Island",NY
11782,"Fire Island",NY
11951,"Fire Island",NY
11978,"Fire Island",NY
12518,Firthcliffe,NY
12520,Firthcliffe,NY
12553,Firthcliffe,NY
12508,"Fishkill (town)",NY
12511,"Fishkill (town)",NY
12524,"Fishkill (town)",NY
12527,"Fishkill (town)",NY
12533,"Fishkill (town)",NY
12590,"Fishkill (town)",NY
11901,Flanders,NY
11946,Flanders,NY
13021,Fleming,NY
13034,Fleming,NY
13160,Fleming,NY
13316,Florence,NY
13471,Florence,NY
13483,Florence,NY
13354,Floyd,NY
13403,Floyd,NY
13440,Floyd,NY
13469,Floyd,NY
14850,"Forest Home",NY
12821,"Fort Ann (town)",NY
12827,"Fort Ann (town)",NY
12832,"Fort Ann (town)",NY
12839,"Fort Ann (town)",NY
12841,"Fort Ann (town)",NY
12844,"Fort Ann (town)",NY
12887,"Fort Ann (town)",NY
12914,"Fort Covington Hamlet",NY
12926,"Fort Covington Hamlet",NY
12937,"Fort Covington Hamlet",NY
12828,"Fort Edward (town)",NY
12834,"Fort Edward (town)",NY
12839,"Fort Edward (town)",NY
11754,"Fort Salonga",NY
11768,"Fort Salonga",NY
13642,Fowler,NY
13645,Fowler,NY
13648,Fowler,NY
14423,Fowlerville,NY
13340,"Frankfort (town)",NY
13357,"Frankfort (town)",NY
13413,"Frankfort (town)",NY
13456,"Frankfort (town)",NY
13753,"Franklin (town)",NY
13775,"Franklin (town)",NY
13820,"Franklin (town)",NY
13839,"Franklin (town)",NY
13846,"Franklin (town)",NY
13856,"Franklin (town)",NY
14101,"Franklinville (town)",NY
14731,"Franklinville (town)",NY
14737,"Franklinville (town)",NY
14741,"Franklinville (town)",NY
12510,"Freedom Plains",NY
12540,"Freedom Plains",NY
12569,"Freedom Plains",NY
13040,Freetown,NY
13101,Freetown,NY
13803,Freetown,NY
12723,Fremont,NY
12736,Fremont,NY
12741,Fremont,NY
12760,Fremont,NY
12766,Fremont,NY
12767,Fremont,NY
12776,Fremont,NY
14807,Fremont,NY
14826,Fremont,NY
14843,Fremont,NY
14724,"French Creek",NY
14739,"Friendship (cdp)",NY
14411,Gaines,NY
14477,Gaines,NY
14066,"Gainesville (town)",NY
14427,"Gainesville (town)",NY
14550,"Gainesville (town)",NY
14569,"Gainesville (town)",NY
14433,Galen,NY
14489,Galen,NY
13088,Galeville,NY
12502,Gallatin,NY
12523,Gallatin,NY
12567,Gallatin,NY
12571,Gallatin,NY
12010,"Galway (town)",NY
12020,"Galway (town)",NY
12025,"Galway (town)",NY
12074,"Galway (town)",NY
12086,"Galway (town)",NY
12850,"Galway (town)",NY
14870,"Gang Mills",NY
11530,"Garden City South",NY
11552,"Garden City South",NY
12525,"Gardiner (cdp)",NY
12561,"Gardiner (cdp)",NY
12550,Gardnertown,NY
12555,Gardnertown,NY
14559,Gates,NY
14606,Gates,NY
14624,Gates,NY
14606,"Gates (cdp)",NY
14624,"Gates (cdp)",NY
13204,Geddes,NY
13209,Geddes,NY
13219,Geddes,NY
14715,Genesee,NY
14721,Genesee,NY
14727,Genesee,NY
14754,Genesee,NY
14770,Genesee,NY
14427,"Genesee Falls",NY
14536,"Genesee Falls",NY
14454,"Geneseo (town)",NY
14510,"Geneseo (town)",NY
14456,"Geneva (town)",NY
13040,German,NY
13801,German,NY
13357,"German Flatts",NY
13407,"German Flatts",NY
12526,"Germantown (cdp)",NY
12037,"Ghent (cdp)",NY
12075,"Ghent (cdp)",NY
11702,Gilgo,NY
12010,Glen,NY
12016,Glen,NY
12072,Glen,NY
13601,"Glen Park",NY
12804,"Glens Falls North",NY
12008,Glenville,NY
12010,Glenville,NY
12019,Glenville,NY
12027,Glenville,NY
12302,Glenville,NY
10526,"Golden's Bridge",NY
10536,"Golden's Bridge",NY
11727,"Gordon Heights",NY
11763,"Gordon Heights",NY
11953,"Gordon Heights",NY
14561,"Gorham (cdp)",NY
10918,"Goshen (town)",NY
10921,"Goshen (town)",NY
10924,"Goshen (town)",NY
10940,"Goshen (town)",NY
10958,"Goshen (town)",NY
13642,"Gouverneur (town)",NY
13681,"Gouverneur (town)",NY
13069,Granby,NY
13074,Granby,NY
13126,Granby,NY
13135,Granby,NY
10960,"Grand View-on-hudson",NY
14072,"Grandyle Village",NY
14735,Granger,NY
14836,Granger,NY
14846,Granger,NY
12832,"Granville (town)",NY
12837,"Granville (town)",NY
12849,"Granville (town)",NY
12887,"Granville (town)",NY
11023,"Great Neck Gardens",NY
14468,Greece,NY
14515,Greece,NY
14559,Greece,NY
14606,Greece,NY
14612,Greece,NY
14615,Greece,NY
14616,Greece,NY
14626,Greece,NY
14626,"Greece (cdp)",NY
10502,Greenburgh,NY
10503,Greenburgh,NY
10522,Greenburgh,NY
10523,Greenburgh,NY
10530,Greenburgh,NY
10533,Greenburgh,NY
10583,Greenburgh,NY
10591,Greenburgh,NY
10595,Greenburgh,NY
10603,Greenburgh,NY
10607,Greenburgh,NY
10701,Greenburgh,NY
10706,Greenburgh,NY
13746,"Greene (town)",NY
13778,"Greene (town)",NY
13787,"Greene (town)",NY
13830,"Greene (town)",NY
12833,Greenfield,NY
12850,Greenfield,NY
12859,Greenfield,NY
12866,Greenfield,NY
12183,"Green Island",NY
12183,"Green Island (town)",NY
11944,"Greenport West",NY
11971,"Greenport West",NY
12083,"Greenville (cdp)",NY
12809,"Greenwich (town)",NY
12823,"Greenwich (town)",NY
12834,"Greenwich (town)",NY
12865,"Greenwich (town)",NY
14533,Greigsville,NY
13045,"Groton (town)",NY
13068,"Groton (town)",NY
13073,"Groton (town)",NY
13102,"Groton (town)",NY
14822,Grove,NY
14836,Grove,NY
14884,Grove,NY
14437,"Groveland Station",NY
14462,"Groveland Station",NY
13780,"Guilford (cdp)",NY
12835,"Hadley (cdp)",NY
12430,Halcott,NY
12468,Halcott,NY
11743,Halesite,NY
12065,Halfmoon,NY
12118,Halfmoon,NY
12151,Halfmoon,NY
12188,Halfmoon,NY
14010,"Hamburg (town)",NY
14075,"Hamburg (town)",NY
14085,"Hamburg (town)",NY
14127,"Hamburg (town)",NY
14218,"Hamburg (town)",NY
14219,"Hamburg (town)",NY
13332,"Hamilton (town)",NY
13346,"Hamilton (town)",NY
13355,"Hamilton (town)",NY
13460,"Hamilton (town)",NY
14464,"Hamlin (cdp)",NY
14468,"Hamlin (cdp)",NY
13623,"Hammond (town)",NY
13646,"Hammond (town)",NY
13679,"Hammond (town)",NY
10916,Hamptonburgh,NY
10924,Hamptonburgh,NY
10941,Hamptonburgh,NY
10992,Hamptonburgh,NY
12543,Hamptonburgh,NY
12549,Hamptonburgh,NY
12575,Hamptonburgh,NY
12144,"Hampton Manor",NY
12760,"Hancock (town)",NY
12776,"Hancock (town)",NY
13755,"Hancock (town)",NY
13756,"Hancock (town)",NY
13774,"Hancock (town)",NY
13783,"Hancock (town)",NY
13856,"Hancock (town)",NY
13069,"Hannibal (town)",NY
13074,"Hannibal (town)",NY
13111,"Hannibal (town)",NY
13126,"Hannibal (town)",NY
14062,Hanover,NY
14081,Hanover,NY
14136,Hanover,NY
14138,Hanover,NY
11023,"Harbor Hills",NY
11558,"Harbor Isle",NY
12406,Hardenburgh,NY
12455,Hardenburgh,NY
12758,Hardenburgh,NY
14710,Harmony,NY
14758,Harmony,NY
14767,Harmony,NY
12945,Harrietstown,NY
12983,Harrietstown,NY
12986,Harrietstown,NY
13367,Harrisburg,NY
13626,Harrisburg,NY
14031,"Harris Hill",NY
14221,"Harris Hill",NY
10528,"Harrison (town)",NY
10577,"Harrison (town)",NY
10580,"Harrison (town)",NY
10604,"Harrison (town)",NY
14008,Hartland,NY
14012,Hartland,NY
14067,Hartland,NY
14094,Hartland,NY
14105,Hartland,NY
14803,Hartsville,NY
14806,Hartsville,NY
14823,Hartsville,NY
14843,Hartsville,NY
13348,"Hartwick (cdp)",NY
10701,Hastings-on-hudson,NY
10706,Hastings-on-hudson,NY
10923,"Haverstraw (town)",NY
10927,"Haverstraw (town)",NY
10970,"Haverstraw (town)",NY
10974,"Haverstraw (town)",NY
10980,"Haverstraw (town)",NY
10984,"Haverstraw (town)",NY
10993,"Haverstraw (town)",NY
12538,Haviland,NY
12601,Haviland,NY
11780,"Head Of The Harbor",NY
11790,"Head Of The Harbor",NY
12809,Hebron,NY
12832,Hebron,NY
12865,Hebron,NY
11001,"Hempstead (town)",NY
11002,"Hempstead (town)",NY
11003,"Hempstead (town)",NY
11010,"Hempstead (town)",NY
11040,"Hempstead (town)",NY
11041,"Hempstead (town)",NY
11043,"Hempstead (town)",NY
11044,"Hempstead (town)",NY
11096,"Hempstead (town)",NY
11099,"Hempstead (town)",NY
11501,"Hempstead (town)",NY
11509,"Hempstead (town)",NY
11510,"Hempstead (town)",NY
11516,"Hempstead (town)",NY
11518,"Hempstead (town)",NY
11520,"Hempstead (town)",NY
11530,"Hempstead (town)",NY
11531,"Hempstead (town)",NY
11535,"Hempstead (town)",NY
11536,"Hempstead (town)",NY
11549,"Hempstead (town)",NY
11550,"Hempstead (town)",NY
11551,"Hempstead (town)",NY
11552,"Hempstead (town)",NY
11553,"Hempstead (town)",NY
11554,"Hempstead (town)",NY
11555,"Hempstead (town)",NY
11556,"Hempstead (town)",NY
11557,"Hempstead (town)",NY
11558,"Hempstead (town)",NY
11559,"Hempstead (town)",NY
11561,"Hempstead (town)",NY
11563,"Hempstead (town)",NY
11565,"Hempstead (town)",NY
11566,"Hempstead (town)",NY
11569,"Hempstead (town)",NY
11570,"Hempstead (town)",NY
11571,"Hempstead (town)",NY
11572,"Hempstead (town)",NY
11575,"Hempstead (town)",NY
11580,"Hempstead (town)",NY
11581,"Hempstead (town)",NY
11582,"Hempstead (town)",NY
11590,"Hempstead (town)",NY
11592,"Hempstead (town)",NY
11598,"Hempstead (town)",NY
11710,"Hempstead (town)",NY
11714,"Hempstead (town)",NY
11756,"Hempstead (town)",NY
11783,"Hempstead (town)",NY
11793,"Hempstead (town)",NY
13650,"Henderson (cdp)",NY
10589,"Heritage Hills",NY
13340,"Herkimer (town)",NY
13350,"Herkimer (town)",NY
13365,"Herkimer (town)",NY
13630,"Hermon (town)",NY
13635,"Hermon (town)",NY
13642,"Hermon (town)",NY
13652,"Hermon (town)",NY
13681,"Hermon (town)",NY
13619,Herrings,NY
11557,"Hewlett Bay Park",NY
11557,"Hewlett Harbor",NY
11598,"Hewlett Neck",NY
10911,Highlands,NY
10922,Highlands,NY
10928,Highlands,NY
10996,Highlands,NY
10997,Highlands,NY
10977,Hillcrest,NY
12401,Hillside,NY
12590,"Hillside Lake",NY
14080,"Holland (cdp)",NY
13045,"Homer (town)",NY
13056,"Homer (town)",NY
13077,"Homer (town)",NY
13087,"Homer (town)",NY
13101,"Homer (town)",NY
12134,Hope,NY
14424,Hopewell,NY
14432,Hopewell,NY
14548,Hopewell,NY
14561,Hopewell,NY
12965,Hopkinton,NY
12980,Hopkinton,NY
12986,Hopkinton,NY
13672,Hopkinton,NY
13676,Hopkinton,NY
13697,Hopkinton,NY
12808,Horicon,NY
12815,Horicon,NY
12860,Horicon,NY
12885,Horicon,NY
14812,Hornby,NY
14830,Hornby,NY
14870,Hornby,NY
14807,Hornellsville,NY
14823,Hornellsville,NY
14843,Hornellsville,NY
14845,"Horseheads North",NY
14816,"Horseheads (town)",NY
14838,"Horseheads (town)",NY
14845,"Horseheads (town)",NY
14861,"Horseheads (town)",NY
14901,"Horseheads (town)",NY
14903,"Horseheads (town)",NY
13601,Hounsfield,NY
13605,Hounsfield,NY
13606,Hounsfield,NY
13615,Hounsfield,NY
13634,Hounsfield,NY
13650,Hounsfield,NY
13685,Hounsfield,NY
14809,Howard,NY
14810,Howard,NY
14823,Howard,NY
14826,Howard,NY
14843,Howard,NY
14706,Humphrey,NY
14737,Humphrey,NY
14741,Humphrey,NY
14743,Humphrey,NY
12427,"Hunter (town)",NY
12436,"Hunter (town)",NY
12442,"Hunter (town)",NY
12450,"Hunter (town)",NY
12485,"Hunter (town)",NY
11743,"Huntington Bay",NY
11768,"Huntington Bay",NY
11721,"Huntington (cdp)",NY
11724,"Huntington (cdp)",NY
11740,"Huntington (cdp)",NY
11743,"Huntington (cdp)",NY
12401,"Hurley (cdp)",NY
12443,"Hurley (cdp)",NY
14516,Huron,NY
14555,Huron,NY
14590,Huron,NY
12538,"Hyde Park (cdp)",NY
14806,Independence,NY
14877,Independence,NY
14895,Independence,NY
14897,Independence,NY
13027,Ira,NY
13033,Ira,NY
13074,Ira,NY
13111,Ira,NY
14609,Irondequoit,NY
14617,Irondequoit,NY
14621,Irondequoit,NY
14622,Irondequoit,NY
14609,"Irondequoit (cdp)",NY
14617,"Irondequoit (cdp)",NY
14621,"Irondequoit (cdp)",NY
14622,"Irondequoit (cdp)",NY
14727,Ischua,NY
14743,Ischua,NY
11706,"Islip (cdp)",NY
11722,"Islip (cdp)",NY
11751,"Islip (cdp)",NY
14418,Italy,NY
14507,Italy,NY
14512,Italy,NY
14850,"Ithaca (town)",NY
14867,"Ithaca (town)",NY
12816,Jackson,NY
12834,Jackson,NY
12865,Jackson,NY
12873,Jackson,NY
14701,"Jamestown West",NY
14009,Java,NY
14082,Java,NY
14113,Java,NY
14145,Java,NY
12414,"Jefferson Heights",NY
10535,"Jefferson Valley-yorktown",NY
10588,"Jefferson Valley-yorktown",NY
10598,"Jefferson Valley-yorktown",NY
14418,Jerusalem,NY
14478,Jerusalem,NY
14527,Jerusalem,NY
12068,"Johnstown (town)",NY
12078,"Johnstown (town)",NY
12095,"Johnstown (town)",NY
13339,"Johnstown (town)",NY
13165,Junius,NY
14433,Junius,NY
14456,Junius,NY
14489,Junius,NY
14532,Junius,NY
10952,Kaser,NY
14217,Kenmore,NY
14701,Kiantone,NY
14738,Kiantone,NY
12106,"Kinderhook (town)",NY
12130,"Kinderhook (town)",NY
12184,"Kinderhook (town)",NY
12804,Kingsbury,NY
12827,Kingsbury,NY
12828,Kingsbury,NY
12839,Kingsbury,NY
12401,"Kingston (town)",NY
13321,Kirkland,NY
13323,Kirkland,NY
13328,Kirkland,NY
13341,Kirkland,NY
13477,Kirkland,NY
10950,"Kiryas Joel",NY
13739,Kortright,NY
13750,Kortright,NY
13753,Kortright,NY
13757,Kortright,NY
13786,Kortright,NY
13788,Kortright,NY
13842,Kortright,NY
14437,Kysorville,NY
14218,Lackawanna,NY
14219,Lackawanna,NY
13078,Lafayette,NY
13084,Lafayette,NY
13159,Lafayette,NY
12510,"La Grange",NY
12533,"La Grange",NY
12540,"La Grange",NY
12569,"La Grange",NY
12590,"La Grange",NY
12603,"La Grange",NY
10512,"Lake Carmel",NY
14006,"Lake Erie Beach",NY
12824,"Lake George (town)",NY
12845,"Lake George (town)",NY
12885,"Lake George (town)",NY
13209,Lakeland,NY
12846,"Lake Luzerne (cdp)",NY
10547,"Lake Mohegan",NY
10588,"Lake Mohegan",NY
11720,"Lake Ronkonkoma",NY
11755,"Lake Ronkonkoma",NY
11767,"Lake Ronkonkoma",NY
11779,"Lake Ronkonkoma",NY
11552,Lakeview,NY
11570,Lakeview,NY
14004,"Lancaster (town)",NY
14026,"Lancaster (town)",NY
14043,"Lancaster (town)",NY
14059,"Lancaster (town)",NY
14086,"Lancaster (town)",NY
14221,"Lancaster (town)",NY
13068,"Lansing (town)",NY
13073,"Lansing (town)",NY
13092,"Lansing (town)",NY
14850,"Lansing (town)",NY
14882,"Lansing (town)",NY
13045,Lapeer,NY
13803,Lapeer,NY
11542,Lattingtown,NY
11560,Lattingtown,NY
11771,"Laurel Hollow",NY
11791,"Laurel Hollow",NY
13796,"Laurens (town)",NY
13808,"Laurens (town)",NY
13810,"Laurens (town)",NY
13820,"Laurens (town)",NY
13825,"Laurens (town)",NY
13861,"Laurens (town)",NY
13332,Lebanon,NY
13334,Lebanon,NY
13346,Lebanon,NY
13026,Ledyard,NY
13081,Ledyard,NY
13160,Ledyard,NY
13303,Lee,NY
13363,Lee,NY
13440,Lee,NY
13471,Lee,NY
14481,"Leicester (town)",NY
14510,"Leicester (town)",NY
14533,"Leicester (town)",NY
13032,Lenox,NY
13163,Lenox,NY
13421,Lenox,NY
13601,"Le Ray",NY
13602,"Le Ray",NY
13603,"Le Ray",NY
13612,"Le Ray",NY
13616,"Le Ray",NY
13637,"Le Ray",NY
13673,"Le Ray",NY
13691,"Le Ray",NY
14143,"Le Roy (town)",NY
14416,"Le Roy (town)",NY
14482,"Le Roy (town)",NY
14525,"Le Roy (town)",NY
10518,Lewisboro,NY
10526,Lewisboro,NY
10536,Lewisboro,NY
10560,Lewisboro,NY
10576,Lewisboro,NY
10590,Lewisboro,NY
10597,Lewisboro,NY
14092,"Lewiston (town)",NY
14107,"Lewiston (town)",NY
14109,"Lewiston (town)",NY
14131,"Lewiston (town)",NY
14132,"Lewiston (town)",NY
14174,"Lewiston (town)",NY
14304,"Lewiston (town)",NY
14305,"Lewiston (town)",NY
13309,Leyden,NY
13325,Leyden,NY
13433,Leyden,NY
12734,"Liberty (town)",NY
12747,"Liberty (town)",NY
12754,"Liberty (town)",NY
12758,"Liberty (town)",NY
12768,"Liberty (town)",NY
12783,"Liberty (town)",NY
12787,"Liberty (town)",NY
12791,"Liberty (town)",NY
11561,"Lido Beach",NY
11569,"Lido Beach",NY
14414,"Lima (town)",NY
14472,"Lima (town)",NY
14485,"Lima (town)",NY
14487,"Lima (town)",NY
14042,"Lime Lake",NY
14101,"Lime Lake",NY
13052,Lincklaen,NY
13124,Lincklaen,NY
13136,Lincklaen,NY
13155,Lincklaen,NY
13032,Lincoln,NY
13043,Lincoln,NY
13421,Lincoln,NY
12401,"Lincoln Park",NY
13736,"Lisle (town)",NY
13794,"Lisle (town)",NY
13797,"Lisle (town)",NY
13803,"Lisle (town)",NY
13835,"Lisle (town)",NY
13862,"Lisle (town)",NY
13322,Litchfield,NY
13340,Litchfield,NY
13357,Litchfield,NY
13456,Litchfield,NY
13491,Litchfield,NY
13350,"Little Falls (town)",NY
13365,"Little Falls (town)",NY
13407,"Little Falls (town)",NY
14741,"Little Valley (town)",NY
14755,"Little Valley (town)",NY
14779,"Little Valley (town)",NY
14414,"Livonia (town)",NY
14435,"Livonia (town)",NY
14454,"Livonia (town)",NY
14466,"Livonia (town)",NY
14480,"Livonia (town)",NY
14485,"Livonia (town)",NY
14487,"Livonia (town)",NY
14488,"Livonia (town)",NY
14558,"Livonia (town)",NY
12515,Lloyd,NY
12528,Lloyd,NY
12561,Lloyd,NY
11724,"Lloyd Harbor",NY
11743,"Lloyd Harbor",NY
14067,"Lockport (town)",NY
14094,"Lockport (town)",NY
14841,"Lodi (town)",NY
14847,"Lodi (town)",NY
14860,"Lodi (town)",NY
12847,"Long Lake (cdp)",NY
12534,"Lorenz Park",NY
13605,"Lorraine (cdp)",NY
13659,"Lorraine (cdp)",NY
13621,Louisville,NY
13662,Louisville,NY
13667,Louisville,NY
13367,"Lowville (town)",NY
12719,Lumberland,NY
12732,Lumberland,NY
12737,Lumberland,NY
12743,Lumberland,NY
12770,Lumberland,NY
12780,Lumberland,NY
13618,Lyme,NY
13622,Lyme,NY
13624,Lyme,NY
13634,Lyme,NY
13693,Lyme,NY
13206,Lyncourt,NY
13208,Lyncourt,NY
14727,Lyndon,NY
14737,Lyndon,NY
14489,"Lyons (cdp)",NY
13309,Lyonsdale,NY
13368,Lyonsdale,NY
13433,Lyonsdale,NY
13027,Lysander,NY
13112,Lysander,NY
13135,Lysander,NY
13137,Lysander,NY
14502,"Macedon (town)",NY
14522,"Macedon (town)",NY
14568,"Macedon (town)",NY
14101,"Machias (cdp)",NY
13633,Macomb,NY
13642,Macomb,NY
13646,Macomb,NY
13654,Macomb,NY
13310,"Madison (town)",NY
13346,"Madison (town)",NY
13355,"Madison (town)",NY
13402,"Madison (town)",NY
13425,"Madison (town)",NY
13480,"Madison (town)",NY
13660,"Madrid (cdp)",NY
12453,Malden-on-hudson,NY
12953,"Malone (town)",NY
12966,"Malone (town)",NY
12995,"Malone (town)",NY
12019,Malta,NY
12020,Malta,NY
12118,Malta,NY
12151,Malta,NY
12866,Malta,NY
11552,"Malverne Park Oaks",NY
11565,"Malverne Park Oaks",NY
10940,Mamakating,NY
12483,Mamakating,NY
12566,Mamakating,NY
12721,Mamakating,NY
12722,Mamakating,NY
12763,Mamakating,NY
12769,Mamakating,NY
12777,Mamakating,NY
12781,Mamakating,NY
12785,Mamakating,NY
12790,Mamakating,NY
10538,"Mamaroneck (town)",NY
10543,"Mamaroneck (town)",NY
10583,"Mamaroneck (town)",NY
14432,"Manchester (town)",NY
14504,"Manchester (town)",NY
14513,"Manchester (town)",NY
14522,"Manchester (town)",NY
14537,"Manchester (town)",NY
14548,"Manchester (town)",NY
13329,Manheim,NY
13365,Manheim,NY
13037,"Manlius (town)",NY
13057,"Manlius (town)",NY
13066,"Manlius (town)",NY
13082,"Manlius (town)",NY
13104,"Manlius (town)",NY
13116,"Manlius (town)",NY
14719,Mansfield,NY
14729,Mansfield,NY
14731,Mansfield,NY
14755,Mansfield,NY
14779,Mansfield,NY
13803,"Marathon (town)",NY
12401,Marbletown,NY
12404,Marbletown,NY
12419,Marbletown,NY
12440,Marbletown,NY
12443,Marbletown,NY
12484,Marbletown,NY
12491,Marbletown,NY
12561,Marbletown,NY
13108,"Marcellus (town)",NY
13110,"Marcellus (town)",NY
13152,"Marcellus (town)",NY
12053,"Mariaville Lake",NY
12137,"Mariaville Lake",NY
12306,"Mariaville Lake",NY
14505,"Marion (cdp)",NY
12528,Marlborough,NY
12542,Marlborough,NY
12547,Marlborough,NY
13323,Marshall,NY
13328,Marshall,NY
13425,Marshall,NY
13480,Marshall,NY
13655,"Massena (town)",NY
13662,"Massena (town)",NY
13683,"Massena (town)",NY
11560,Matinecock,NY
11771,Matinecock,NY
13211,Mattydale,NY
12010,"Mayfield (town)",NY
12025,"Mayfield (town)",NY
12078,"Mayfield (town)",NY
12095,"Mayfield (town)",NY
12117,"Mayfield (town)",NY
13801,Mcdonough,NY
13815,Mcdonough,NY
13830,Mcdonough,NY
13101,Mcgraw,NY
10940,Mechanicstown,NY
13021,"Melrose Park",NY
12204,Menands,NY
13140,Mentz,NY
13166,Mentz,NY
13739,Meredith,NY
13753,Meredith,NY
13757,Meredith,NY
13806,Meredith,NY
13820,Meredith,NY
13846,Meredith,NY
12524,"Merritt Park",NY
13107,"Mexico (town)",NY
13114,"Mexico (town)",NY
13131,"Mexico (town)",NY
12023,"Middleburgh (town)",NY
12122,"Middleburgh (town)",NY
12157,"Middleburgh (town)",NY
12187,"Middleburgh (town)",NY
14011,Middlebury,NY
14039,Middlebury,NY
14054,Middlebury,NY
14569,Middlebury,NY
14591,Middlebury,NY
12116,Middlefield,NY
12155,Middlefield,NY
13320,Middlefield,NY
13326,Middlefield,NY
13450,Middlefield,NY
12514,Milan,NY
12571,Milan,NY
12572,Milan,NY
12581,Milan,NY
12116,"Milford (town)",NY
13747,"Milford (town)",NY
13807,"Milford (town)",NY
13820,"Milford (town)",NY
13834,"Milford (town)",NY
14527,Milo,NY
14842,Milo,NY
12020,"Milton (cdp)",NY
14724,Mina,NY
14736,Mina,NY
14775,Mina,NY
14781,Mina,NY
13339,Minden,NY
13069,"Minetto (cdp)",NY
13115,"Minetto (cdp)",NY
13126,"Minetto (cdp)",NY
10933,Minisink,NY
10940,Minisink,NY
10988,Minisink,NY
10998,Minisink,NY
10918,"Monroe (town)",NY
10926,"Monroe (town)",NY
10949,"Monroe (town)",NY
10950,"Monroe (town)",NY
13316,Montague,NY
13367,Montague,NY
13626,Montague,NY
10901,Montebello,NY
10941,"Montgomery (town)",NY
12543,"Montgomery (town)",NY
12549,"Montgomery (town)",NY
12550,"Montgomery (town)",NY
12566,"Montgomery (town)",NY
12575,"Montgomery (town)",NY
12586,"Montgomery (town)",NY
14864,Montour,NY
14865,Montour,NY
14869,Montour,NY
12958,"Mooers (cdp)",NY
13092,"Moravia (town)",NY
13118,"Moravia (town)",NY
12803,Moreau,NY
12828,Moreau,NY
12831,Moreau,NY
13353,Morehouse,NY
13411,"Morris (town)",NY
13796,"Morris (town)",NY
13808,"Morris (town)",NY
13843,"Morris (town)",NY
13614,"Morristown (town)",NY
13646,"Morristown (town)",NY
13654,"Morristown (town)",NY
13664,"Morristown (town)",NY
13669,"Morristown (town)",NY
10950,"Mountain Lodge Park",NY
10940,"Mount Hope",NY
10963,"Mount Hope",NY
10923,"Mount Ivy",NY
10970,"Mount Ivy",NY
10549,"Mount Kisco (town)",NY
14510,"Mount Morris (town)",NY
14517,"Mount Morris (town)",NY
10510,"Mount Pleasant",NY
10514,"Mount Pleasant",NY
10532,"Mount Pleasant",NY
10570,"Mount Pleasant",NY
10571,"Mount Pleasant",NY
10572,"Mount Pleasant",NY
10591,"Mount Pleasant",NY
10594,"Mount Pleasant",NY
10595,"Mount Pleasant",NY
13045,"Munsons Corners",NY
14411,Murray,NY
14420,Murray,NY
14452,Murray,NY
14470,Murray,NY
14477,Murray,NY
11545,Muttontown,NY
11732,Muttontown,NY
11753,Muttontown,NY
11771,Muttontown,NY
11791,Muttontown,NY
12512,"Myers Corner",NY
12537,"Myers Corner",NY
12590,"Myers Corner",NY
13777,Nanticoke,NY
13797,Nanticoke,NY
13802,Nanticoke,NY
13811,Nanticoke,NY
13862,Nanticoke,NY
13905,Nanticoke,NY
11930,Napeague,NY
14512,"Naples (town)",NY
14719,Napoli,NY
14755,Napoli,NY
14772,Napoli,NY
12018,"Nassau (town)",NY
12062,"Nassau (town)",NY
12123,"Nassau (town)",NY
12169,"Nassau (town)",NY
13035,Nelson,NY
13061,Nelson,NY
13122,Nelson,NY
13334,Nelson,NY
13408,Nelson,NY
10516,Nelsonville,NY
14719,"New Albion",NY
14755,"New Albion",NY
13736,"Newark Valley (town)",NY
13760,"Newark Valley (town)",NY
13811,"Newark Valley (town)",NY
13827,"Newark Valley (town)",NY
13411,"New Berlin (town)",NY
13815,"New Berlin (town)",NY
13843,"New Berlin (town)",NY
13305,"New Bremen",NY
13327,"New Bremen",NY
13367,"New Bremen",NY
13620,"New Bremen",NY
12542,"Newburgh (town)",NY
12550,"Newburgh (town)",NY
12555,"Newburgh (town)",NY
12575,"Newburgh (town)",NY
12586,"Newburgh (town)",NY
12589,"Newburgh (town)",NY
10504,"New Castle",NY
10510,"New Castle",NY
10514,"New Castle",NY
10546,"New Castle",NY
10549,"New Castle",NY
10562,"New Castle",NY
14028,"Newfane (cdp)",NY
14108,"Newfane (cdp)",NY
14867,"Newfield Hamlet",NY
13319,"New Hartford (town)",NY
13321,"New Hartford (town)",NY
13323,"New Hartford (town)",NY
13413,"New Hartford (town)",NY
13417,"New Hartford (town)",NY
13456,"New Hartford (town)",NY
13479,"New Hartford (town)",NY
13492,"New Hartford (town)",NY
13501,"New Hartford (town)",NY
13502,"New Hartford (town)",NY
10956,"New Hempstead",NY
10970,"New Hempstead",NY
10977,"New Hempstead",NY
14711,"New Hudson",NY
14714,"New Hudson",NY
14717,"New Hudson",NY
14727,"New Hudson",NY
12528,"New Paltz (town)",NY
12561,"New Paltz (town)",NY
13350,"Newport (town)",NY
13406,"Newport (town)",NY
13416,"Newport (town)",NY
13431,"Newport (town)",NY
12009,"New Scotland",NY
12041,"New Scotland",NY
12054,"New Scotland",NY
12067,"New Scotland",NY
12158,"New Scotland",NY
12159,"New Scotland",NY
12186,"New Scotland",NY
12203,"New Scotland",NY
10977,"New Square",NY
14001,Newstead,NY
14004,Newstead,NY
14031,Newstead,NY
14032,Newstead,NY
14038,Newstead,NY
12553,"New Windsor (cdp)",NY
14109,Niagara,NY
14304,Niagara,NY
14305,Niagara,NY
13812,"Nichols (town)",NY
13827,"Nichols (town)",NY
13845,"Nichols (town)",NY
13021,Niles,NY
13118,Niles,NY
13152,Niles,NY
12304,Niskayuna,NY
12309,Niskayuna,NY
12309,"Niskayuna (cdp)",NY
11780,Nissequogue,NY
13667,"Norfolk (cdp)",NY
13668,"Norfolk (cdp)",NY
11701,"North Amityville",NY
11726,"North Amityville",NY
11901,Northampton,NY
12025,Northampton,NY
12117,Northampton,NY
12134,Northampton,NY
12020,"North Ballston Spa",NY
11706,"North Bay Shore",NY
11566,"North Bellmore",NY
11710,"North Bellmore",NY
11793,"North Bellmore",NY
11713,"North Bellport",NY
11719,"North Bellport",NY
11763,"North Bellport",NY
11772,"North Bellport",NY
11980,"North Bellport",NY
10504,"North Castle",NY
10506,"North Castle",NY
10603,"North Castle",NY
10604,"North Castle",NY
14057,"North Collins (town)",NY
14091,"North Collins (town)",NY
14111,"North Collins (town)",NY
14141,"North Collins (town)",NY
14437,"North Dansville",NY
12501,"North East",NY
12546,"North East",NY
12567,"North East",NY
14850,"Northeast Ithaca",NY
12946,"North Elba",NY
12977,"North Elba",NY
12983,"North Elba",NY
14606,"North Gates",NY
11752,"North Great River",NY
12144,"North Greenbush",NY
12180,"North Greenbush",NY
12198,"North Greenbush",NY
14710,"North Harmony",NY
14757,"North Harmony",NY
14767,"North Harmony",NY
14781,"North Harmony",NY
14785,"North Harmony",NY
11963,"North Haven",NY
11001,"North Hempstead",NY
11020,"North Hempstead",NY
11021,"North Hempstead",NY
11022,"North Hempstead",NY
11023,"North Hempstead",NY
11024,"North Hempstead",NY
11025,"North Hempstead",NY
11026,"North Hempstead",NY
11027,"North Hempstead",NY
11030,"North Hempstead",NY
11040,"North Hempstead",NY
11042,"North Hempstead",NY
11050,"North Hempstead",NY
11051,"North Hempstead",NY
11052,"North Hempstead",NY
11053,"North Hempstead",NY
11054,"North Hempstead",NY
11055,"North Hempstead",NY
11501,"North Hempstead",NY
11507,"North Hempstead",NY
11514,"North Hempstead",NY
11547,"North Hempstead",NY
11548,"North Hempstead",NY
11568,"North Hempstead",NY
11576,"North Hempstead",NY
11577,"North Hempstead",NY
11590,"North Hempstead",NY
11594,"North Hempstead",NY
11595,"North Hempstead",NY
11596,"North Hempstead",NY
11597,"North Hempstead",NY
11801,"North Hempstead",NY
14843,"North Hornell",NY
11701,"North Lindenhurst",NY
11757,"North Lindenhurst",NY
11563,"North Lynbrook",NY
11758,"North Massapequa",NY
11783,"North Massapequa",NY
11566,"North Merrick",NY
11772,"North Patchogue",NY
11968,"North Sea",NY
11976,"North Sea",NY
13212,"North Syracuse",NY
12831,Northumberland,NY
12866,Northumberland,NY
12871,Northumberland,NY
11003,"North Valley Stream",NY
11580,"North Valley Stream",NY
11783,"North Wantagh",NY
11793,"North Wantagh",NY
11937,"Northwest Harbor",NY
14850,"Northwest Ithaca",NY
13324,Norway,NY
13416,Norway,NY
13815,"Norwich (town)",NY
13830,"Norwich (town)",NY
13843,"Norwich (town)",NY
11963,Noyack,NY
11968,Noyack,NY
14517,"Nunda (town)",NY
14836,"Nunda (town)",NY
11702,"Oak Beach-captree",NY
14125,"Oakfield (town)",NY
14410,Ogden,NY
14420,Ogden,NY
14428,Ogden,NY
14514,Ogden,NY
14559,Ogden,NY
14624,Ogden,NY
13324,Ohio,NY
13338,Ohio,NY
13420,Ohio,NY
13438,Ohio,NY
11545,"Old Brookville",NY
11548,"Old Brookville",NY
11733,"Old Field",NY
14760,"Olean (town)",NY
12412,Olive,NY
12461,Olive,NY
12481,Olive,NY
12494,Olive,NY
13421,"Oneida Castle",NY
13820,"Oneonta (town)",NY
13825,"Oneonta (town)",NY
13861,"Oneonta (town)",NY
13031,Onondaga,NY
13078,Onondaga,NY
13084,Onondaga,NY
13108,Onondaga,NY
13110,Onondaga,NY
13120,Onondaga,NY
13205,Onondaga,NY
13210,Onondaga,NY
13215,Onondaga,NY
13219,Onondaga,NY
14519,"Ontario (cdp)",NY
13329,Oppenheim,NY
13452,Oppenheim,NY
13470,Oppenheim,NY
14812,Orange,NY
14815,Orange,NY
14870,Orange,NY
14891,Orange,NY
12550,"Orange Lake",NY
12586,"Orange Lake",NY
10913,Orangetown,NY
10954,Orangetown,NY
10960,Orangetown,NY
10962,Orangetown,NY
10964,Orangetown,NY
10965,Orangetown,NY
10968,Orangetown,NY
10976,Orangetown,NY
10983,Orangetown,NY
10994,Orangetown,NY
14011,Orangeville,NY
14167,Orangeville,NY
14569,Orangeville,NY
14075,"Orchard Park (town)",NY
14127,"Orchard Park (town)",NY
14170,"Orchard Park (town)",NY
14218,"Orchard Park (town)",NY
14224,"Orchard Park (town)",NY
13601,Orleans,NY
13607,Orleans,NY
13624,Orleans,NY
13640,Orleans,NY
13641,Orleans,NY
13656,Orleans,NY
13691,Orleans,NY
13692,Orleans,NY
13316,Osceola,NY
13325,Osceola,NY
13437,Osceola,NY
13471,Osceola,NY
13489,Osceola,NY
14437,Ossian,NY
14822,Ossian,NY
10510,"Ossining (town)",NY
10545,"Ossining (town)",NY
10562,"Ossining (town)",NY
13074,"Oswego (town)",NY
13126,"Oswego (town)",NY
13156,"Oswego (town)",NY
13820,"Otego (town)",NY
13825,"Otego (town)",NY
13084,Otisco,NY
13110,Otisco,NY
13159,Otisco,NY
13315,Otsego,NY
13326,Otsego,NY
13337,Otsego,NY
13348,Otsego,NY
13439,Otsego,NY
13072,Otselic,NY
13155,Otselic,NY
13464,Otselic,NY
13832,Otselic,NY
14521,"Ovid (town)",NY
14588,"Ovid (town)",NY
14847,"Ovid (town)",NY
14860,"Ovid (town)",NY
13021,Owasco,NY
13732,"Owego (town)",NY
13760,"Owego (town)",NY
13811,"Owego (town)",NY
13827,"Owego (town)",NY
13733,"Oxford (town)",NY
13778,"Oxford (town)",NY
13815,"Oxford (town)",NY
13830,"Oxford (town)",NY
11732,"Oyster Bay (cdp)",NY
11771,"Oyster Bay (cdp)",NY
11771,"Oyster Bay Cove",NY
11791,"Oyster Bay Cove",NY
12068,Palatine,NY
13317,Palatine,NY
13339,Palatine,NY
13410,Palatine,NY
13428,Palatine,NY
13452,Palatine,NY
13036,Palermo,NY
13069,Palermo,NY
13114,Palermo,NY
13131,Palermo,NY
13132,Palermo,NY
13135,Palermo,NY
14505,"Palmyra (town)",NY
14513,"Palmyra (town)",NY
14522,"Palmyra (town)",NY
14568,"Palmyra (town)",NY
13601,Pamelia,NY
13616,Pamelia,NY
13637,Pamelia,NY
13656,Pamelia,NY
13691,Pamelia,NY
13601,"Pamelia Center",NY
12901,Parc,NY
13318,Paris,NY
13322,Paris,NY
13323,Paris,NY
13456,Paris,NY
13480,Paris,NY
13131,"Parish (town)",NY
13167,"Parish (town)",NY
13493,"Parish (town)",NY
13672,"Parishville (cdp)",NY
13676,"Parishville (cdp)",NY
14420,Parma,NY
14468,Parma,NY
14559,Parma,NY
14626,Parma,NY
14525,"Pavilion (cdp)",NY
12531,"Pawling (town)",NY
12564,"Pawling (town)",NY
12594,"Pawling (town)",NY
10509,"Peach Lake",NY
10560,"Peach Lake",NY
10803,"Pelham Manor",NY
10803,"Pelham (town)",NY
14001,Pembroke,NY
14013,Pembroke,NY
14020,Pembroke,NY
14036,Pembroke,NY
14094,Pendleton,NY
14120,Pendleton,NY
14445,Perinton,NY
14450,Perinton,NY
14502,Perinton,NY
14526,Perinton,NY
14534,Perinton,NY
14564,Perinton,NY
14129,"Perrysburg (cdp)",NY
14530,"Perry (town)",NY
14569,"Perry (town)",NY
14591,"Perry (town)",NY
14070,Persia,NY
14719,Persia,NY
12010,Perth,NY
12070,Perth,NY
12086,Perth,NY
12095,Perth,NY
12972,"Peru (cdp)",NY
12138,Petersburgh,NY
13155,Pharsalia,NY
13758,Pharsalia,NY
13801,Pharsalia,NY
13815,Pharsalia,NY
13832,Pharsalia,NY
13844,Pharsalia,NY
14432,"Phelps (town)",NY
14456,"Phelps (town)",NY
14489,"Phelps (town)",NY
14513,"Phelps (town)",NY
14518,"Phelps (town)",NY
14532,"Phelps (town)",NY
13673,"Philadelphia (town)",NY
13691,"Philadelphia (town)",NY
10516,Philipstown,NY
10524,Philipstown,NY
13617,Pierrepont,NY
13625,Pierrepont,NY
13647,Pierrepont,NY
13652,Pierrepont,NY
13676,Pierrepont,NY
13684,Pierrepont,NY
14024,"Pike (cdp)",NY
14066,"Pike (cdp)",NY
14130,"Pike (cdp)",NY
13601,Pinckney,NY
13626,Pinckney,NY
13682,Pinckney,NY
12567,"Pine Plains (cdp)",NY
13642,Pitcairn,NY
13648,Pitcairn,NY
13335,Pittsfield,NY
13411,Pittsfield,NY
13843,Pittsfield,NY
14445,"Pittsford (town)",NY
14467,"Pittsford (town)",NY
14534,"Pittsford (town)",NY
14610,"Pittsford (town)",NY
14618,"Pittsford (town)",NY
14625,"Pittsford (town)",NY
12028,Pittstown,NY
12090,Pittstown,NY
12094,Pittstown,NY
12121,Pittstown,NY
12154,Pittstown,NY
12180,Pittstown,NY
12182,Pittstown,NY
12185,Pittstown,NY
11714,Plainedge,NY
11735,Plainedge,NY
11783,Plainedge,NY
13315,Plainfield,NY
13364,Plainfield,NY
13485,Plainfield,NY
13491,Plainfield,NY
12528,"Plattekill (cdp)",NY
12568,"Plattekill (cdp)",NY
12589,"Plattekill (cdp)",NY
12901,"Plattsburgh (town)",NY
12918,"Plattsburgh (town)",NY
12962,"Plattsburgh (town)",NY
12901,"Plattsburgh West",NY
12569,"Pleasant Valley (cdp)",NY
12140,"Poestenkill (cdp)",NY
14048,Pomfret,NY
14063,Pomfret,NY
14166,Pomfret,NY
14716,Pomfret,NY
14718,Pomfret,NY
14752,Pomfret,NY
14784,Pomfret,NY
11733,Poquott,NY
14517,Portage,NY
14836,Portage,NY
14846,Portage,NY
13901,"Port Dickinson",NY
14131,Porter,NY
14174,Porter,NY
14727,"Portville (town)",NY
14760,"Portville (town)",NY
14770,"Portville (town)",NY
14788,"Portville (town)",NY
13617,"Potsdam (town)",NY
13660,"Potsdam (town)",NY
13668,"Potsdam (town)",NY
13676,"Potsdam (town)",NY
13699,"Potsdam (town)",NY
14507,Potter,NY
14527,Potter,NY
14544,Potter,NY
14561,Potter,NY
12590,"Poughkeepsie (town)",NY
12601,"Poughkeepsie (town)",NY
12603,"Poughkeepsie (town)",NY
12604,"Poughkeepsie (town)",NY
14873,"Prattsburgh (cdp)",NY
12468,"Prattsville (cdp)",NY
13815,Preston,NY
13830,Preston,NY
12469,"Preston-potter Hollow",NY
12056,Princetown,NY
12137,Princetown,NY
12306,Princetown,NY
12025,Providence,NY
12074,Providence,NY
12134,Providence,NY
12850,Providence,NY
12861,Putnam,NY
10509,"Putnam Lake",NY
12563,"Putnam Lake",NY
11978,Quiogue,NY
10901,Ramapo,NY
10931,Ramapo,NY
10952,Ramapo,NY
10956,Ramapo,NY
10965,Ramapo,NY
10970,Ramapo,NY
10974,Ramapo,NY
10977,Ramapo,NY
10982,Ramapo,NY
14772,"Randolph (cdp)",NY
14094,Rapids,NY
14801,Rathbone,NY
14820,Rathbone,NY
14876,Reading,NY
14878,Reading,NY
14891,Reading,NY
12504,"Red Hook (town)",NY
12507,"Red Hook (town)",NY
12571,"Red Hook (town)",NY
12572,"Red Hook (town)",NY
12583,"Red Hook (town)",NY
14753,"Red House",NY
14755,"Red House",NY
14779,"Red House",NY
12603,"Red Oaks Mill",NY
11941,Remsenburg-speonk,NY
11960,Remsenburg-speonk,NY
11972,Remsenburg-speonk,NY
11977,Remsenburg-speonk,NY
13338,"Remsen (town)",NY
13438,"Remsen (town)",NY
12572,"Rhinebeck (town)",NY
12574,"Rhinebeck (town)",NY
12580,"Rhinebeck (town)",NY
13439,Richfield,NY
13491,Richfield,NY
14466,Richmond,NY
14469,Richmond,NY
14471,Richmond,NY
14485,Richmond,NY
14487,Richmond,NY
12043,"Richmondville (town)",NY
12149,"Richmondville (town)",NY
12187,"Richmondville (town)",NY
14098,Ridgeway,NY
14103,Ridgeway,NY
14105,Ridgeway,NY
14411,Ridgeway,NY
14479,Ridgeway,NY
14571,Ridgeway,NY
14416,Riga,NY
14428,Riga,NY
14775,"Ripley (cdp)",NY
11901,"Riverhead (cdp)",NY
11970,"Riverhead (cdp)",NY
11901,Riverside,NY
14830,Riverside,NY
14870,Riverside,NY
12758,Rockland,NY
12768,Rockland,NY
12776,Rockland,NY
13682,"Rodman (cdp)",NY
14541,"Romulus (cdp)",NY
12066,Root,NY
12072,Root,NY
12166,Root,NY
13317,Root,NY
13459,Root,NY
12401,"Rosendale Hamlet",NY
12472,"Rosendale Hamlet",NY
12486,"Rosendale Hamlet",NY
13608,Rossie,NY
13642,Rossie,NY
13646,Rossie,NY
13679,Rossie,NY
12137,Rotterdam,NY
12150,Rotterdam,NY
12303,Rotterdam,NY
12304,Rotterdam,NY
12306,Rotterdam,NY
12303,"Rotterdam (cdp)",NY
12304,"Rotterdam (cdp)",NY
12306,"Rotterdam (cdp)",NY
14001,Royalton,NY
14067,Royalton,NY
14094,Royalton,NY
14105,Royalton,NY
14777,"Rushford (cdp)",NY
13304,Russia,NY
13324,Russia,NY
13338,Russia,NY
13431,Russia,NY
13438,Russia,NY
13601,Rutland,NY
13612,Rutland,NY
13619,Rutland,NY
13626,Rutland,NY
13638,Rutland,NY
10573,"Rye Brook",NY
10604,"Rye Brook",NY
10543,"Rye (town)",NY
10573,"Rye (town)",NY
10604,"Rye (town)",NY
11021,"Saddle Rock Estates",NY
14755,"Salamanca (town)",NY
14779,"Salamanca (town)",NY
12865,"Salem (town)",NY
12873,"Salem (town)",NY
13088,Salina,NY
13089,Salina,NY
13090,Salina,NY
13206,Salina,NY
13208,Salina,NY
13211,Salina,NY
13212,Salina,NY
11590,Salisbury,NY
11592,Salisbury,NY
13329,Salisbury,NY
13365,Salisbury,NY
13454,Salisbury,NY
13470,Salisbury,NY
11706,Saltaire,NY
13132,"Sand Ridge",NY
13083,"Sandy Creek (town)",NY
13142,"Sandy Creek (town)",NY
13145,"Sandy Creek (town)",NY
13661,"Sandy Creek (town)",NY
13730,Sanford,NY
13754,Sanford,NY
13813,Sanford,NY
13865,Sanford,NY
12945,"Santa Clara",NY
12970,"Santa Clara",NY
12980,"Santa Clara",NY
12983,"Santa Clara",NY
12986,"Santa Clara",NY
12170,Saratoga,NY
12866,Saratoga,NY
12871,Saratoga,NY
12884,Saratoga,NY
12477,"Saugerties South",NY
12432,"Saugerties (town)",NY
12453,"Saugerties (town)",NY
12456,"Saugerties (town)",NY
12475,"Saugerties (town)",NY
12477,"Saugerties (town)",NY
12490,"Saugerties (town)",NY
12498,"Saugerties (town)",NY
13146,"Savannah (cdp)",NY
10583,"Scarsdale (town)",NY
12028,"Schaghticoke (town)",NY
12094,"Schaghticoke (town)",NY
12118,"Schaghticoke (town)",NY
12121,"Schaghticoke (town)",NY
12154,"Schaghticoke (town)",NY
12182,"Schaghticoke (town)",NY
12185,"Schaghticoke (town)",NY
12018,Schodack,NY
12033,Schodack,NY
12061,Schodack,NY
12063,Schodack,NY
12123,Schodack,NY
12144,Schodack,NY
12156,Schodack,NY
12184,Schodack,NY
12035,"Schoharie (town)",NY
12053,"Schoharie (town)",NY
12066,"Schoharie (town)",NY
12092,"Schoharie (town)",NY
12157,"Schoharie (town)",NY
13036,Schroeppel,NY
13069,Schroeppel,NY
13132,Schroeppel,NY
13135,Schroeppel,NY
12808,Schroon,NY
12855,Schroon,NY
12857,Schroon,NY
12858,Schroon,NY
12870,Schroon,NY
12872,Schroon,NY
13340,Schuyler,NY
13416,Schuyler,NY
13431,Schuyler,NY
13502,Schuyler,NY
14880,"Scio (cdp)",NY
13021,Scipio,NY
13026,Scipio,NY
13118,Scipio,NY
13147,Scipio,NY
13160,Scipio,NY
10941,Scotchtown,NY
12302,Scotia,NY
13077,Scott,NY
10576,"Scotts Corners",NY
13069,Scriba,NY
13093,Scriba,NY
13126,Scriba,NY
13077,Sempronius,NY
13118,Sempronius,NY
14432,Seneca,NY
14456,Seneca,NY
14463,Seneca,NY
14547,Seneca,NY
14561,Seneca,NY
13148,"Seneca Falls (cdp)",NY
13027,"Seneca Knolls",NY
13209,"Seneca Knolls",NY
13021,Sennett,NY
13166,Sennett,NY
11733,"Setauket-east Setauket",NY
11776,"Setauket-east Setauket",NY
11777,"Setauket-east Setauket",NY
11790,"Setauket-east Setauket",NY
12043,Seward,NY
12149,Seward,NY
13459,Seward,NY
13459,Sharon,NY
12525,Shawangunk,NY
12566,Shawangunk,NY
12588,Shawangunk,NY
12589,Shawangunk,NY
14103,Shelby,NY
14105,Shelby,NY
14411,Shelby,NY
14011,Sheldon,NY
14113,Sheldon,NY
14145,Sheldon,NY
14167,Sheldon,NY
11964,"Shelter Island (cdp)",NY
11965,"Shelter Island (cdp)",NY
13332,"Sherburne (town)",NY
13460,"Sherburne (town)",NY
14724,"Sherman (town)",NY
14767,"Sherman (town)",NY
14781,"Sherman (town)",NY
11946,"Shinnecock Hills",NY
11960,"Shinnecock Hills",NY
11968,"Shinnecock Hills",NY
11972,"Shinnecock Hills",NY
13775,"Sidney (town)",NY
13825,"Sidney (town)",NY
13838,"Sidney (town)",NY
13839,"Sidney (town)",NY
13849,"Sidney (town)",NY
13856,"Sidney (town)",NY
13021,"Skaneateles (town)",NY
13060,"Skaneateles (town)",NY
13108,"Skaneateles (town)",NY
13119,"Skaneateles (town)",NY
13152,"Skaneateles (town)",NY
13153,"Skaneateles (town)",NY
10591,"Sleepy Hollow",NY
14206,Sloan,NY
14212,Sloan,NY
13032,Smithfield,NY
13035,Smithfield,NY
13134,Smithfield,NY
13408,Smithfield,NY
13409,Smithfield,NY
13421,Smithfield,NY
11725,"Smithtown (cdp)",NY
11754,"Smithtown (cdp)",NY
11780,"Smithtown (cdp)",NY
11787,"Smithtown (cdp)",NY
13778,Smithville,NY
13801,Smithville,NY
13830,Smithville,NY
13841,Smithville,NY
13332,"Smyrna (town)",NY
13464,"Smyrna (town)",NY
13832,"Smyrna (town)",NY
14413,"Sodus (town)",NY
14489,"Sodus (town)",NY
14505,"Sodus (town)",NY
14516,"Sodus (town)",NY
14551,"Sodus (town)",NY
14555,"Sodus (town)",NY
14589,"Sodus (town)",NY
13040,Solon,NY
13101,Solon,NY
13204,Solvay,NY
13209,Solvay,NY
13219,Solvay,NY
14008,Somerset,NY
14012,Somerset,NY
11901,"Southampton (town)",NY
11932,"Southampton (town)",NY
11941,"Southampton (town)",NY
11942,"Southampton (town)",NY
11946,"Southampton (town)",NY
11959,"Southampton (town)",NY
11960,"Southampton (town)",NY
11962,"Southampton (town)",NY
11963,"Southampton (town)",NY
11968,"Southampton (town)",NY
11969,"Southampton (town)",NY
11972,"Southampton (town)",NY
11976,"Southampton (town)",NY
11977,"Southampton (town)",NY
11978,"Southampton (town)",NY
10914,"South Blooming Grove",NY
10918,"South Blooming Grove",NY
10950,"South Blooming Grove",NY
14424,"South Bristol",NY
14471,"South Bristol",NY
14512,"South Bristol",NY
14830,"South Corning",NY
10509,Southeast,NY
10512,Southeast,NY
11735,"South Farmingdale",NY
11758,"South Farmingdale",NY
11001,"South Floral Park",NY
11550,"South Hempstead",NY
11570,"South Hempstead",NY
14850,"South Hill",NY
11746,"South Huntington",NY
11750,"South Huntington",NY
14094,"South Lockport",NY
10960,"South Nyack",NY
11958,"Southold (cdp)",NY
11971,"Southold (cdp)",NY
14830,Southport,NY
14871,Southport,NY
14894,Southport,NY
14901,Southport,NY
14904,Southport,NY
14871,"Southport (cdp)",NY
14901,"Southport (cdp)",NY
14904,"Southport (cdp)",NY
14738,"South Valley",NY
14747,"South Valley",NY
14779,"South Valley",NY
11581,"South Valley Stream",NY
12601,Spackenkill,NY
12603,Spackenkill,NY
13077,Spafford,NY
13110,Spafford,NY
13141,Spafford,NY
13152,Spafford,NY
14435,Sparta,NY
14437,Sparta,NY
14462,Sparta,NY
14545,Sparta,NY
14572,Sparta,NY
13743,"Spencer (town)",NY
14859,"Spencer (town)",NY
14883,"Spencer (town)",NY
13320,Springfield,NY
13326,Springfield,NY
13333,Springfield,NY
13361,Springfield,NY
13439,Springfield,NY
13468,Springfield,NY
13021,Springport,NY
13034,Springport,NY
13160,Springport,NY
11937,Springs,NY
14560,"Springwater Hamlet",NY
12167,"Stamford (town)",NY
13739,"Stamford (town)",NY
13788,"Stamford (town)",NY
13842,"Stamford (town)",NY
12501,Stanford,NY
12506,Stanford,NY
12514,Stanford,NY
12545,Stanford,NY
12567,Stanford,NY
12581,Stanford,NY
14895,Stannards,NY
13339,Stark,NY
13361,Stark,NY
13407,Stark,NY
14837,Starkey,NY
14842,Starkey,NY
14857,Starkey,NY
14878,Starkey,NY
12913,"St. Armand",NY
12983,"St. Armand",NY
14706,"St. Bonaventure",NY
14760,"St. Bonaventure",NY
14778,"St. Bonaventure",NY
13309,Steuben,NY
13354,Steuben,NY
13438,Steuben,NY
13486,Steuben,NY
11530,"Stewart Manor",NY
12118,"Stillwater (town)",NY
12170,"Stillwater (town)",NY
12866,"Stillwater (town)",NY
11755,"St. James",NY
11780,"St. James",NY
11787,"St. James",NY
13452,"St. Johnsville",NY
13339,"St. Johnsville (town)",NY
13452,"St. Johnsville (town)",NY
13402,Stockbridge,NY
13409,Stockbridge,NY
13421,Stockbridge,NY
13613,Stockholm,NY
13667,Stockholm,NY
13668,Stockholm,NY
13676,Stockholm,NY
13696,Stockholm,NY
13697,Stockholm,NY
12050,Stockport,NY
12172,Stockport,NY
12173,Stockport,NY
12174,Stockport,NY
12534,Stockport,NY
11733,"Stony Brook University",NY
11790,"Stony Brook University",NY
11794,"Stony Brook University",NY
10980,"Stony Point (cdp)",NY
12980,"St. Regis Falls",NY
13030,Sullivan,NY
13032,Sullivan,NY
13035,Sullivan,NY
13037,Sullivan,NY
13082,Sullivan,NY
13104,Sullivan,NY
13045,Summerhill,NY
13073,Summerhill,NY
13092,Summerhill,NY
13118,Summerhill,NY
14081,"Sunset Bay",NY
14136,"Sunset Bay",NY
13126,"Suny Oswego",NY
14416,Sweden,NY
14420,Sweden,NY
14428,Sweden,NY
14430,Sweden,NY
14559,Sweden,NY
12516,"Taconic Shores",NY
12502,Taghkanic,NY
12521,Taghkanic,NY
12523,Taghkanic,NY
12529,Taghkanic,NY
12534,Taghkanic,NY
13040,Taylor,NY
13052,Taylor,NY
11720,Terryville,NY
11776,Terryville,NY
13673,"Theresa (town)",NY
13679,"Theresa (town)",NY
13691,"Theresa (town)",NY
12701,Thompson,NY
12734,Thompson,NY
12738,Thompson,NY
12742,Thompson,NY
12751,Thompson,NY
12775,Thompson,NY
12779,Thompson,NY
12784,Thompson,NY
12790,Thompson,NY
13021,Throop,NY
13140,Throop,NY
13166,Throop,NY
12810,Thurman,NY
12878,Thurman,NY
12885,Thurman,NY
14801,Thurston,NY
14810,Thurston,NY
14820,Thurston,NY
14821,Thurston,NY
14879,Thurston,NY
12883,"Ticonderoga (cdp)",NY
13734,Tioga,NY
13827,Tioga,NY
13840,Tioga,NY
13845,Tioga,NY
14883,Tioga,NY
12603,Titusville,NY
13756,Tompkins,NY
13783,Tompkins,NY
13839,Tompkins,NY
13847,Tompkins,NY
13856,Tompkins,NY
14150,"Tonawanda (cdp)",NY
14151,"Tonawanda (cdp)",NY
14207,"Tonawanda (cdp)",NY
14217,"Tonawanda (cdp)",NY
14223,"Tonawanda (cdp)",NY
14150,"Tonawanda (town)",NY
14151,"Tonawanda (town)",NY
14207,"Tonawanda (town)",NY
14217,"Tonawanda (town)",NY
14223,"Tonawanda (town)",NY
14441,Torrey,NY
14527,Torrey,NY
14842,Torrey,NY
14004,"Town Line",NY
14086,"Town Line",NY
13304,Trenton,NY
13352,Trenton,NY
13354,Trenton,NY
13435,Trenton,NY
13438,Trenton,NY
13502,Trenton,NY
13746,Triangle,NY
13778,Triangle,NY
13797,Triangle,NY
13803,Triangle,NY
13862,Triangle,NY
13141,"Tully (town)",NY
13159,"Tully (town)",NY
12986,"Tupper Lake (town)",NY
13343,"Turin (town)",NY
13367,"Turin (town)",NY
13368,"Turin (town)",NY
13473,"Turin (town)",NY
14510,Tuscarora,NY
14801,Tuscarora,NY
14858,Tuscarora,NY
14870,Tuscarora,NY
12764,Tusten,NY
10910,Tuxedo,NY
10975,Tuxedo,NY
10987,Tuxedo,NY
13146,Tyre,NY
13148,Tyre,NY
13165,Tyre,NY
12401,Ulster,NY
12411,Ulster,NY
12443,Ulster,NY
12449,Ulster,NY
12475,Ulster,NY
12477,Ulster,NY
14850,Ulysses,NY
14854,Ulysses,NY
14886,Ulysses,NY
13733,"Unadilla (town)",NY
13809,"Unadilla (town)",NY
13838,"Unadilla (town)",NY
13849,"Unadilla (town)",NY
13859,"Unadilla (town)",NY
13760,Union,NY
13762,Union,NY
13790,Union,NY
13850,Union,NY
13905,Union,NY
12522,"Union Vale",NY
12540,"Union Vale",NY
12545,"Union Vale",NY
12569,"Union Vale",NY
12570,"Union Vale",NY
12585,"Union Vale",NY
12594,"Union Vale",NY
14228,"University At Buffalo",NY
14261,"University At Buffalo",NY
11545,"Upper Brookville",NY
11771,"Upper Brookville",NY
10960,"Upper Nyack",NY
14810,Urbana,NY
14840,Urbana,NY
14879,Urbana,NY
13027,"Van Buren",NY
13112,"Van Buren",NY
13164,"Van Buren",NY
13209,"Van Buren",NY
14859,"Van Etten (town)",NY
14889,"Van Etten (town)",NY
13065,Varick,NY
13148,Varick,NY
13165,Varick,NY
14456,Varick,NY
14541,Varick,NY
13026,Venice,NY
13071,Venice,NY
13081,Venice,NY
13092,Venice,NY
13118,Venice,NY
13139,Venice,NY
13147,Venice,NY
13421,"Vernon (town)",NY
13476,"Vernon (town)",NY
13477,"Vernon (town)",NY
13478,"Verona (cdp)",NY
14816,Veteran,NY
14824,Veteran,NY
14845,Veteran,NY
14864,Veteran,NY
14872,Veteran,NY
14453,"Victor (town)",NY
14534,"Victor (town)",NY
14564,"Victor (town)",NY
12871,Victory,NY
12884,Victory,NY
13033,Victory,NY
13111,Victory,NY
13143,Victory,NY
13042,Vienna,NY
13054,Vienna,NY
13123,Vienna,NY
13157,Vienna,NY
13308,Vienna,NY
13316,Vienna,NY
13401,Vienna,NY
13027,"Village Green",NY
11787,"Village Of The Branch",NY
14062,Villenova,NY
14138,Villenova,NY
14723,Villenova,NY
10901,Viola,NY
10952,Viola,NY
13045,Virgil,NY
13053,Virgil,NY
13803,Virgil,NY
13045,"Virgil (cdp)",NY
13069,Volney,NY
13114,Volney,NY
13126,Volney,NY
13135,Volney,NY
13621,"Waddington (town)",NY
13658,"Waddington (town)",NY
13660,"Waddington (town)",NY
13694,"Waddington (town)",NY
14533,Wadsworth,NY
14037,Wales,NY
14052,Wales,NY
14139,Wales,NY
14145,Wales,NY
14169,Wales,NY
10918,"Walton Park",NY
10950,"Walton Park",NY
13756,"Walton (town)",NY
13856,"Walton (town)",NY
14075,Wanakah,NY
14085,Wanakah,NY
12512,Wappinger,NY
12524,Wappinger,NY
12533,Wappinger,NY
12537,Wappinger,NY
12590,Wappinger,NY
12603,Wappinger,NY
14803,Ward,NY
14806,Ward,NY
14813,Ward,NY
14880,Ward,NY
13361,Warren,NY
13407,Warren,NY
13439,Warren,NY
12885,"Warrensburg (cdp)",NY
14530,"Warsaw (town)",NY
14550,"Warsaw (town)",NY
14569,"Warsaw (town)",NY
14591,"Warsaw (town)",NY
10912,"Warwick (town)",NY
10918,"Warwick (town)",NY
10921,"Warwick (town)",NY
10924,"Warwick (town)",NY
10925,"Warwick (town)",NY
10950,"Warwick (town)",NY
10959,"Warwick (town)",NY
10969,"Warwick (town)",NY
10979,"Warwick (town)",NY
10987,"Warwick (town)",NY
10990,"Warwick (town)",NY
10940,"Washington Heights",NY
12589,Watchtower,NY
12188,"Waterford (town)",NY
13165,"Waterloo (town)",NY
14456,"Waterloo (town)",NY
13601,"Watertown (town)",NY
13606,"Watertown (town)",NY
13682,"Watertown (town)",NY
13327,Watson,NY
13343,Watson,NY
13367,Watson,NY
10940,Wawayanda,NY
10958,Wawayanda,NY
10973,Wawayanda,NY
14437,"Wayland (town)",NY
14529,"Wayland (town)",NY
14572,"Wayland (town)",NY
14826,"Wayland (town)",NY
13331,Webb,NY
13338,Webb,NY
13367,Webb,NY
13420,Webb,NY
13472,Webb,NY
14560,"Websters Crossing",NY
14519,"Webster (town)",NY
14563,"Webster (town)",NY
14580,"Webster (town)",NY
12190,"Wells (cdp)",NY
14806,"Wellsville (town)",NY
14895,"Wellsville (town)",NY
10901,"Wesley Hills",NY
10952,"Wesley Hills",NY
10977,"Wesley Hills",NY
14709,"West Almond",NY
14803,"West Almond",NY
14804,"West Almond",NY
14813,"West Almond",NY
11706,"West Bay Shore",NY
13619,"West Carthage",NY
14903,"West Elmira",NY
14905,"West Elmira",NY
13820,"West End",NY
13303,Western,NY
13309,Western,NY
13354,Western,NY
13440,Western,NY
13486,Western,NY
14775,"Westfield (town)",NY
14781,"Westfield (town)",NY
14787,"Westfield (town)",NY
12804,"West Glens Falls",NY
11978,"West Hampton Dunes",NY
11743,"West Hills",NY
11746,"West Hills",NY
11747,"West Hills",NY
12084,Westmere,NY
12159,Westmere,NY
12203,Westmere,NY
13490,"Westmoreland (cdp)",NY
14760,"Weston Mills",NY
14770,"Weston Mills",NY
14788,"Weston Mills",NY
12993,"Westport (cdp)",NY
14206,"West Seneca",NY
14210,"West Seneca",NY
14218,"West Seneca",NY
14220,"West Seneca",NY
14224,"West Seneca",NY
14206,"West Seneca (cdp)",NY
14210,"West Seneca (cdp)",NY
14218,"West Seneca (cdp)",NY
14220,"West Seneca (cdp)",NY
14224,"West Seneca (cdp)",NY
14437,"West Sparta",NY
14510,"West Sparta",NY
14517,"West Sparta",NY
13309,"West Turin",NY
13325,"West Turin",NY
13367,"West Turin",NY
13368,"West Turin",NY
13433,"West Turin",NY
13473,"West Turin",NY
13489,"West Turin",NY
14806,"West Union",NY
14877,"West Union",NY
14897,"West Union",NY
13219,Westvale,NY
12926,Westville,NY
12937,Westville,NY
12953,Westville,NY
12966,Westville,NY
14024,Wethersfield,NY
14066,Wethersfield,NY
14113,Wethersfield,NY
14167,Wethersfield,NY
14569,Wethersfield,NY
14094,Wheatfield,NY
14120,Wheatfield,NY
14132,Wheatfield,NY
14304,Wheatfield,NY
14428,Wheatland,NY
14482,Wheatland,NY
14511,Wheatland,NY
14546,Wheatland,NY
11746,"Wheatley Heights",NY
11798,"Wheatley Heights",NY
14809,Wheeler,NY
14810,Wheeler,NY
14826,Wheeler,NY
14840,Wheeler,NY
14873,Wheeler,NY
12028,"White Creek",NY
12057,"White Creek",NY
12816,"White Creek",NY
12887,"Whitehall (town)",NY
13417,Whitestown,NY
13424,Whitestown,NY
13440,Whitestown,NY
13492,Whitestown,NY
13495,Whitestown,NY
13502,Whitestown,NY
14589,"Williamson (cdp)",NY
14221,Williamsville,NY
14895,Willing,NY
14897,Willing,NY
12996,"Willsboro (cdp)",NY
12997,"Wilmington (cdp)",NY
13602,Wilna,NY
13619,Wilna,NY
13628,Wilna,NY
13665,Wilna,NY
14028,"Wilson (town)",NY
14108,"Wilson (town)",NY
14131,"Wilson (town)",NY
14172,"Wilson (town)",NY
12831,Wilton,NY
12866,Wilton,NY
12496,"Windham (cdp)",NY
13795,"Windsor (town)",NY
13826,"Windsor (town)",NY
13865,"Windsor (town)",NY
13357,Winfield,NY
13491,Winfield,NY
14715,Wirt,NY
14739,Wirt,NY
14774,Wirt,NY
14880,Wirt,NY
14895,Wirt,NY
13143,"Wolcott (town)",NY
13154,"Wolcott (town)",NY
13156,"Wolcott (town)",NY
14590,"Wolcott (town)",NY
10917,"Woodbury (town)",NY
10926,"Woodbury (town)",NY
10930,"Woodbury (town)",NY
10950,"Woodbury (town)",NY
11598,Woodsburgh,NY
12409,"Woodstock (cdp)",NY
12498,"Woodstock (cdp)",NY
14437,Woodsville,NY
12197,"Worcester (cdp)",NY
13659,Worth,NY
13682,Worth,NY
12023,Wright,NY
12053,Wright,NY
12073,Wright,NY
12157,Wright,NY
14098,Yates,NY
14533,"York Hamlet",NY
14539,"York Hamlet",NY
14592,"York Hamlet",NY
14009,"Yorkshire (cdp)",NY
14030,"Yorkshire (cdp)",NY
14042,"Yorkshire (cdp)",NY
14173,"Yorkshire (cdp)",NY
10514,Yorktown,NY
10520,Yorktown,NY
10535,Yorktown,NY
10547,Yorktown,NY
10549,Yorktown,NY
10562,Yorktown,NY
10567,Yorktown,NY
10588,Yorktown,NY
10598,Yorktown,NY
12401,Zena,NY
12498,Zena,NY
