zipcode,city,state
76621,Abbott,TX
79311,Abernathy,TX
79601,Abilene,TX
79602,Abilene,TX
79603,Abilene,TX
79604,Abilene,TX
79605,Abilene,TX
79606,Abilene,TX
79607,Abilene,TX
79608,Abilene,TX
79697,Abilene,TX
79698,Abilene,TX
79699,Abilene,TX
77326,Ace,TX
79713,Ackerly,TX
75001,Addison,TX
75254,Addison,TX
78101,Adkins,TX
79001,Adrian,TX
79220,Afton,TX
78330,"Agua Dulce",TX
79928,"Agua Dulce",TX
79221,Aiken,TX
78516,Alamo,TX
79002,Alanreed,TX
75410,Alba,TX
76430,Albany,TX
76008,Aledo,TX
78332,Alice,TX
78333,Alice,TX
77411,Alief,TX
75002,Allen,TX
75013,Allen,TX
78935,Alleyton,TX
79003,Allison,TX
79830,Alpine,TX
79831,Alpine,TX
79832,Alpine,TX
77412,Altair,TX
75925,Alto,TX
76009,Alvarado,TX
76061,Alvarado,TX
77511,Alvin,TX
77512,Alvin,TX
77515,Alvin,TX
77534,Alvin,TX
77541,Alvin,TX
77583,Alvin,TX
76225,Alvord,TX
79101,Amarillo,TX
79102,Amarillo,TX
79103,Amarillo,TX
79104,Amarillo,TX
79105,Amarillo,TX
79106,Amarillo,TX
79107,Amarillo,TX
79108,Amarillo,TX
79109,Amarillo,TX
79110,Amarillo,TX
79111,Amarillo,TX
79114,Amarillo,TX
79116,Amarillo,TX
79117,Amarillo,TX
79118,Amarillo,TX
79119,Amarillo,TX
79120,Amarillo,TX
79121,Amarillo,TX
79124,Amarillo,TX
79159,Amarillo,TX
79166,Amarillo,TX
79168,Amarillo,TX
79172,Amarillo,TX
79174,Amarillo,TX
79178,Amarillo,TX
79185,Amarillo,TX
79187,Amarillo,TX
79189,Amarillo,TX
79312,Amherst,TX
77514,Anahuac,TX
77830,Anderson,TX
79714,Andrews,TX
77515,Angleton,TX
77516,Angleton,TX
75409,Anna,TX
75424,Anna,TX
75454,Anna,TX
75485,Anna,TX
75550,Annona,TX
79501,Anson,TX
79821,Anthony,TX
79313,Anton,TX
75926,"Apple Springs",TX
76622,Aquilla,TX
78335,"Aransas Pass",TX
78336,"Aransas Pass",TX
78362,"Aransas Pass",TX
76351,"Archer City",TX
76226,Argyle,TX
75050,Arlington,TX
75052,Arlington,TX
76001,Arlington,TX
76002,Arlington,TX
76003,Arlington,TX
76004,Arlington,TX
76005,Arlington,TX
76006,Arlington,TX
76007,Arlington,TX
76010,Arlington,TX
76011,Arlington,TX
76012,Arlington,TX
76013,Arlington,TX
76014,Arlington,TX
76015,Arlington,TX
76016,Arlington,TX
76017,Arlington,TX
76018,Arlington,TX
76019,Arlington,TX
76040,Arlington,TX
76060,Arlington,TX
76063,Arlington,TX
76094,Arlington,TX
76096,Arlington,TX
76112,Arlington,TX
76119,Arlington,TX
76120,Arlington,TX
78338,Armstrong,TX
75750,Arp,TX
76820,Art,TX
78001,"Artesia Wells",TX
75411,"Arthur City",TX
78827,Asherton,TX
79502,Aspermont,TX
78002,Atascosa,TX
75751,Athens,TX
75752,Athens,TX
75551,Atlanta,TX
75572,Atlanta,TX
76227,Aubrey,TX
76258,Aubrey,TX
73301,Austin,TX
73344,Austin,TX
78613,Austin,TX
78617,Austin,TX
78641,Austin,TX
78651,Austin,TX
78652,Austin,TX
78653,Austin,TX
78660,Austin,TX
78701,Austin,TX
78702,Austin,TX
78703,Austin,TX
78704,Austin,TX
78705,Austin,TX
78708,Austin,TX
78709,Austin,TX
78711,Austin,TX
78712,Austin,TX
78713,Austin,TX
78714,Austin,TX
78715,Austin,TX
78716,Austin,TX
78717,Austin,TX
78718,Austin,TX
78719,Austin,TX
78720,Austin,TX
78721,Austin,TX
78722,Austin,TX
78723,Austin,TX
78724,Austin,TX
78725,Austin,TX
78726,Austin,TX
78727,Austin,TX
78728,Austin,TX
78729,Austin,TX
78730,Austin,TX
78731,Austin,TX
78732,Austin,TX
78733,Austin,TX
78734,Austin,TX
78735,Austin,TX
78736,Austin,TX
78737,Austin,TX
78738,Austin,TX
78739,Austin,TX
78741,Austin,TX
78742,Austin,TX
78744,Austin,TX
78745,Austin,TX
78746,Austin,TX
78747,Austin,TX
78748,Austin,TX
78749,Austin,TX
78750,Austin,TX
78751,Austin,TX
78752,Austin,TX
78753,Austin,TX
78754,Austin,TX
78755,Austin,TX
78756,Austin,TX
78757,Austin,TX
78758,Austin,TX
78759,Austin,TX
78760,Austin,TX
78761,Austin,TX
78762,Austin,TX
78763,Austin,TX
78764,Austin,TX
78765,Austin,TX
78766,Austin,TX
78767,Austin,TX
78768,Austin,TX
78769,Austin,TX
78772,Austin,TX
78773,Austin,TX
78774,Austin,TX
78778,Austin,TX
78779,Austin,TX
78780,Austin,TX
78781,Austin,TX
78783,Austin,TX
78785,Austin,TX
78786,Austin,TX
78788,Austin,TX
78789,Austin,TX
77950,Austwell,TX
76623,Avalon,TX
75554,Avery,TX
75630,Avinger,TX
79503,Avoca,TX
76624,Axtell,TX
76020,Azle,TX
76098,Azle,TX
77518,Bacliff,TX
77573,Bacliff,TX
75412,Bagwell,TX
75413,Bailey,TX
75452,Bailey,TX
79504,Baird,TX
76821,Ballinger,TX
79718,Balmorhea,TX
78003,Bandera,TX
76823,Bangs,TX
78339,Banquete,TX
78380,Banquete,TX
75101,Bardwell,TX
77413,Barker,TX
78828,Barksdale,TX
76930,Barnhart,TX
75102,Barry,TX
79719,Barstow,TX
76511,Bartlett,TX
78602,Bastrop,TX
78829,Batesville,TX
77519,Batson,TX
77404,"Bay City",TX
77414,"Bay City",TX
78340,Bayside,TX
77520,Baytown,TX
77521,Baytown,TX
77522,Baytown,TX
77523,Baytown,TX
77417,Beasley,TX
77627,Beaumont,TX
77701,Beaumont,TX
77702,Beaumont,TX
77703,Beaumont,TX
77704,Beaumont,TX
77705,Beaumont,TX
77706,Beaumont,TX
77707,Beaumont,TX
77708,Beaumont,TX
77709,Beaumont,TX
77710,Beaumont,TX
77713,Beaumont,TX
77720,Beaumont,TX
77725,Beaumont,TX
77726,Beaumont,TX
75631,Beckville,TX
76021,Bedford,TX
76022,Bedford,TX
76054,Bedford,TX
76095,Bedford,TX
77831,Bedias,TX
78102,Beeville,TX
78104,Beeville,TX
77401,Bellaire,TX
77402,Bellaire,TX
76228,Bellevue,TX
75414,Bells,TX
77418,Bellville,TX
78604,Belmont,TX
76502,Belton,TX
76513,Belton,TX
76571,Belton,TX
78342,"Ben Bolt",TX
75415,"Ben Franklin",TX
75754,"Ben Wheeler",TX
78341,Benavides,TX
76824,Bend,TX
79505,Benjamin,TX
78107,Berclair,TX
78004,Bergheim,TX
78605,Bertram,TX
79834,"Big Bend National Park",TX
76932,"Big Lake",TX
75755,"Big Sandy",TX
75797,"Big Sandy",TX
79720,"Big Spring",TX
79721,"Big Spring",TX
78830,"Big Wells",TX
78005,Bigfoot,TX
78057,Bigfoot,TX
78343,Bishop,TX
75555,Bivins,TX
79506,Blackwell,TX
78606,Blanco,TX
76432,Blanket,TX
79314,Bledsoe,TX
78931,Bleiblerville,TX
77419,Blessing,TX
75556,Bloomburg,TX
76626,"Blooming Grove",TX
77905,Bloomington,TX
77951,Bloomington,TX
75416,Blossom,TX
75462,Blossom,TX
75424,"Blue Ridge",TX
75442,"Blue Ridge",TX
76352,Bluegrove,TX
76433,"Bluff Dale",TX
78607,Bluffton,TX
76627,Blum,TX
78006,Boerne,TX
78015,Boerne,TX
75417,Bogata,TX
77420,Boling,TX
75928,"Bon Wier",TX
75418,Bonham,TX
79005,Booker,TX
79007,Borger,TX
79008,Borger,TX
79009,Bovina,TX
76230,Bowie,TX
76023,Boyd,TX
76234,Boyd,TX
79010,"Boys Ranch",TX
78832,Brackettville,TX
76825,Brady,TX
76858,Brady,TX
76628,Brandon,TX
75420,Brashear,TX
77422,Brazoria,TX
76424,Breckenridge,TX
76629,Bremond,TX
77833,Brenham,TX
77834,Brenham,TX
77611,"Bridge City",TX
77630,"Bridge City",TX
76426,Bridgeport,TX
76431,Bridgeport,TX
78608,Briggs,TX
79011,Briscoe,TX
75929,Broaddus,TX
75930,Bronson,TX
76933,Bronte,TX
75931,Brookeland,TX
76827,Brookesmith,TX
77423,Brookshire,TX
75421,Brookston,TX
79316,Brownfield,TX
75756,Brownsboro,TX
78520,Brownsville,TX
78521,Brownsville,TX
78522,Brownsville,TX
78523,Brownsville,TX
78526,Brownsville,TX
78566,Brownsville,TX
78575,Brownsville,TX
78578,Brownsville,TX
78583,Brownsville,TX
78586,Brownsville,TX
76801,Brownwood,TX
76802,Brownwood,TX
76803,Brownwood,TX
76804,Brownwood,TX
76630,Bruceville,TX
78344,Bruni,TX
77801,Bryan,TX
77802,Bryan,TX
77803,Bryan,TX
77805,Bryan,TX
77806,Bryan,TX
77807,Bryan,TX
77808,Bryan,TX
77840,Bryan,TX
77845,Bryan,TX
76427,Bryson,TX
78607,"Buchanan Dam",TX
78609,"Buchanan Dam",TX
76518,Buckholts,TX
78610,Buda,TX
75831,Buffalo,TX
79508,"Buffalo Gap",TX
79320,Bula,TX
75703,Bullard,TX
75757,Bullard,TX
78070,Bulverde,TX
78163,Bulverde,TX
77612,Buna,TX
76305,Burkburnett,TX
76354,Burkburnett,TX
76367,Burkburnett,TX
76828,Burkett,TX
75932,Burkeville,TX
76009,Burleson,TX
76028,Burleson,TX
76031,Burleson,TX
76036,Burleson,TX
76058,Burleson,TX
76097,Burleson,TX
76519,Burlington,TX
78611,Burnet,TX
77835,Burton,TX
79012,Bushland,TX
76357,Byers,TX
76631,Bynum,TX
79013,Cactus,TX
76429,Caddo,TX
75135,"Caddo Mills",TX
75189,"Caddo Mills",TX
77836,Caldwell,TX
75933,Call,TX
78007,Calliham,TX
77837,Calvert,TX
75934,Camden,TX
76520,Cameron,TX
78833,"Camp Wood",TX
75422,Campbell,TX
78008,Campbellton,TX
79014,Canadian,TX
75103,Canton,TX
75169,Canton,TX
79835,Canutillo,TX
79932,Canutillo,TX
79015,Canyon,TX
79016,Canyon,TX
78070,"Canyon Lake",TX
78132,"Canyon Lake",TX
78133,"Canyon Lake",TX
78623,"Canyon Lake",TX
76435,Carbon,TX
76934,Carlsbad,TX
76436,Carlton,TX
78932,Carmine,TX
78834,"Carrizo Springs",TX
75001,Carrollton,TX
75006,Carrollton,TX
75007,Carrollton,TX
75010,Carrollton,TX
75011,Carrollton,TX
75019,Carrollton,TX
75056,Carrollton,TX
75067,Carrollton,TX
75093,Carrollton,TX
75633,Carthage,TX
75636,Cason,TX
76831,Castell,TX
78009,Castroville,TX
78933,"Cat Spring",TX
78836,Catarina,TX
75832,Cayuga,TX
78612,"Cedar Creek",TX
75104,"Cedar Hill",TX
75106,"Cedar Hill",TX
75115,"Cedar Hill",TX
75137,"Cedar Hill",TX
75154,"Cedar Hill",TX
76065,"Cedar Hill",TX
77415,"Cedar Lane",TX
78613,"Cedar Park",TX
78630,"Cedar Park",TX
78641,"Cedar Park",TX
78717,"Cedar Park",TX
78726,"Cedar Park",TX
78750,"Cedar Park",TX
79223,"Cee Vee",TX
75423,Celeste,TX
75009,Celina,TX
75078,Celina,TX
76258,Celina,TX
75935,Center,TX
78010,"Center Point",TX
75833,Centerville,TX
75834,Centralia,TX
75758,Chandler,TX
77015,Channelview,TX
77049,Channelview,TX
77530,Channelview,TX
79018,Channing,TX
78347,"Chapman Ranch",TX
77426,"Chappell Hill",TX
78011,Charlotte,TX
75105,Chatfield,TX
76832,Cherokee,TX
75936,Chester,TX
76431,Chico,TX
75425,Chicota,TX
79201,Childress,TX
79225,Chillicothe,TX
76632,Chilton,TX
77613,China,TX
77713,China,TX
76633,"China Spring",TX
75937,Chireno,TX
77838,Chriesman,TX
78012,Christine,TX
76935,Christoval,TX
78108,Cibolo,TX
78124,Cibolo,TX
78155,Cibolo,TX
76437,Cisco,TX
79226,Clarendon,TX
75426,Clarksville,TX
79019,Claude,TX
75637,Clayton,TX
76031,Cleburne,TX
76033,Cleburne,TX
76044,Cleburne,TX
76058,Cleburne,TX
77327,Cleveland,TX
77328,Cleveland,TX
77371,Cleveland,TX
77372,Cleveland,TX
76634,Clifton,TX
76644,Clifton,TX
79836,Clint,TX
77531,Clute,TX
77541,Clute,TX
77566,Clute,TX
79510,Clyde,TX
79511,Coahoma,TX
77331,Coldspring,TX
76834,Coleman,TX
77801,"College Station",TX
77807,"College Station",TX
77840,"College Station",TX
77841,"College Station",TX
77842,"College Station",TX
77843,"College Station",TX
77844,"College Station",TX
77845,"College Station",TX
77881,"College Station",TX
77428,Collegeport,TX
76034,Colleyville,TX
76092,Colleyville,TX
76233,Collinsville,TX
75938,Colmesneil,TX
79512,"Colorado City",TX
78934,Columbus,TX
76442,Comanche,TX
78535,Combes,TX
78550,Combes,TX
78552,Combes,TX
78013,Comfort,TX
75428,Commerce,TX
75429,Commerce,TX
75431,Como,TX
78837,Comstock,TX
78838,Concan,TX
78349,Concepcion,TX
77850,Concord,TX
77301,Conroe,TX
77302,Conroe,TX
77303,Conroe,TX
77304,Conroe,TX
77305,Conroe,TX
77316,Conroe,TX
77318,Conroe,TX
77356,Conroe,TX
77378,Conroe,TX
77384,Conroe,TX
77385,Conroe,TX
78109,Converse,TX
75558,Cookville,TX
76635,Coolidge,TX
75432,Cooper,TX
75121,Copeville,TX
75019,Coppell,TX
75063,Coppell,TX
75067,Coppell,TX
75099,Coppell,TX
76522,"Copperas Cove",TX
76539,"Copperas Cove",TX
76542,"Copperas Cove",TX
76544,"Copperas Cove",TX
76549,"Copperas Cove",TX
78347,"Corpus Christi",TX
78362,"Corpus Christi",TX
78370,"Corpus Christi",TX
78373,"Corpus Christi",TX
78380,"Corpus Christi",TX
78401,"Corpus Christi",TX
78402,"Corpus Christi",TX
78403,"Corpus Christi",TX
78404,"Corpus Christi",TX
78405,"Corpus Christi",TX
78406,"Corpus Christi",TX
78407,"Corpus Christi",TX
78408,"Corpus Christi",TX
78409,"Corpus Christi",TX
78410,"Corpus Christi",TX
78411,"Corpus Christi",TX
78412,"Corpus Christi",TX
78413,"Corpus Christi",TX
78414,"Corpus Christi",TX
78415,"Corpus Christi",TX
78416,"Corpus Christi",TX
78417,"Corpus Christi",TX
78418,"Corpus Christi",TX
78419,"Corpus Christi",TX
78426,"Corpus Christi",TX
78427,"Corpus Christi",TX
78460,"Corpus Christi",TX
78461,"Corpus Christi",TX
78463,"Corpus Christi",TX
78465,"Corpus Christi",TX
78466,"Corpus Christi",TX
78467,"Corpus Christi",TX
78468,"Corpus Christi",TX
78469,"Corpus Christi",TX
78472,"Corpus Christi",TX
78480,"Corpus Christi",TX
75939,Corrigan,TX
75109,Corsicana,TX
75110,Corsicana,TX
75151,Corsicana,TX
78614,Cost,TX
79021,"Cotton Center",TX
78014,Cotulla,TX
76574,Coupland,TX
78615,Coupland,TX
76636,Covington,TX
79730,Coyanosa,TX
75114,Crandall,TX
79731,Crane,TX
76637,"Cranfills Gap",TX
76638,Crawford,TX
76035,Cresson,TX
76049,Cresson,TX
75835,Crockett,TX
77532,Crosby,TX
79322,Crosbyton,TX
76443,"Cross Plains",TX
79227,Crowell,TX
76036,Crowley,TX
78839,"Crystal City",TX
77954,Cuero,TX
75433,Cumby,TX
75757,Cuney,TX
75759,Cuney,TX
75434,Cunningham,TX
75760,Cushing,TX
77410,Cypress,TX
78850,"D Hanis",TX
75638,Daingerfield,TX
77533,Daisetta,TX
78616,Dale,TX
79022,Dalhart,TX
77332,Dallardsville,TX
75006,Dallas,TX
75007,Dallas,TX
75019,Dallas,TX
75032,Dallas,TX
75037,Dallas,TX
75041,Dallas,TX
75043,Dallas,TX
75051,Dallas,TX
75052,Dallas,TX
75062,Dallas,TX
75063,Dallas,TX
75080,Dallas,TX
75081,Dallas,TX
75087,Dallas,TX
75088,Dallas,TX
75089,Dallas,TX
75098,Dallas,TX
75104,Dallas,TX
75115,Dallas,TX
75126,Dallas,TX
75141,Dallas,TX
75149,Dallas,TX
75150,Dallas,TX
75159,Dallas,TX
75166,Dallas,TX
75182,Dallas,TX
75201,Dallas,TX
75202,Dallas,TX
75203,Dallas,TX
75204,Dallas,TX
75205,Dallas,TX
75206,Dallas,TX
75207,Dallas,TX
75208,Dallas,TX
75209,Dallas,TX
75210,Dallas,TX
75211,Dallas,TX
75212,Dallas,TX
75214,Dallas,TX
75215,Dallas,TX
75216,Dallas,TX
75217,Dallas,TX
75218,Dallas,TX
75219,Dallas,TX
75220,Dallas,TX
75221,Dallas,TX
75222,Dallas,TX
75223,Dallas,TX
75224,Dallas,TX
75225,Dallas,TX
75226,Dallas,TX
75227,Dallas,TX
75228,Dallas,TX
75229,Dallas,TX
75230,Dallas,TX
75231,Dallas,TX
75232,Dallas,TX
75233,Dallas,TX
75234,Dallas,TX
75235,Dallas,TX
75236,Dallas,TX
75237,Dallas,TX
75238,Dallas,TX
75240,Dallas,TX
75241,Dallas,TX
75243,Dallas,TX
75244,Dallas,TX
75246,Dallas,TX
75247,Dallas,TX
75248,Dallas,TX
75249,Dallas,TX
75250,Dallas,TX
75251,Dallas,TX
75252,Dallas,TX
75253,Dallas,TX
75254,Dallas,TX
75261,Dallas,TX
75262,Dallas,TX
75263,Dallas,TX
75264,Dallas,TX
75265,Dallas,TX
75266,Dallas,TX
75267,Dallas,TX
75275,Dallas,TX
75277,Dallas,TX
75283,Dallas,TX
75284,Dallas,TX
75285,Dallas,TX
75286,Dallas,TX
75287,Dallas,TX
75301,Dallas,TX
75303,Dallas,TX
75310,Dallas,TX
75312,Dallas,TX
75313,Dallas,TX
75315,Dallas,TX
75320,Dallas,TX
75323,Dallas,TX
75326,Dallas,TX
75334,Dallas,TX
75336,Dallas,TX
75339,Dallas,TX
75340,Dallas,TX
75343,Dallas,TX
75344,Dallas,TX
75353,Dallas,TX
75354,Dallas,TX
75355,Dallas,TX
75356,Dallas,TX
75357,Dallas,TX
75359,Dallas,TX
75360,Dallas,TX
75363,Dallas,TX
75364,Dallas,TX
75367,Dallas,TX
75368,Dallas,TX
75370,Dallas,TX
75371,Dallas,TX
75372,Dallas,TX
75373,Dallas,TX
75374,Dallas,TX
75376,Dallas,TX
75378,Dallas,TX
75379,Dallas,TX
75380,Dallas,TX
75381,Dallas,TX
75382,Dallas,TX
75386,Dallas,TX
75387,Dallas,TX
75388,Dallas,TX
75389,Dallas,TX
75390,Dallas,TX
75391,Dallas,TX
75392,Dallas,TX
75393,Dallas,TX
75394,Dallas,TX
75395,Dallas,TX
75396,Dallas,TX
75397,Dallas,TX
77430,Damon,TX
77534,Danbury,TX
77431,Danciger,TX
77432,Danevang,TX
79024,Darrouzett,TX
76523,Davilla,TX
79025,Dawn,TX
76639,Dawson,TX
77535,Dayton,TX
75639,"De Berry",TX
75559,"De Kalb",TX
76444,"De Leon",TX
77852,Deanville,TX
76234,Decatur,TX
77536,"Deer Park",TX
77571,"Deer Park",TX
78840,"Del Rio",TX
78841,"Del Rio",TX
78842,"Del Rio",TX
78847,"Del Rio",TX
78617,"Del Valle",TX
79837,"Dell City",TX
78536,Delmita,TX
75020,Denison,TX
75021,Denison,TX
75076,Denison,TX
76439,Dennis,TX
76201,Denton,TX
76202,Denton,TX
76203,Denton,TX
76204,Denton,TX
76205,Denton,TX
76206,Denton,TX
76207,Denton,TX
76208,Denton,TX
76209,Denton,TX
76210,Denton,TX
76226,Denton,TX
76227,Denton,TX
76249,Denton,TX
76258,Denton,TX
76259,Denton,TX
76266,Denton,TX
79323,"Denver City",TX
75435,Deport,TX
76445,Desdemona,TX
75115,Desoto,TX
75123,Desoto,TX
75436,Detroit,TX
77538,Devers,TX
78016,Devine,TX
77614,Deweyville,TX
77632,Deweyville,TX
75640,Diana,TX
75941,Diboll,TX
79229,Dickens,TX
77510,Dickinson,TX
77539,Dickinson,TX
75437,Dike,TX
78017,Dilley,TX
77853,"Dime Box",TX
79027,Dimmitt,TX
78350,Dinero,TX
77333,Dobbin,TX
75438,"Dodd City",TX
77334,Dodge,TX
79230,Dodson,TX
75838,Donie,TX
78516,Donna,TX
78537,Donna,TX
76836,Doole,TX
78618,Doss,TX
75942,Doucette,TX
79231,Dougherty,TX
75943,Douglass,TX
75560,Douglassville,TX
78619,Driftwood,TX
78619,"Dripping Springs",TX
78620,"Dripping Springs",TX
78737,"Dripping Springs",TX
78351,Driscoll,TX
78380,Driscoll,TX
78851,Dryden,TX
76446,Dublin,TX
79029,Dumas,TX
75116,Duncanville,TX
75137,Duncanville,TX
75138,Duncanville,TX
79516,Dunn,TX
79607,"Dyess Afb",TX
77434,"Eagle Lake",TX
78852,"Eagle Pass",TX
78853,"Eagle Pass",TX
76802,Early,TX
79031,Earth,TX
77435,"East Bernard",TX
76448,Eastland,TX
75603,Easton,TX
75641,Easton,TX
78111,Ecleto,TX
75439,Ector,TX
78538,Edcouch,TX
76524,Eddy,TX
76837,Eden,TX
75117,Edgewood,TX
78539,Edinburg,TX
78540,Edinburg,TX
78541,Edinburg,TX
78542,Edinburg,TX
79032,Edmonson,TX
77957,Edna,TX
78352,Edroy,TX
78370,Edroy,TX
77436,Egypt,TX
77437,"El Campo",TX
78860,"El Indio",TX
79835,"El Paso",TX
79901,"El Paso",TX
79902,"El Paso",TX
79903,"El Paso",TX
79904,"El Paso",TX
79905,"El Paso",TX
79906,"El Paso",TX
79907,"El Paso",TX
79908,"El Paso",TX
79911,"El Paso",TX
79912,"El Paso",TX
79913,"El Paso",TX
79914,"El Paso",TX
79915,"El Paso",TX
79917,"El Paso",TX
79920,"El Paso",TX
79922,"El Paso",TX
79923,"El Paso",TX
79924,"El Paso",TX
79925,"El Paso",TX
79926,"El Paso",TX
79927,"El Paso",TX
79928,"El Paso",TX
79929,"El Paso",TX
79930,"El Paso",TX
79931,"El Paso",TX
79932,"El Paso",TX
79934,"El Paso",TX
79935,"El Paso",TX
79936,"El Paso",TX
79937,"El Paso",TX
79938,"El Paso",TX
79940,"El Paso",TX
79941,"El Paso",TX
79942,"El Paso",TX
79943,"El Paso",TX
79944,"El Paso",TX
79945,"El Paso",TX
79946,"El Paso",TX
79947,"El Paso",TX
79948,"El Paso",TX
79949,"El Paso",TX
79950,"El Paso",TX
79951,"El Paso",TX
79952,"El Paso",TX
79953,"El Paso",TX
79954,"El Paso",TX
79955,"El Paso",TX
79958,"El Paso",TX
79960,"El Paso",TX
79961,"El Paso",TX
79968,"El Paso",TX
79976,"El Paso",TX
79978,"El Paso",TX
79980,"El Paso",TX
79990,"El Paso",TX
79995,"El Paso",TX
79996,"El Paso",TX
79997,"El Paso",TX
79998,"El Paso",TX
79999,"El Paso",TX
88510,"El Paso",TX
88511,"El Paso",TX
88512,"El Paso",TX
88513,"El Paso",TX
88514,"El Paso",TX
88515,"El Paso",TX
88516,"El Paso",TX
88517,"El Paso",TX
88518,"El Paso",TX
88519,"El Paso",TX
88520,"El Paso",TX
88521,"El Paso",TX
88523,"El Paso",TX
88524,"El Paso",TX
88525,"El Paso",TX
88526,"El Paso",TX
88527,"El Paso",TX
88528,"El Paso",TX
88529,"El Paso",TX
88530,"El Paso",TX
88531,"El Paso",TX
88532,"El Paso",TX
88533,"El Paso",TX
88534,"El Paso",TX
88535,"El Paso",TX
88536,"El Paso",TX
88538,"El Paso",TX
88539,"El Paso",TX
88540,"El Paso",TX
88541,"El Paso",TX
88542,"El Paso",TX
88543,"El Paso",TX
88544,"El Paso",TX
88545,"El Paso",TX
88546,"El Paso",TX
88547,"El Paso",TX
88548,"El Paso",TX
88549,"El Paso",TX
88550,"El Paso",TX
88553,"El Paso",TX
88554,"El Paso",TX
88555,"El Paso",TX
88556,"El Paso",TX
88557,"El Paso",TX
88558,"El Paso",TX
88559,"El Paso",TX
88560,"El Paso",TX
88561,"El Paso",TX
88562,"El Paso",TX
88563,"El Paso",TX
88565,"El Paso",TX
88566,"El Paso",TX
88567,"El Paso",TX
88568,"El Paso",TX
88569,"El Paso",TX
88570,"El Paso",TX
88571,"El Paso",TX
88572,"El Paso",TX
88573,"El Paso",TX
88574,"El Paso",TX
88575,"El Paso",TX
88576,"El Paso",TX
88577,"El Paso",TX
88578,"El Paso",TX
88579,"El Paso",TX
88580,"El Paso",TX
88581,"El Paso",TX
88582,"El Paso",TX
88583,"El Paso",TX
88584,"El Paso",TX
88585,"El Paso",TX
88586,"El Paso",TX
88587,"El Paso",TX
88588,"El Paso",TX
88589,"El Paso",TX
88590,"El Paso",TX
88595,"El Paso",TX
76936,Eldorado,TX
76360,Electra,TX
78621,Elgin,TX
75839,Elkhart,TX
78938,Ellinger,TX
76640,"Elm Mott",TX
77440,Elmaton,TX
78112,Elmendorf,TX
78223,Elmendorf,TX
75118,Elmo,TX
75161,Elmo,TX
78543,Elsa,TX
75642,"Elysian Fields",TX
75440,Emory,TX
78019,Encinal,TX
78353,Encino,TX
76452,Energy,TX
75441,Enloe,TX
75119,Ennis,TX
75120,Ennis,TX
75152,Ennis,TX
75165,Ennis,TX
79324,Enochs,TX
76937,Eola,TX
76238,Era,TX
79233,Estelline,TX
75944,Etoile,TX
76039,Euless,TX
76040,Euless,TX
76051,Euless,TX
75124,Eustace,TX
77612,Evadale,TX
77615,Evadale,TX
76525,Evant,TX
79838,Fabens,TX
75840,Fairfield,TX
78545,"Falcon Heights",TX
78355,Falfurrias,TX
78113,"Falls City",TX
77960,Fannin,TX
75442,Farmersville,TX
79033,Farnsworth,TX
79325,Farwell,TX
75032,Fate,TX
75087,Fate,TX
75132,Fate,TX
75189,Fate,TX
78940,Fayetteville,TX
78622,Fentress,TX
75125,Ferris,TX
75146,Ferris,TX
79326,Fieldton,TX
78623,Fischer,TX
76526,Flat,TX
78941,Flatonia,TX
75762,Flint,TX
79234,Flomot,TX
76527,Florence,TX
78114,Floresville,TX
75022,"Flower Mound",TX
75027,"Flower Mound",TX
75028,"Flower Mound",TX
75077,"Flower Mound",TX
76051,"Flower Mound",TX
76226,"Flower Mound",TX
76262,"Flower Mound",TX
79235,Floydada,TX
79517,Fluvanna,TX
77855,Flynn,TX
79034,Follett,TX
76239,Forestburg,TX
75126,Forney,TX
76041,Forreston,TX
79733,Forsan,TX
79734,"Fort Davis",TX
79839,"Fort Hancock",TX
76841,"Fort Mc Kavett",TX
79735,"Fort Stockton",TX
76006,"Fort Worth",TX
76008,"Fort Worth",TX
76012,"Fort Worth",TX
76013,"Fort Worth",TX
76028,"Fort Worth",TX
76036,"Fort Worth",TX
76039,"Fort Worth",TX
76040,"Fort Worth",TX
76051,"Fort Worth",TX
76052,"Fort Worth",TX
76053,"Fort Worth",TX
76060,"Fort Worth",TX
76101,"Fort Worth",TX
76102,"Fort Worth",TX
76103,"Fort Worth",TX
76104,"Fort Worth",TX
76105,"Fort Worth",TX
76106,"Fort Worth",TX
76107,"Fort Worth",TX
76108,"Fort Worth",TX
76109,"Fort Worth",TX
76110,"Fort Worth",TX
76111,"Fort Worth",TX
76112,"Fort Worth",TX
76113,"Fort Worth",TX
76114,"Fort Worth",TX
76115,"Fort Worth",TX
76116,"Fort Worth",TX
76117,"Fort Worth",TX
76118,"Fort Worth",TX
76119,"Fort Worth",TX
76120,"Fort Worth",TX
76121,"Fort Worth",TX
76122,"Fort Worth",TX
76123,"Fort Worth",TX
76124,"Fort Worth",TX
76126,"Fort Worth",TX
76127,"Fort Worth",TX
76129,"Fort Worth",TX
76130,"Fort Worth",TX
76131,"Fort Worth",TX
76132,"Fort Worth",TX
76133,"Fort Worth",TX
76134,"Fort Worth",TX
76135,"Fort Worth",TX
76136,"Fort Worth",TX
76137,"Fort Worth",TX
76140,"Fort Worth",TX
76147,"Fort Worth",TX
76155,"Fort Worth",TX
76161,"Fort Worth",TX
76162,"Fort Worth",TX
76163,"Fort Worth",TX
76164,"Fort Worth",TX
76166,"Fort Worth",TX
76177,"Fort Worth",TX
76179,"Fort Worth",TX
76181,"Fort Worth",TX
76185,"Fort Worth",TX
76191,"Fort Worth",TX
76192,"Fort Worth",TX
76193,"Fort Worth",TX
76195,"Fort Worth",TX
76196,"Fort Worth",TX
76197,"Fort Worth",TX
76198,"Fort Worth",TX
76199,"Fort Worth",TX
76244,"Fort Worth",TX
76247,"Fort Worth",TX
76262,"Fort Worth",TX
78021,Fowlerton,TX
77961,Francitas,TX
77856,Franklin,TX
75763,Frankston,TX
77616,Fred,TX
78624,Fredericksburg,TX
76842,Fredonia,TX
77541,Freeport,TX
77542,Freeport,TX
78357,Freer,TX
77545,Fresno,TX
77583,Fresno,TX
77089,Friendswood,TX
77546,Friendswood,TX
77549,Friendswood,TX
77573,Friendswood,TX
77598,Friendswood,TX
79035,Friona,TX
75024,Frisco,TX
75034,Frisco,TX
75035,Frisco,TX
75068,Frisco,TX
75070,Frisco,TX
75071,Frisco,TX
75078,Frisco,TX
79036,Fritch,TX
76641,Frost,TX
75127,Fruitvale,TX
77406,Fulshear,TX
77441,Fulshear,TX
77494,Fulshear,TX
78358,Fulton,TX
78382,Fulton,TX
79738,Gail,TX
76240,Gainesville,TX
76241,Gainesville,TX
76250,Gainesville,TX
77015,"Galena Park",TX
77029,"Galena Park",TX
77547,"Galena Park",TX
75764,Gallatin,TX
75766,Gallatin,TX
75785,Gallatin,TX
77550,Galveston,TX
77551,Galveston,TX
77552,Galveston,TX
77553,Galveston,TX
77554,Galveston,TX
77555,Galveston,TX
77962,Ganado,TX
78582,Garciasville,TX
79739,"Garden City",TX
79758,Gardendale,TX
75040,Garland,TX
75041,Garland,TX
75042,Garland,TX
75043,Garland,TX
75044,Garland,TX
75045,Garland,TX
75046,Garland,TX
75047,Garland,TX
75048,Garland,TX
75049,Garland,TX
75098,Garland,TX
75150,Garland,TX
75228,Garland,TX
75946,Garrison,TX
77442,Garwood,TX
75643,Gary,TX
76528,Gatesville,TX
76596,Gatesville,TX
76597,Gatesville,TX
76598,Gatesville,TX
76599,Gatesville,TX
77857,Gause,TX
78022,"George West",TX
78626,Georgetown,TX
78627,Georgetown,TX
78628,Georgetown,TX
78633,Georgetown,TX
78115,Geronimo,TX
78155,Geronimo,TX
78942,Giddings,TX
77617,Gilchrist,TX
78111,Gillett,TX
75644,Gilmer,TX
75645,Gilmer,TX
79518,Girard,TX
79740,Girvin,TX
75647,Gladewater,TX
77443,"Glen Flora",TX
76043,"Glen Rose",TX
76077,"Glen Rose",TX
78934,Glidden,TX
78943,Glidden,TX
75443,Gober,TX
76044,Godley,TX
75444,Golden,TX
79519,Goldsboro,TX
79741,Goldsmith,TX
76844,Goldthwaite,TX
77963,Goliad,TX
78629,Gonzales,TX
76908,"Goodfellow Afb",TX
77335,Goodrich,TX
76453,Gordon,TX
76245,Gordonville,TX
76363,Goree,TX
76454,Gorman,TX
76845,Gouldbusk,TX
76449,Graford,TX
76450,Graham,TX
76048,Granbury,TX
76049,Granbury,TX
75050,"Grand Prairie",TX
75051,"Grand Prairie",TX
75052,"Grand Prairie",TX
75053,"Grand Prairie",TX
75054,"Grand Prairie",TX
75060,"Grand Prairie",TX
75104,"Grand Prairie",TX
76006,"Grand Prairie",TX
76010,"Grand Prairie",TX
76063,"Grand Prairie",TX
76065,"Grand Prairie",TX
76084,"Grand Prairie",TX
75140,"Grand Saline",TX
79742,Grandfalls,TX
76050,Grandview,TX
76530,Granger,TX
75844,Grapeland,TX
75019,Grapevine,TX
75022,Grapevine,TX
75067,Grapevine,TX
76051,Grapevine,TX
76092,Grapevine,TX
76099,Grapevine,TX
75401,Greenville,TX
75402,Greenville,TX
75403,Greenville,TX
75404,Greenville,TX
76246,Greenwood,TX
78359,Gregory,TX
78374,Gregory,TX
76642,Groesbeck,TX
79039,Groom,TX
77619,Groves,TX
75845,Groveton,TX
78548,Grulla,TX
79040,Gruver,TX
78361,Guerra,TX
75058,Gunter,TX
75459,Gunter,TX
76233,Gunter,TX
76271,Gunter,TX
76455,Gustine,TX
79236,Guthrie,TX
77444,Guy,TX
79041,"Hale Center",TX
77964,Hallettsville,TX
75650,Hallsville,TX
76111,"Haltom City",TX
76117,"Haltom City",TX
76118,"Haltom City",TX
76137,"Haltom City",TX
76148,"Haltom City",TX
76180,"Haltom City",TX
76531,Hamilton,TX
79520,Hamlin,TX
77622,Hamshire,TX
77560,Hankamer,TX
79042,Happy,TX
77561,Hardin,TX
77575,Hardin,TX
78549,Hargill,TX
76513,"Harker Heights",TX
76542,"Harker Heights",TX
76548,"Harker Heights",TX
75651,Harleton,TX
78550,Harlingen,TX
78551,Harlingen,TX
78552,Harlingen,TX
78553,Harlingen,TX
78586,Harlingen,TX
78631,Harper,TX
76364,Harrold,TX
79043,Hart,TX
79044,Hartley,TX
78632,Harwood,TX
79521,Haskell,TX
76052,Haslet,TX
76177,Haslet,TX
75765,Hawkins,TX
79525,Hawley,TX
77859,Hearne,TX
78361,Hebbronville,TX
79237,Hedley,TX
76533,Heidenheimer,TX
78023,Helotes,TX
75948,Hemphill,TX
77445,Hempstead,TX
75652,Henderson,TX
75653,Henderson,TX
75654,Henderson,TX
76365,Henrietta,TX
79045,Hereford,TX
79526,Hermleigh,TX
76643,Hewitt,TX
76655,Hewitt,TX
76712,Hewitt,TX
76848,Hext,TX
76457,Hico,TX
78557,Hidalgo,TX
79046,Higgins,TX
77623,"High Island",TX
77562,Highlands,TX
77624,Hillister,TX
76645,Hillsboro,TX
77510,Hitchcock,TX
77517,Hitchcock,TX
77563,Hitchcock,TX
77568,Hitchcock,TX
78117,Hobson,TX
77967,Hochheim,TX
77447,Hockley,TX
76534,Holland,TX
76366,Holliday,TX
78861,Hondo,TX
75446,"Honey Grove",TX
75561,Hooks,TX
77001,Houston,TX
77002,Houston,TX
77003,Houston,TX
77004,Houston,TX
77005,Houston,TX
77006,Houston,TX
77007,Houston,TX
77008,Houston,TX
77009,Houston,TX
77010,Houston,TX
77011,Houston,TX
77012,Houston,TX
77013,Houston,TX
77014,Houston,TX
77015,Houston,TX
77016,Houston,TX
77017,Houston,TX
77018,Houston,TX
77019,Houston,TX
77020,Houston,TX
77021,Houston,TX
77022,Houston,TX
77023,Houston,TX
77024,Houston,TX
77025,Houston,TX
77026,Houston,TX
77027,Houston,TX
77028,Houston,TX
77029,Houston,TX
77030,Houston,TX
77031,Houston,TX
77032,Houston,TX
77033,Houston,TX
77034,Houston,TX
77035,Houston,TX
77036,Houston,TX
77037,Houston,TX
77038,Houston,TX
77039,Houston,TX
77040,Houston,TX
77041,Houston,TX
77042,Houston,TX
77043,Houston,TX
77044,Houston,TX
77045,Houston,TX
77046,Houston,TX
77047,Houston,TX
77048,Houston,TX
77049,Houston,TX
77050,Houston,TX
77051,Houston,TX
77052,Houston,TX
77053,Houston,TX
77054,Houston,TX
77055,Houston,TX
77056,Houston,TX
77057,Houston,TX
77058,Houston,TX
77059,Houston,TX
77060,Houston,TX
77061,Houston,TX
77062,Houston,TX
77063,Houston,TX
77064,Houston,TX
77065,Houston,TX
77066,Houston,TX
77067,Houston,TX
77068,Houston,TX
77069,Houston,TX
77070,Houston,TX
77071,Houston,TX
77072,Houston,TX
77073,Houston,TX
77074,Houston,TX
77075,Houston,TX
77076,Houston,TX
77077,Houston,TX
77078,Houston,TX
77079,Houston,TX
77080,Houston,TX
77081,Houston,TX
77082,Houston,TX
77083,Houston,TX
77084,Houston,TX
77085,Houston,TX
77086,Houston,TX
77087,Houston,TX
77088,Houston,TX
77089,Houston,TX
77090,Houston,TX
77091,Houston,TX
77092,Houston,TX
77093,Houston,TX
77094,Houston,TX
77095,Houston,TX
77096,Houston,TX
77098,Houston,TX
77099,Houston,TX
77201,Houston,TX
77202,Houston,TX
77203,Houston,TX
77204,Houston,TX
77205,Houston,TX
77206,Houston,TX
77207,Houston,TX
77208,Houston,TX
77209,Houston,TX
77210,Houston,TX
77212,Houston,TX
77213,Houston,TX
77215,Houston,TX
77216,Houston,TX
77217,Houston,TX
77218,Houston,TX
77219,Houston,TX
77220,Houston,TX
77221,Houston,TX
77222,Houston,TX
77223,Houston,TX
77224,Houston,TX
77225,Houston,TX
77226,Houston,TX
77227,Houston,TX
77228,Houston,TX
77229,Houston,TX
77230,Houston,TX
77231,Houston,TX
77233,Houston,TX
77234,Houston,TX
77235,Houston,TX
77236,Houston,TX
77237,Houston,TX
77238,Houston,TX
77240,Houston,TX
77241,Houston,TX
77242,Houston,TX
77243,Houston,TX
77244,Houston,TX
77245,Houston,TX
77246,Houston,TX
77247,Houston,TX
77248,Houston,TX
77249,Houston,TX
77250,Houston,TX
77251,Houston,TX
77252,Houston,TX
77253,Houston,TX
77254,Houston,TX
77255,Houston,TX
77256,Houston,TX
77257,Houston,TX
77258,Houston,TX
77259,Houston,TX
77261,Houston,TX
77262,Houston,TX
77263,Houston,TX
77265,Houston,TX
77266,Houston,TX
77267,Houston,TX
77268,Houston,TX
77269,Houston,TX
77270,Houston,TX
77271,Houston,TX
77272,Houston,TX
77273,Houston,TX
77274,Houston,TX
77275,Houston,TX
77276,Houston,TX
77277,Houston,TX
77279,Houston,TX
77280,Houston,TX
77282,Houston,TX
77284,Houston,TX
77285,Houston,TX
77286,Houston,TX
77287,Houston,TX
77288,Houston,TX
77289,Houston,TX
77290,Houston,TX
77291,Houston,TX
77292,Houston,TX
77293,Houston,TX
77294,Houston,TX
77296,Houston,TX
77297,Houston,TX
77298,Houston,TX
77299,Houston,TX
77336,Houston,TX
77338,Houston,TX
77339,Houston,TX
77345,Houston,TX
77346,Houston,TX
77357,Houston,TX
77365,Houston,TX
77373,Houston,TX
77375,Houston,TX
77377,Houston,TX
77379,Houston,TX
77380,Houston,TX
77386,Houston,TX
77388,Houston,TX
77389,Houston,TX
77396,Houston,TX
77401,Houston,TX
77406,Houston,TX
77407,Houston,TX
77410,Houston,TX
77411,Houston,TX
77413,Houston,TX
77429,Houston,TX
77433,Houston,TX
77449,Houston,TX
77450,Houston,TX
77477,Houston,TX
77489,Houston,TX
77493,Houston,TX
77494,Houston,TX
77498,Houston,TX
77503,Houston,TX
77504,Houston,TX
77506,Houston,TX
77520,Houston,TX
77530,Houston,TX
77532,Houston,TX
77536,Houston,TX
77545,Houston,TX
77546,Houston,TX
77547,Houston,TX
77571,Houston,TX
77598,Houston,TX
75090,Howe,TX
75092,Howe,TX
75459,Howe,TX
76648,Hubbard,TX
77336,Huffman,TX
77337,Hufsmith,TX
75656,"Hughes Springs",TX
77564,Hull,TX
77325,Humble,TX
77338,Humble,TX
77347,Humble,TX
77396,Humble,TX
77448,Hungerford,TX
78024,Hunt,TX
75949,Huntington,TX
77320,Huntsville,TX
77340,Huntsville,TX
77341,Huntsville,TX
77342,Huntsville,TX
77343,Huntsville,TX
77344,Huntsville,TX
77348,Huntsville,TX
77349,Huntsville,TX
76053,Hurst,TX
76054,Hurst,TX
76180,Hurst,TX
75134,Hutchins,TX
75141,Hutchins,TX
75172,Hutchins,TX
75241,Hutchins,TX
78634,Hutto,TX
78635,Hye,TX
79329,Idalou,TX
79743,Imperial,TX
78944,Industry,TX
77968,Inez,TX
78336,Ingleside,TX
78362,Ingleside,TX
78374,Ingleside,TX
78025,Ingram,TX
77861,Iola,TX
76367,"Iowa Park",TX
79527,Ira,TX
79744,Iraan,TX
76649,Iredell,TX
76650,Irene,TX
75014,Irving,TX
75015,Irving,TX
75016,Irving,TX
75017,Irving,TX
75038,Irving,TX
75039,Irving,TX
75050,Irving,TX
75060,Irving,TX
75061,Irving,TX
75062,Irving,TX
75063,Irving,TX
75234,Irving,TX
76651,Italy,TX
76055,Itasca,TX
75979,Ivanhoe,TX
76458,Jacksboro,TX
75766,Jacksonville,TX
76537,Jarrell,TX
78626,Jarrell,TX
78633,Jarrell,TX
75951,Jasper,TX
79528,Jayton,TX
75657,Jefferson,TX
76459,Jermyn,TX
75846,Jewett,TX
75954,Joaquin,TX
78636,"Johnson City",TX
75658,Joinerville,TX
76538,Jonesboro,TX
75659,Jonesville,TX
75135,Josephine,TX
75164,Josephine,TX
75173,Josephine,TX
75189,Josephine,TX
76058,Joshua,TX
78026,Jourdanton,TX
75660,Judson,TX
76849,Junction,TX
79330,Justiceburg,TX
76247,Justin,TX
76369,Kamay,TX
75661,Karnack,TX
78118,"Karnes City",TX
77491,Katy,TX
77492,Katy,TX
77493,Katy,TX
77494,Katy,TX
75142,Kaufman,TX
75160,Kaufman,TX
76009,Keene,TX
76031,Keene,TX
76059,Keene,TX
76248,Keller,TX
76262,Keller,TX
77565,Kemah,TX
75143,Kemp,TX
76522,Kempner,TX
76539,Kempner,TX
78027,Kendalia,TX
77417,Kendleton,TX
77451,Kendleton,TX
78119,Kenedy,TX
75847,Kennard,TX
76017,Kennedale,TX
76060,Kennedale,TX
76140,Kennedale,TX
77452,Kenney,TX
75144,Kerens,TX
79745,Kermit,TX
79051,Kerrick,TX
78028,Kerrville,TX
78029,Kerrville,TX
75562,Kildare,TX
75662,Kilgore,TX
75663,Kilgore,TX
76540,Killeen,TX
76541,Killeen,TX
76542,Killeen,TX
76543,Killeen,TX
76544,Killeen,TX
76545,Killeen,TX
76546,Killeen,TX
76547,Killeen,TX
76549,Killeen,TX
76571,Killeen,TX
78155,Kingsbury,TX
78638,Kingsbury,TX
78639,Kingsland,TX
78363,Kingsville,TX
78364,Kingsville,TX
75956,Kirbyville,TX
75848,Kirvin,TX
75859,Kirvin,TX
76693,Kirvin,TX
75448,Klondike,TX
76939,Knickerbocker,TX
78870,Knippa,TX
79748,Knott,TX
79529,"Knox City",TX
76652,Kopperl,TX
76653,Kosse,TX
77625,Kountze,TX
79052,Kress,TX
76249,Krum,TX
77808,Kurten,TX
77862,Kurten,TX
78610,Kyle,TX
78640,Kyle,TX
78538,"La Blanca",TX
78542,"La Blanca",TX
78543,"La Blanca",TX
78558,"La Blanca",TX
78039,"La Coste",TX
78559,"La Feria",TX
78945,"La Grange",TX
78560,"La Joya",TX
78576,"La Joya",TX
77510,"La Marque",TX
77563,"La Marque",TX
77568,"La Marque",TX
77505,"La Porte",TX
77507,"La Porte",TX
77571,"La Porte",TX
77572,"La Porte",TX
78872,"La Pryor",TX
77969,"La Salle",TX
78121,"La Vernia",TX
78562,"La Villa",TX
77970,"La Ward",TX
75449,Ladonia,TX
76634,"Laguna Park",TX
75666,"Laird Hill",TX
75450,"Lake Creek",TX
75065,"Lake Dallas",TX
77515,"Lake Jackson",TX
77531,"Lake Jackson",TX
77566,"Lake Jackson",TX
79239,Lakeview,TX
79331,Lamesa,TX
76550,Lampasas,TX
75134,Lancaster,TX
75146,Lancaster,TX
75241,Lancaster,TX
77453,"Lane City",TX
75667,Laneville,TX
78871,Langtry,TX
78040,Laredo,TX
78041,Laredo,TX
78042,Laredo,TX
78043,Laredo,TX
78044,Laredo,TX
78045,Laredo,TX
78046,Laredo,TX
78049,Laredo,TX
75770,Larue,TX
78561,Lasara,TX
78580,Lasara,TX
75835,Latexo,TX
75849,Latexo,TX
78840,"Laughlin A F B",TX
75166,Lavon,TX
79530,Lawn,TX
79053,Lazbuddie,TX
77511,"League City",TX
77517,"League City",TX
77539,"League City",TX
77546,"League City",TX
77565,"League City",TX
77573,"League City",TX
77574,"League City",TX
77598,"League City",TX
78873,Leakey,TX
78628,Leander,TX
78641,Leander,TX
78646,Leander,TX
78681,Leander,TX
78946,Ledbetter,TX
75451,Leesburg,TX
78122,Leesville,TX
79054,Lefors,TX
77350,Leggett,TX
79240,"Lelia Lake",TX
78050,Leming,TX
78064,Leming,TX
79749,Lenorah,TX
75850,Leona,TX
75452,Leonard,TX
76640,Leroy,TX
76654,Leroy,TX
76691,Leroy,TX
79336,Levelland,TX
79338,Levelland,TX
75010,Lewisville,TX
75019,Lewisville,TX
75029,Lewisville,TX
75056,Lewisville,TX
75057,Lewisville,TX
75065,Lewisville,TX
75067,Lewisville,TX
75077,Lewisville,TX
78947,Lexington,TX
77535,Liberty,TX
77575,Liberty,TX
78642,"Liberty Hill",TX
76061,Lillian,TX
78948,Lincoln,TX
75706,Lindale,TX
75771,Lindale,TX
75563,Linden,TX
76240,Lindsay,TX
76250,Lindsay,TX
79772,Lindsay,TX
76446,Lingleville,TX
78541,Linn,TX
78542,Linn,TX
78563,Linn,TX
76462,Lipan,TX
79056,Lipscomb,TX
77454,Lissie,TX
75034,"Little Elm",TX
75068,"Little Elm",TX
76227,"Little Elm",TX
76554,"Little River Academy",TX
79339,Littlefield,TX
77511,Liverpool,TX
77577,Liverpool,TX
77351,Livingston,TX
77399,Livingston,TX
78643,Llano,TX
78644,Lockhart,TX
79241,Lockney,TX
75564,Lodi,TX
76852,Lohn,TX
77971,Lolita,TX
76853,Lometa,TX
76854,London,TX
75453,"Lone Oak",TX
75668,"Lone Star",TX
75669,"Long Branch",TX
75601,Longview,TX
75602,Longview,TX
75603,Longview,TX
75604,Longview,TX
75605,Longview,TX
75606,Longview,TX
75607,Longview,TX
75608,Longview,TX
75615,Longview,TX
75693,Longview,TX
79342,Loop,TX
78564,Lopeno,TX
79532,Loraine,TX
76630,Lorena,TX
76655,Lorena,TX
79343,Lorenzo,TX
78565,"Los Ebanos",TX
78582,"Los Ebanos",TX
78043,"Los Fresnos",TX
78566,"Los Fresnos",TX
78567,"Los Indios",TX
78586,"Los Indios",TX
76656,Lott,TX
77455,Louise,TX
75851,Lovelady,TX
76460,Loving,TX
76855,Lowake,TX
78586,Lozano,TX
79401,Lubbock,TX
79403,Lubbock,TX
79404,Lubbock,TX
79406,Lubbock,TX
79407,Lubbock,TX
79408,Lubbock,TX
79410,Lubbock,TX
79411,Lubbock,TX
79412,Lubbock,TX
79413,Lubbock,TX
79414,Lubbock,TX
79415,Lubbock,TX
79416,Lubbock,TX
79423,Lubbock,TX
79424,Lubbock,TX
79430,Lubbock,TX
79452,Lubbock,TX
79453,Lubbock,TX
79457,Lubbock,TX
79464,Lubbock,TX
79490,Lubbock,TX
79491,Lubbock,TX
79493,Lubbock,TX
79499,Lubbock,TX
79533,Lueders,TX
75901,Lufkin,TX
75902,Lufkin,TX
75903,Lufkin,TX
75904,Lufkin,TX
75915,Lufkin,TX
78648,Luling,TX
77625,Lumberton,TX
77657,Lumberton,TX
78569,Lyford,TX
77863,Lyons,TX
78052,Lytle,TX
75124,Mabank,TX
75143,Mabank,TX
75147,Mabank,TX
75156,Mabank,TX
78002,Macdona,TX
77864,Madisonville,TX
77353,Magnolia,TX
77354,Magnolia,TX
77355,Magnolia,TX
75148,Malakoff,TX
76660,Malone,TX
78652,Manchaca,TX
78748,Manchaca,TX
78653,Manor,TX
75104,Mansfield,TX
76001,Mansfield,TX
76063,Mansfield,TX
76065,Mansfield,TX
76084,Mansfield,TX
77511,Manvel,TX
77578,Manvel,TX
77583,Manvel,TX
77584,Manvel,TX
79344,Maple,TX
79842,Marathon,TX
78654,"Marble Falls",TX
78657,"Marble Falls",TX
79843,Marfa,TX
75566,Marietta,TX
78124,Marion,TX
77456,Markham,TX
76661,Marlin,TX
77865,Marquez,TX
75670,Marshall,TX
75671,Marshall,TX
75672,Marshall,TX
76664,Mart,TX
78655,Martindale,TX
75958,Martinsville,TX
79535,Maryneal,TX
76856,Mason,TX
79018,Masterson,TX
79244,Matador,TX
77457,Matagorda,TX
78368,Mathis,TX
75567,Maud,TX
77626,Mauriceville,TX
77632,Mauriceville,TX
78656,Maxwell,TX
76857,May,TX
75772,Maydelle,TX
75167,Maypearl,TX
76064,Maypearl,TX
79740,"Mc Camey",TX
79534,"Mc Caulley",TX
78650,"Mc Dade",TX
76657,"Mc Gregor",TX
75069,"Mc Kinney",TX
75565,"Mc Leod",TX
78651,"Mc Neil",TX
78123,"Mc Queeney",TX
79243,Mcadoo,TX
78501,Mcallen,TX
78502,Mcallen,TX
78503,Mcallen,TX
78504,Mcallen,TX
78505,Mcallen,TX
78539,Mcallen,TX
78541,Mcallen,TX
78557,Mcallen,TX
78572,Mcallen,TX
78573,Mcallen,TX
77973,Mcfaddin,TX
79057,Mclean,TX
79345,Meadow,TX
78076,Medina,TX
76370,Megargel,TX
75071,Melissa,TX
75409,Melissa,TX
75454,Melissa,TX
76825,Melvin,TX
76858,Melvin,TX
79245,Memphis,TX
76859,Menard,TX
79754,Mentone,TX
78570,Mercedes,TX
78596,Mercedes,TX
76940,Mereta,TX
76665,Meridian,TX
75458,Merit,TX
79536,Merkel,TX
76666,Mertens,TX
76941,Mertzon,TX
75126,Mesquite,TX
75149,Mesquite,TX
75150,Mesquite,TX
75181,Mesquite,TX
75182,Mesquite,TX
75185,Mesquite,TX
75187,Mesquite,TX
75228,Mesquite,TX
75253,Mesquite,TX
78584,Mesquite,TX
76667,Mexia,TX
77974,Meyersville,TX
79059,Miami,TX
78056,Mico,TX
77458,Midfield,TX
79755,Midkiff,TX
79701,Midland,TX
79702,Midland,TX
79703,Midland,TX
79704,Midland,TX
79705,Midland,TX
79706,Midland,TX
79707,Midland,TX
79708,Midland,TX
79710,Midland,TX
79711,Midland,TX
79712,Midland,TX
79765,Midland,TX
79782,Midland,TX
76065,Midlothian,TX
76084,Midlothian,TX
75852,Midway,TX
75948,Milam,TX
75959,Milam,TX
76556,Milano,TX
76861,Miles,TX
76670,Milford,TX
76862,Millersview,TX
77845,Millican,TX
77866,Millican,TX
77868,Millican,TX
76066,Millsap,TX
75680,Minden,TX
75773,Mineola,TX
78125,Mineral,TX
76067,"Mineral Wells",TX
76068,"Mineral Wells",TX
76088,"Mineral Wells",TX
76463,Mingus,TX
78369,"Mirando City",TX
78572,Mission,TX
78573,Mission,TX
78574,Mission,TX
77071,"Missouri City",TX
77459,"Missouri City",TX
77469,"Missouri City",TX
77477,"Missouri City",TX
77479,"Missouri City",TX
77489,"Missouri City",TX
77545,"Missouri City",TX
77583,"Missouri City",TX
79061,Mobeetie,TX
79756,Monahans,TX
79777,Monahans,TX
77523,"Mont Belvieu",TX
77535,"Mont Belvieu",TX
77580,"Mont Belvieu",TX
76251,Montague,TX
75853,Montalba,TX
77316,Montgomery,TX
77333,Montgomery,TX
77356,Montgomery,TX
76557,Moody,TX
78057,Moore,TX
76464,Moran,TX
76671,Morgan,TX
76465,"Morgan Mill",TX
79062,Morse,TX
79346,Morton,TX
75960,Moscow,TX
77975,Moulton,TX
76558,Mound,TX
76673,"Mount Calm",TX
75681,"Mount Enterprise",TX
75455,"Mount Pleasant",TX
75456,"Mount Pleasant",TX
75457,"Mount Vernon",TX
78058,"Mountain Home",TX
76252,Muenster,TX
78949,Muldoon,TX
79347,Muleshoe,TX
76864,Mullin,TX
77867,Mumford,TX
76371,Munday,TX
75778,Murchison,TX
76253,Myra,TX
75961,Nacogdoches,TX
75962,Nacogdoches,TX
75963,Nacogdoches,TX
75964,Nacogdoches,TX
75965,Nacogdoches,TX
77460,Nada,TX
75568,Naples,TX
75571,Naples,TX
75501,Nash,TX
75569,Nash,TX
78059,Natalia,TX
76127,"Naval Air Station/ Jrb",TX
77868,Navasota,TX
77869,Navasota,TX
79063,Nazareth,TX
75779,Neches,TX
77627,Nederland,TX
77651,Nederland,TX
77705,Nederland,TX
77461,Needville,TX
76070,Nemo,TX
75173,Nevada,TX
77870,"New Baden",TX
75570,"New Boston",TX
78130,"New Braunfels",TX
78131,"New Braunfels",TX
78132,"New Braunfels",TX
78135,"New Braunfels",TX
77357,"New Caney",TX
79350,"New Deal",TX
79403,"New Deal",TX
79415,"New Deal",TX
79381,"New Home",TX
79383,"New Home",TX
75682,"New London",TX
75684,"New London",TX
75766,"New Summerfield",TX
75780,"New Summerfield",TX
75789,"New Summerfield",TX
78950,"New Ulm",TX
77358,"New Waverly",TX
76071,Newark,TX
76372,Newcastle,TX
75966,Newton,TX
78140,Nixon,TX
76255,Nocona,TX
79537,Nolan,TX
76513,Nolanville,TX
76559,Nolanville,TX
77613,Nome,TX
77629,Nome,TX
78141,Nordheim,TX
77871,Normangee,TX
78104,Normanna,TX
78142,Normanna,TX
77315,"North Houston",TX
76053,"North Richland Hills",TX
76117,"North Richland Hills",TX
76180,"North Richland Hills",TX
76182,"North Richland Hills",TX
77872,"North Zulch",TX
76865,Norton,TX
79759,Notrees,TX
79538,Novice,TX
77976,Nursery,TX
79539,"O Brien",TX
77359,Oakhurst,TX
78951,Oakland,TX
78060,Oakville,TX
75855,Oakwood,TX
79247,Odell,TX
78370,Odem,TX
79706,Odessa,TX
79707,Odessa,TX
79758,Odessa,TX
79760,Odessa,TX
79761,Odessa,TX
79762,Odessa,TX
79763,Odessa,TX
79764,Odessa,TX
79765,Odessa,TX
79766,Odessa,TX
79768,Odessa,TX
79769,Odessa,TX
79351,Odonnell,TX
76561,Oglesby,TX
78371,Oilton,TX
76373,Oklaunion,TX
79540,"Old Glory",TX
77463,"Old Ocean",TX
76466,Olden,TX
78575,Olmito,TX
76374,Olney,TX
79064,Olton,TX
75571,Omaha,TX
77360,Onalaska,TX
77630,Orange,TX
77631,Orange,TX
77632,Orange,TX
78372,"Orange Grove",TX
77639,Orangefield,TX
77441,Orchard,TX
77464,Orchard,TX
77485,Orchard,TX
75683,"Ore City",TX
79770,Orla,TX
78658,Ottine,TX
79541,Ovalo,TX
75684,Overton,TX
76943,Ozona,TX
79248,Paducah,TX
78659,Paige,TX
76866,"Paint Rock",TX
77428,Palacios,TX
77465,Palacios,TX
75801,Palestine,TX
75802,Palestine,TX
75803,Palestine,TX
75882,Palestine,TX
75152,Palmer,TX
76484,"Palo Pinto",TX
76467,Paluxy,TX
79065,Pampa,TX
79066,Pampa,TX
78143,Pandora,TX
79068,Panhandle,TX
78144,"Panna Maria",TX
75685,Panola,TX
76073,Paradise,TX
75460,Paris,TX
75461,Paris,TX
75462,Paris,TX
77058,Pasadena,TX
77059,Pasadena,TX
77501,Pasadena,TX
77502,Pasadena,TX
77503,Pasadena,TX
77504,Pasadena,TX
77505,Pasadena,TX
77506,Pasadena,TX
77507,Pasadena,TX
77508,Pasadena,TX
77536,Pasadena,TX
77571,Pasadena,TX
77586,Pasadena,TX
77423,Pattison,TX
77466,Pattison,TX
75468,Pattonville,TX
78119,Pawnee,TX
78145,Pawnee,TX
77047,Pearland,TX
77089,Pearland,TX
77511,Pearland,TX
77581,Pearland,TX
77583,Pearland,TX
77584,Pearland,TX
77588,Pearland,TX
78061,Pearsall,TX
76485,Peaster,TX
75469,"Pecan Gap",TX
79772,Pecos,TX
78062,Peggy,TX
76564,Pendleton,TX
76676,Penelope,TX
78572,Penitas,TX
78576,Penitas,TX
75856,Pennington,TX
79776,Penwell,TX
79353,Pep,TX
76486,Perrin,TX
79070,Perryton,TX
79250,Petersburg,TX
76377,Petrolia,TX
78146,Pettus,TX
75470,Petty,TX
78653,Pflugerville,TX
78660,Pflugerville,TX
78664,Pflugerville,TX
78691,Pflugerville,TX
78501,Pharr,TX
78577,Pharr,TX
75471,Pickton,TX
77467,Pierce,TX
76258,"Pilot Point",TX
76271,"Pilot Point",TX
77354,Pinehurst,TX
77355,Pinehurst,TX
77362,Pinehurst,TX
77630,Pinehurst,TX
75968,Pineland,TX
78063,"Pipe Creek",TX
75686,Pittsburg,TX
77977,Placedo,TX
79355,Plains,TX
79072,Plainview,TX
79073,Plainview,TX
75010,Plano,TX
75023,Plano,TX
75024,Plano,TX
75025,Plano,TX
75026,Plano,TX
75074,Plano,TX
75075,Plano,TX
75082,Plano,TX
75086,Plano,TX
75093,Plano,TX
75094,Plano,TX
75252,Plano,TX
77363,Plantersville,TX
78064,Pleasanton,TX
77468,Pledger,TX
78952,Plum,TX
75472,Point,TX
77978,"Point Comfort",TX
77364,Pointblank,TX
75969,Pollok,TX
76259,Ponder,TX
76869,Pontotoc,TX
76487,Poolville,TX
78373,"Port Aransas",TX
77611,"Port Arthur",TX
77627,"Port Arthur",TX
77630,"Port Arthur",TX
77640,"Port Arthur",TX
77641,"Port Arthur",TX
77642,"Port Arthur",TX
77643,"Port Arthur",TX
77655,"Port Arthur",TX
77705,"Port Arthur",TX
77617,"Port Bolivar",TX
78566,"Port Isabel",TX
78578,"Port Isabel",TX
78597,"Port Isabel",TX
77979,"Port Lavaca",TX
78598,"Port Mansfield",TX
77619,"Port Neches",TX
77642,"Port Neches",TX
77651,"Port Neches",TX
77982,"Port O Connor",TX
77365,Porter,TX
78374,Portland,TX
78390,Portland,TX
79356,Post,TX
78065,Poteet,TX
78147,Poth,TX
75020,Pottsboro,TX
75076,Pottsboro,TX
76565,Pottsville,TX
75473,Powderly,TX
75144,Powell,TX
75153,Powell,TX
75763,Poynor,TX
75770,Poynor,TX
75782,Poynor,TX
76678,"Prairie Hill",TX
78661,"Prairie Lea",TX
77445,"Prairie View",TX
77446,"Prairie View",TX
77484,"Prairie View",TX
78375,Premont,TX
79845,Presidio,TX
75687,Price,TX
76870,Priddy,TX
75407,Princeton,TX
76468,Proctor,TX
78579,Progreso,TX
78596,Progreso,TX
75078,Prosper,TX
76227,Prosper,TX
76679,Purdon,TX
76566,Purmela,TX
76437,Putnam,TX
76469,Putnam,TX
79777,Pyote,TX
79251,Quail,TX
79252,Quanah,TX
75551,"Queen City",TX
75572,"Queen City",TX
78877,Quemado,TX
75474,Quinlan,TX
79255,Quitaque,TX
75783,Quitman,TX
76077,Rainbow,TX
79357,Ralls,TX
75475,Randolph,TX
76470,Ranger,TX
79778,Rankin,TX
79366,"Ransom Canyon",TX
75858,Ratcliff,TX
75476,Ravenna,TX
78580,Raymondville,TX
77582,Raywood,TX
76680,Reagan,TX
78376,Realitos,TX
75125,"Red Oak",TX
75152,"Red Oak",TX
75154,"Red Oak",TX
75165,"Red Oak",TX
78662,"Red Rock",TX
79846,Redford,TX
75501,Redwater,TX
75567,Redwater,TX
75573,Redwater,TX
78377,Refugio,TX
75784,Reklaw,TX
76052,Rhome,TX
76078,Rhome,TX
76234,Rhome,TX
75155,Rice,TX
77873,Richards,TX
75044,Richardson,TX
75074,Richardson,TX
75075,Richardson,TX
75080,Richardson,TX
75081,Richardson,TX
75082,Richardson,TX
75083,Richardson,TX
75085,Richardson,TX
76681,Richland,TX
76871,"Richland Springs",TX
77406,Richmond,TX
77469,Richmond,TX
76682,Riesel,TX
76261,Ringgold,TX
78879,"Rio Frio",TX
78582,"Rio Grande City",TX
78550,"Rio Hondo",TX
78583,"Rio Hondo",TX
78066,"Rio Medina",TX
76093,"Rio Vista",TX
76471,"Rising Star",TX
77320,Riverside,TX
77367,Riverside,TX
78379,Riviera,TX
76262,Roanoke,TX
76299,Roanoke,TX
77875,"Roans Prairie",TX
79256,"Roaring Springs",TX
76945,"Robert Lee",TX
78380,Robstown,TX
79543,Roby,TX
76872,Rochelle,TX
79544,Rochester,TX
77470,"Rock Island",TX
76567,Rockdale,TX
78381,Rockport,TX
78382,Rockport,TX
78880,Rocksprings,TX
75032,Rockwall,TX
75087,Rockwall,TX
75189,Rockwall,TX
76873,Rockwood,TX
76569,Rogers,TX
78584,Roma,TX
77368,Romayor,TX
76874,Roosevelt,TX
79358,Ropesville,TX
78953,Rosanky,TX
79545,Roscoe,TX
76570,Rosebud,TX
77417,Rosenberg,TX
77469,Rosenberg,TX
77471,Rosenberg,TX
77583,Rosharon,TX
76640,Ross,TX
76684,Ross,TX
76691,Ross,TX
75157,Rosser,TX
75158,Rosser,TX
76263,Rosston,TX
79546,Rotan,TX
78636,"Round Mountain",TX
78663,"Round Mountain",TX
78626,"Round Rock",TX
78628,"Round Rock",TX
78664,"Round Rock",TX
78665,"Round Rock",TX
78680,"Round Rock",TX
78681,"Round Rock",TX
78682,"Round Rock",TX
78683,"Round Rock",TX
78728,"Round Rock",TX
78954,"Round Top",TX
78961,"Round Top",TX
76875,Rowena,TX
75030,Rowlett,TX
75032,Rowlett,TX
75087,Rowlett,TX
75088,Rowlett,TX
75089,Rowlett,TX
75098,Rowlett,TX
75477,Roxton,TX
75173,"Royse City",TX
75189,"Royse City",TX
79547,Rule,TX
78151,Runge,TX
75785,Rusk,TX
77369,Rye,TX
78881,Sabinal,TX
77655,"Sabine Pass",TX
75048,Sachse,TX
75098,Sachse,TX
75788,Sacul,TX
75092,Sadler,TX
76264,Sadler,TX
78152,"Saint Hedwig",TX
76265,"Saint Jo",TX
76571,Salado,TX
78585,Salineno,TX
79847,"Salt Flat",TX
75478,Saltillo,TX
79077,Samnorwood,TX
79079,Samnorwood,TX
76901,"San Angelo",TX
76902,"San Angelo",TX
76903,"San Angelo",TX
76904,"San Angelo",TX
76905,"San Angelo",TX
76906,"San Angelo",TX
76908,"San Angelo",TX
76909,"San Angelo",TX
78023,"San Antonio",TX
78054,"San Antonio",TX
78056,"San Antonio",TX
78073,"San Antonio",TX
78109,"San Antonio",TX
78112,"San Antonio",TX
78154,"San Antonio",TX
78201,"San Antonio",TX
78202,"San Antonio",TX
78203,"San Antonio",TX
78204,"San Antonio",TX
78205,"San Antonio",TX
78207,"San Antonio",TX
78208,"San Antonio",TX
78209,"San Antonio",TX
78210,"San Antonio",TX
78211,"San Antonio",TX
78212,"San Antonio",TX
78213,"San Antonio",TX
78214,"San Antonio",TX
78215,"San Antonio",TX
78216,"San Antonio",TX
78217,"San Antonio",TX
78218,"San Antonio",TX
78219,"San Antonio",TX
78220,"San Antonio",TX
78221,"San Antonio",TX
78222,"San Antonio",TX
78223,"San Antonio",TX
78224,"San Antonio",TX
78225,"San Antonio",TX
78226,"San Antonio",TX
78227,"San Antonio",TX
78228,"San Antonio",TX
78229,"San Antonio",TX
78230,"San Antonio",TX
78231,"San Antonio",TX
78232,"San Antonio",TX
78233,"San Antonio",TX
78234,"San Antonio",TX
78235,"San Antonio",TX
78236,"San Antonio",TX
78237,"San Antonio",TX
78238,"San Antonio",TX
78239,"San Antonio",TX
78240,"San Antonio",TX
78242,"San Antonio",TX
78244,"San Antonio",TX
78245,"San Antonio",TX
78246,"San Antonio",TX
78247,"San Antonio",TX
78248,"San Antonio",TX
78249,"San Antonio",TX
78250,"San Antonio",TX
78251,"San Antonio",TX
78252,"San Antonio",TX
78253,"San Antonio",TX
78254,"San Antonio",TX
78255,"San Antonio",TX
78256,"San Antonio",TX
78257,"San Antonio",TX
78258,"San Antonio",TX
78259,"San Antonio",TX
78260,"San Antonio",TX
78263,"San Antonio",TX
78264,"San Antonio",TX
78265,"San Antonio",TX
78266,"San Antonio",TX
78268,"San Antonio",TX
78269,"San Antonio",TX
78270,"San Antonio",TX
78275,"San Antonio",TX
78278,"San Antonio",TX
78279,"San Antonio",TX
78280,"San Antonio",TX
78283,"San Antonio",TX
78286,"San Antonio",TX
78287,"San Antonio",TX
78288,"San Antonio",TX
78289,"San Antonio",TX
78291,"San Antonio",TX
78292,"San Antonio",TX
78293,"San Antonio",TX
78294,"San Antonio",TX
78295,"San Antonio",TX
78296,"San Antonio",TX
78297,"San Antonio",TX
78298,"San Antonio",TX
78299,"San Antonio",TX
75972,"San Augustine",TX
78586,"San Benito",TX
78384,"San Diego",TX
79849,"San Elizario",TX
79927,"San Elizario",TX
77473,"San Felipe",TX
77474,"San Felipe",TX
78536,"San Isidro",TX
78588,"San Isidro",TX
78516,"San Juan",TX
78584,"San Juan",TX
78589,"San Juan",TX
78656,"San Marcos",TX
78666,"San Marcos",TX
78667,"San Marcos",TX
78580,"San Perlita",TX
78590,"San Perlita",TX
76877,"San Saba",TX
78067,"San Ygnacio",TX
79848,Sanderson,TX
78383,Sandia,TX
79078,Sanford,TX
76266,Sanger,TX
76878,"Santa Anna",TX
78582,"Santa Anna",TX
78591,"Santa Anna",TX
78591,"Santa Elena",TX
77510,"Santa Fe",TX
77511,"Santa Fe",TX
77517,"Santa Fe",TX
77539,"Santa Fe",TX
78592,"Santa Maria",TX
78582,"Santa Rosa",TX
78593,"Santa Rosa",TX
76472,Santo,TX
79780,Saragosa,TX
77585,Saratoga,TX
78385,Sarita,TX
76685,Satin,TX
75479,Savoy,TX
78108,Schertz,TX
78124,Schertz,TX
78132,Schertz,TX
78154,Schertz,TX
78266,Schertz,TX
78956,Schulenburg,TX
76573,Schwertner,TX
76379,Scotland,TX
75672,Scottsville,TX
75688,Scottsville,TX
75480,Scroggins,TX
75158,Scurry,TX
77565,Seabrook,TX
77586,Seabrook,TX
77983,Seadrift,TX
75159,Seagoville,TX
75253,Seagoville,TX
79359,Seagraves,TX
77474,Sealy,TX
78594,Sebastian,TX
78123,Seguin,TX
78155,Seguin,TX
78156,Seguin,TX
78638,Seguin,TX
75689,"Selman City",TX
79360,Seminole,TX
76380,Seymour,TX
79363,Shallowater,TX
79079,Shamrock,TX
79781,Sheffield,TX
75973,Shelbyville,TX
77371,Shepherd,TX
76311,"Sheppard Afb",TX
77475,Sheridan,TX
75020,Sherman,TX
75090,Sherman,TX
75091,Sherman,TX
75092,Sherman,TX
75459,Sherman,TX
77984,Shiner,TX
77876,Shiro,TX
76474,Sidney,TX
79851,"Sierra Blanca",TX
77656,Silsbee,TX
76945,Silver,TX
79257,Silverton,TX
75574,Simms,TX
77441,Simonton,TX
77476,Simonton,TX
77485,Simonton,TX
78387,Sinton,TX
79080,Skellytown,TX
78389,Skidmore,TX
79364,Slaton,TX
76267,Slidell,TX
78159,Smiley,TX
78957,Smithville,TX
79367,Smyer,TX
77878,Snook,TX
77879,Snook,TX
79549,Snyder,TX
79550,Snyder,TX
78069,Somerset,TX
77879,Somerville,TX
76950,Sonora,TX
77659,"Sour Lake",TX
76481,"South Bend",TX
77260,"South Houston",TX
77502,"South Houston",TX
77504,"South Houston",TX
77587,"South Houston",TX
78578,"South Padre Island",TX
78597,"South Padre Island",TX
79258,"South Plains",TX
76092,Southlake,TX
75092,Southmayd,TX
76268,Southmayd,TX
76273,Southmayd,TX
79369,Spade,TX
79081,Spearman,TX
78669,Spicewood,TX
77372,Splendora,TX
77373,Spring,TX
77383,Spring,TX
77387,Spring,TX
77391,Spring,TX
77393,Spring,TX
78070,"Spring Branch",TX
79082,Springlake,TX
76082,Springtown,TX
79370,Spur,TX
77660,Spurger,TX
77477,Stafford,TX
77497,Stafford,TX
79521,Stamford,TX
79553,Stamford,TX
79782,Stanton,TX
78638,Staples,TX
78655,Staples,TX
78670,Staples,TX
76880,Star,TX
76401,Stephenville,TX
76402,Stephenville,TX
76951,"Sterling City",TX
79083,Stinnett,TX
78160,Stockdale,TX
78671,Stonewall,TX
77661,Stowell,TX
77665,Stowell,TX
79084,Stratford,TX
76475,Strawn,TX
75859,Streetman,TX
76681,Streetman,TX
77986,Sublime,TX
79371,Sudan,TX
77469,"Sugar Land",TX
77477,"Sugar Land",TX
77478,"Sugar Land",TX
77479,"Sugar Land",TX
77487,"Sugar Land",TX
77496,"Sugar Land",TX
77498,"Sugar Land",TX
78595,"Sullivan City",TX
75481,"Sulphur Bluff",TX
75482,"Sulphur Springs",TX
75483,"Sulphur Springs",TX
79085,Summerfield,TX
75486,Sumner,TX
79372,Sundown,TX
75149,Sunnyvale,TX
75182,Sunnyvale,TX
79086,Sunray,TX
76270,Sunset,TX
78584,Sunset,TX
78161,"Sutherland Springs",TX
77480,Sweeny,TX
77987,"Sweet Home",TX
79556,Sweetwater,TX
79560,Sylvester,TX
78390,Taft,TX
79373,Tahoka,TX
75487,Talco,TX
76882,Talpa,TX
78883,Tarpley,TX
79783,Tarzan,TX
75631,Tatum,TX
75691,Tatum,TX
76574,Taylor,TX
78634,Taylor,TX
75860,Teague,TX
76686,Tehuacana,TX
76883,Telegraph,TX
75488,Telephone,TX
77988,Telferner,TX
79259,Tell,TX
76501,Temple,TX
76502,Temple,TX
76503,Temple,TX
76504,Temple,TX
76505,Temple,TX
76508,Temple,TX
76513,Temple,TX
76528,Temple,TX
75974,Tenaha,TX
75861,"Tennessee Colony",TX
76953,Tennyson,TX
79852,Terlingua,TX
75160,Terrell,TX
75161,Terrell,TX
75501,Texarkana,TX
75503,Texarkana,TX
75504,Texarkana,TX
75505,Texarkana,TX
75507,Texarkana,TX
75599,Texarkana,TX
77510,"Texas City",TX
77518,"Texas City",TX
77539,"Texas City",TX
77554,"Texas City",TX
77568,"Texas City",TX
77573,"Texas City",TX
77590,"Texas City",TX
77591,"Texas City",TX
77592,"Texas City",TX
79087,Texline,TX
75010,"The Colony",TX
75024,"The Colony",TX
75034,"The Colony",TX
75056,"The Colony",TX
77374,Thicket,TX
77989,Thomaston,TX
77469,Thompsons,TX
77481,Thompsons,TX
76577,Thorndale,TX
76687,Thornton,TX
76578,Thrall,TX
78071,"Three Rivers",TX
76483,Throckmorton,TX
78072,Tilden,TX
75975,Timpson,TX
76271,Tioga,TX
77990,Tivoli,TX
79376,Tokio,TX
76476,Tolar,TX
75090,"Tom Bean",TX
75489,"Tom Bean",TX
75491,"Tom Bean",TX
77375,Tomball,TX
77377,Tomball,TX
79853,Tornillo,TX
78672,Tow,TX
79772,Toyah,TX
79785,Toyah,TX
79786,Toyahvale,TX
79561,Trent,TX
75424,Trenton,TX
75452,Trenton,TX
75490,Trenton,TX
75491,Trenton,TX
75163,Trinidad,TX
75862,Trinity,TX
75789,Troup,TX
76501,Troy,TX
76579,Troy,TX
78146,Tuleta,TX
78162,Tuleta,TX
79088,Tulia,TX
79261,Turkey,TX
79562,Tuscola,TX
79536,Tye,TX
79563,Tye,TX
79603,Tye,TX
75701,Tyler,TX
75702,Tyler,TX
75703,Tyler,TX
75704,Tyler,TX
75706,Tyler,TX
75707,Tyler,TX
75708,Tyler,TX
75709,Tyler,TX
75710,Tyler,TX
75711,Tyler,TX
75712,Tyler,TX
75713,Tyler,TX
75798,Tyler,TX
75799,Tyler,TX
78389,Tynan,TX
78391,Tynan,TX
79091,Umbarger,TX
78148,"Universal City",TX
78233,"Universal City",TX
78884,Utopia,TX
78801,Uvalde,TX
78802,Uvalde,TX
79854,Valentine,TX
76884,Valera,TX
76689,"Valley Mills",TX
76885,"Valley Spring",TX
76240,"Valley View",TX
76272,"Valley View",TX
75790,Van,TX
75409,"Van Alstyne",TX
75495,"Van Alstyne",TX
79855,"Van Horn",TX
77482,"Van Vleck",TX
76955,Vancourt,TX
77957,Vanderbilt,TX
77991,Vanderbilt,TX
78885,Vanderpool,TX
79092,Vega,TX
76009,Venus,TX
76084,Venus,TX
76886,Veribest,TX
76384,Vernon,TX
76385,Vernon,TX
77901,Victoria,TX
77902,Victoria,TX
77903,Victoria,TX
77904,Victoria,TX
77905,Victoria,TX
77968,Victoria,TX
77662,Vidor,TX
77670,Vidor,TX
77663,"Village Mills",TX
76887,Voca,TX
78073,"Von Ormy",TX
76888,Voss,TX
77376,Votaw,TX
77713,Voth,TX
76633,Waco,TX
76638,Waco,TX
76640,Waco,TX
76643,Waco,TX
76655,Waco,TX
76657,Waco,TX
76701,Waco,TX
76702,Waco,TX
76703,Waco,TX
76704,Waco,TX
76705,Waco,TX
76706,Waco,TX
76707,Waco,TX
76708,Waco,TX
76710,Waco,TX
76711,Waco,TX
76712,Waco,TX
76714,Waco,TX
76715,Waco,TX
76716,Waco,TX
76795,Waco,TX
76797,Waco,TX
76799,Waco,TX
77483,Wadsworth,TX
78959,Waelder,TX
79093,Waka,TX
78673,Walburg,TX
76957,Wall,TX
77484,Waller,TX
77485,Wallis,TX
77597,Wallisville,TX
76690,"Walnut Springs",TX
78960,Warda,TX
78074,Waring,TX
77664,Warren,TX
78961,Warrenton,TX
77880,Washington,TX
75692,Waskom,TX
76958,"Water Valley",TX
75165,Waxahachie,TX
75167,Waxahachie,TX
75168,Waxahachie,TX
76065,Waxahachie,TX
79094,Wayside,TX
76085,Weatherford,TX
76086,Weatherford,TX
76087,Weatherford,TX
76088,Weatherford,TX
77058,Webster,TX
77598,Webster,TX
77993,Weesatche,TX
78962,Weimar,TX
76388,Weinert,TX
78626,Weir,TX
78674,Weir,TX
79377,Welch,TX
77881,Wellborn,TX
79095,Wellington,TX
79378,Wellman,TX
75925,Wells,TX
75976,Wells,TX
78537,Weslaco,TX
78570,Weslaco,TX
78596,Weslaco,TX
78599,Weslaco,TX
76691,West,TX
77486,"West Columbia",TX
78963,"West Point",TX
79565,Westbrook,TX
77994,Westhoff,TX
75409,Westminster,TX
75009,Weston,TX
75071,Weston,TX
75097,Weston,TX
77488,Wharton,TX
79096,Wheeler,TX
77882,Wheelock,TX
79097,"White Deer",TX
75604,"White Oak",TX
75693,"White Oak",TX
79379,Whiteface,TX
75791,Whitehouse,TX
76273,Whitesboro,TX
75479,Whitewright,TX
75491,Whitewright,TX
79380,Whitharral,TX
76692,Whitney,TX
78075,Whitsett,TX
76490,Whitt,TX
76301,"Wichita Falls",TX
76302,"Wichita Falls",TX
76305,"Wichita Falls",TX
76306,"Wichita Falls",TX
76307,"Wichita Falls",TX
76308,"Wichita Falls",TX
76309,"Wichita Falls",TX
76310,"Wichita Falls",TX
76311,"Wichita Falls",TX
76367,"Wichita Falls",TX
79788,Wickett,TX
75977,Wiergate,TX
79098,Wildorado,TX
77318,Willis,TX
77378,Willis,TX
78675,"Willow City",TX
75169,"Wills Point",TX
75125,Wilmer,TX
75141,Wilmer,TX
75146,Wilmer,TX
75172,Wilmer,TX
79381,Wilson,TX
78666,Wimberley,TX
78676,Wimberley,TX
75492,Windom,TX
76389,Windthorst,TX
75455,Winfield,TX
75493,Winfield,TX
79566,Wingate,TX
79789,Wink,TX
77665,Winnie,TX
75494,Winnsboro,TX
75792,Winona,TX
79567,Winters,TX
75978,Woden,TX
75496,"Wolfe City",TX
79382,Wolfforth,TX
75865,Woodlake,TX
75694,Woodlawn,TX
78393,Woodsboro,TX
76491,Woodson,TX
75979,Woodville,TX
75990,Woodville,TX
76712,Woodway,TX
76693,Wortham,TX
78677,Wrightsboro,TX
75002,Wylie,TX
75048,Wylie,TX
75098,Wylie,TX
75166,Wylie,TX
75173,Wylie,TX
75407,Wylie,TX
78886,Yancey,TX
75497,Yantis,TX
77995,Yoakum,TX
78164,Yorktown,TX
78076,Zapata,TX
75980,Zavalla,TX
76890,Zephyr,TX
75006,"Farmers Branch",TX
75234,"Farmers Branch",TX
75240,"Farmers Branch",TX
75244,"Farmers Branch",TX
75254,"Farmers Branch",TX
75358,"Farmers Branch",TX
76208,Corinth,TX
76210,Corinth,TX
76137,Watauga,TX
76148,Watauga,TX
75069,McKinney,TX
75070,McKinney,TX
75071,McKinney,TX
75454,McKinney,TX
78582,"Rio Grande",TX
77541,"Surfside Beach",TX
78238,"Leon Valley",TX
78240,"Leon Valley",TX
75094,Murphy,TX
75098,Murphy,TX
78154,Selma,TX
79752,McCamey,TX
78573,Alton,TX
78148,"Live Oak",TX
78154,"Live Oak",TX
78233,"Live Oak",TX
78746,"West Lake Hills",TX
76106,"Lake Worth",TX
76135,"Lake Worth",TX
76544,"Fort Hood",TX
76549,"Fort Hood",TX
78640,Niederwald,TX
78644,Niederwald,TX
78621,Webberville,TX
78653,Webberville,TX
76705,Bellmead,TX
76655,Robinson,TX
76706,Robinson,TX
76712,Robinson,TX
76561,McGregor,TX
76657,McGregor,TX
78610,Creedmoor,TX
78640,Uhland,TX
78657,"Horseshoe Bay",TX
78654,"Granite Shoals",TX
78669,"Bee Cave",TX
78736,"Bee Cave",TX
78738,"Bee Cave",TX
78641,Jonestown,TX
78645,Jonestown,TX
78545,"Lago Vista",TX
78584,"Lago Vista",TX
78645,"Lago Vista",TX
78654,"Lago Vista",TX
78669,"Lago Vista",TX
78669,Lakeway,TX
78734,Lakeway,TX
78738,Lakeway,TX
78734,"The Hills",TX
78738,"The Hills",TX
76711,"Beverly Hills",TX
76705,"Lacy Lakeview",TX
76554,"Little River-Academy",TX
77571,"Morgan's Point",TX
78572,Abram,TX
78369,Aguilares,TX
78582,"Airport Heights",TX
78355,"Airport Road Addition",TX
78209,"Alamo Heights",TX
77032,Aldine,TX
77037,Aldine,TX
77039,Aldine,TX
77060,Aldine,TX
78332,Alfred,TX
78332,"Alice Acres",TX
75119,Alma,TX
78582,"Alto Bonito Heights",TX
78582,"Amada Acres",TX
78332,Amargosa,TX
78839,Amaya,TX
77575,Ames,TX
78840,Amistad,TX
78582,Anacua,TX
75109,Angus,TX
75110,Angus,TX
76008,Annetta,TX
76008,"Annetta North",TX
76087,"Annetta North",TX
76008,"Annetta South",TX
75946,Appleby,TX
75965,Appleby,TX
77545,Arcola,TX
77583,Arcola,TX
78586,"Arroyo Colorado Estates",TX
78583,"Arroyo Gardens",TX
78586,"Arroyo Gardens",TX
77044,Atascocita,TX
77338,Atascocita,TX
77346,Atascocita,TX
77396,Atascocita,TX
76078,Aurora,TX
77515,"Bailey's Prairie",TX
75180,"Balch Springs",TX
75181,"Balch Springs",TX
75217,"Balch Springs",TX
75253,"Balch Springs",TX
78201,"Balcones Heights",TX
78213,"Balcones Heights",TX
78582,"B And E",TX
78582,Barrera,TX
77532,Barrett,TX
77562,Barrett,TX
78735,"Barton Creek",TX
75022,Bartonville,TX
76226,Bartonville,TX
77563,"Bayou Vista",TX
78566,Bayview,TX
77523,"Beach City",TX
78737,"Bear Creek",TX
76109,Benbrook,TX
76116,Benbrook,TX
76126,Benbrook,TX
76132,Benbrook,TX
78582,"Benjamin Perez",TX
75763,Berryville,TX
77713,"Bevil Oaks",TX
77351,"Big Thicket Lake Estates",TX
77369,"Big Thicket Lake Estates",TX
79124,"Bishop Hills",TX
78559,Bixby,TX
78102,"Blue Berry Hill",TX
76131,"Blue Mound",TX
78559,Bluetown,TX
78586,Bluetown,TX
77617,"Bolivar Peninsula",TX
77623,"Bolivar Peninsula",TX
77650,"Bolivar Peninsula",TX
78045,"Bonanza Hills",TX
77515,Bonney,TX
77583,Bonney,TX
78045,Botines,TX
78840,"Box Canyon",TX
76048,"Brazos Bend",TX
76049,"Brazos Bend",TX
77474,"Brazos Country",TX
76020,Briar,TX
76023,Briar,TX
76179,Briar,TX
78669,Briarcliff,TX
76028,Briaroaks,TX
75119,Bristol,TX
77581,"Brookside Village",TX
75931,Browndell,TX
76524,Bruceville-eddy,TX
76630,Bruceville-eddy,TX
78834,Brundage,TX
78681,"Brushy Creek",TX
78717,"Brushy Creek",TX
78672,"Buchanan Lake Village",TX
78582,"Buena Vista",TX
79404,"Buffalo Springs",TX
77024,"Bunker Hill Village",TX
75941,Burke,TX
79938,Butterfield,TX
75778,"Callender Lake",TX
76240,Callisburg,TX
76273,Callisburg,TX
78582,Camargito,TX
78526,"Cameron Park",TX
78582,"Campo Verde",TX
78602,"Camp Swift",TX
75148,"Caney City",TX
78355,"Cantu Addition",TX
76048,"Canyon Creek",TX
77331,"Cape Royale",TX
76645,"Carl's Corner",TX
76670,"Carl's Corner",TX
78834,"Carrizo Hill",TX
78582,"Casa Blanca",TX
78584,Casas,TX
76305,"Cashion Community",TX
78213,"Castle Hills",TX
78216,"Castle Hills",TX
77351,"Cedar Point",TX
77627,"Central Gardens",TX
77705,"Central Gardens",TX
78582,Chaparrito,TX
78545,Chapeno,TX
78263,"China Grove",TX
78566,"Chula Vista",TX
78839,"Chula Vista",TX
78852,"Chula Vista",TX
78840,"Cienegas Terrace",TX
77450,"Cinco Ranch",TX
77494,"Cinco Ranch",TX
78602,"Circle D-kc Estates",TX
78659,"Circle D-kc Estates",TX
78574,"Citrus City",TX
75604,"Clarksville City",TX
75647,"Clarksville City",TX
75693,"Clarksville City",TX
77565,"Clear Lake Shores",TX
77015,Cloverleaf,TX
75211,"Cockrell Hill",TX
75758,"Coffee City",TX
75763,"Coffee City",TX
75770,"Coffee City",TX
78044,"Colorado Acres",TX
75159,Combine,TX
76066,Cool,TX
76067,Cool,TX
76088,Cool,TX
75077,"Copper Canyon",TX
76226,"Copper Canyon",TX
76226,"Corral City",TX
75158,Cottonwood,TX
78657,"Cottonwood Shores",TX
78336,"Country Acres",TX
77523,Cove,TX
78332,"Coyote Acres",TX
76009,"Coyote Flats",TX
76031,"Coyote Flats",TX
78255,"Cross Mountain",TX
78256,"Cross Mountain",TX
76227,"Cross Roads",TX
76028,"Cross Timber",TX
78565,Cuevitas,TX
77471,Cumings,TX
77303,"Cut And Shoot",TX
77306,"Cut And Shoot",TX
76013,"Dalworthington Gardens",TX
76015,"Dalworthington Gardens",TX
76016,"Dalworthington Gardens",TX
77535,"Dayton Lakes",TX
76305,Dean,TX
76048,Decordova,TX
76049,Decordova,TX
78566,"Del Mar Heights",TX
78387,"Del Sol",TX
78850,D'hanis,TX
78861,D'hanis,TX
76247,Dish,TX
78574,Doffing,TX
75572,Domino,TX
78541,Doolittle,TX
78542,Doolittle,TX
75092,Dorchester,TX
75459,Dorchester,TX
75022,"Double Oak",TX
75028,"Double Oak",TX
75077,"Double Oak",TX
76226,"Double Oak",TX
78582,"East Alto Bonito",TX
75604,"East Mountain",TX
75645,"East Mountain",TX
75647,"East Mountain",TX
75453,"East Tawakoni",TX
75472,"East Tawakoni",TX
76134,"Edgecliff Village",TX
78368,"Edgewater Estates",TX
75754,Edom,TX
75756,Edom,TX
78852,"Eidson Road",TX
76372,Elbert,TX
78582,"El Brazil",TX
78586,"El Camino Angosto",TX
78582,"El Castillo",TX
78046,"El Cenizo",TX
78582,"El Cenizo",TX
78582,"El Chaparral",TX
78582,"Elias-fela Solis",TX
77586,"El Lago",TX
78852,"Elm Creek",TX
78582,"El Mesquite",TX
78582,"E. Lopez",TX
78582,"El Quiote",TX
78582,"El Rancho Vela",TX
78582,"El Refugio",TX
78582,"El Socio",TX
75757,"Emerald Bay",TX
75110,Emhouse,TX
78586,"Encantada-ranchito-el Calaboz",TX
75156,"Enchanted Oaks",TX
78584,Escobares,TX
78582,"Eugenio Saenz",TX
75109,Eureka,TX
78584,Evergreen,TX
76140,Everman,TX
78852,Fabrica,TX
77461,Fairchilds,TX
77469,Fairchilds,TX
78015,"Fair Oaks Ranch",TX
78163,"Fair Oaks Ranch",TX
75002,Fairview,TX
75069,Fairview,TX
78545,Falconaire,TX
78076,"Falcon Lake Estates",TX
78076,"Falcon Mesa",TX
78545,"Falcon Village",TX
78336,Falman,TX
77705,Fannett,TX
78542,Faysville,TX
78582,"Fernando Salinas",TX
77477,"Fifth Street",TX
78582,"Flor Del Rio",TX
78355,Flowella,TX
76119,"Forest Hill",TX
76140,"Forest Hill",TX
79906,"Fort Bliss",TX
79908,"Fort Bliss",TX
79916,"Fort Bliss",TX
78832,"Fort Clark Springs",TX
77083,"Four Corners",TX
77498,"Four Corners",TX
78045,"Four Points",TX
78584,Fronton,TX
78584,"Fronton Ranchettes",TX
78584,Garceno,TX
78132,"Garden Ridge",TX
78154,"Garden Ridge",TX
78266,"Garden Ridge",TX
78612,Garfield,TX
78617,Garfield,TX
75119,Garrett,TX
75643,"Gary City",TX
78582,"Garza-salinas Ii",TX
76691,Gholson,TX
76705,Gholson,TX
75154,"Glenn Heights",TX
76632,Golinda,TX
76655,Golinda,TX
75144,Goodlow,TX
78572,Granjeno,TX
76901,"Grape Creek",TX
75158,"Grays Prairie",TX
77479,Greatwood,TX
78586,"Green Valley Farms",TX
78023,"Grey Forest",TX
78584,"Guadalupe Guerra",TX
75124,"Gun Barrel City",TX
75156,"Gun Barrel City",TX
78582,Gutierrez,TX
75034,Hackberry,TX
76624,Hallsburg,TX
76664,Hallsburg,TX
76682,Hallsburg,TX
76705,Hallsburg,TX
78560,Havana,TX
75474,"Hawk Cove",TX
78610,Hays,TX
78584,"H. Cuellar Estates",TX
75032,Heath,TX
75126,Heath,TX
75010,Hebron,TX
75056,Hebron,TX
77024,"Hedwig Village",TX
78570,Heidelberg,TX
75065,"Hickory Creek",TX
75771,Hideaway,TX
78654,"Highland Haven",TX
75205,"Highland Park",TX
75209,"Highland Park",TX
75219,"Highland Park",TX
75077,"Highland Village",TX
76226,"Highland Village",TX
78232,"Hill Country Village",TX
77511,Hillcrest,TX
78043,"Hillside Acres",TX
78017,Hilltop,TX
78582,Hilltop,TX
77855,"Hilltop Lakes",TX
77871,"Hilltop Lakes",TX
77055,"Hilshire Village",TX
78382,"Holiday Beach",TX
77515,"Holiday Lakes",TX
75765,"Holly Lake Ranch",TX
78232,"Hollywood Park",TX
79938,"Homestead Meadows North",TX
79938,"Homestead Meadows South",TX
79928,"Horizon City",TX
78724,"Hornsby Bend",TX
78725,"Hornsby Bend",TX
76087,"Horseshoe Bend",TX
79226,Howardwick,TX
75904,Hudson,TX
78734,"Hudson Bend",TX
76087,"Hudson Oaks",TX
77024,"Hunters Creek Village",TX
77063,"Hunters Creek Village",TX
75973,Huxley,TX
77420,Iago,TX
77488,Iago,TX
78559,"Iglesia Antigua",TX
78592,"Iglesia Antigua",TX
79603,Impact,TX
78570,"Indian Hills",TX
78566,"Indian Lake",TX
77351,"Indian Springs",TX
78584,Indio,TX
78362,"Ingleside On The Bay",TX
77578,"Iowa Colony",TX
77583,"Iowa Colony",TX
77029,"Jacinto City",TX
77554,"Jamaica Beach",TX
78584,"Jardin De San Julian",TX
77040,"Jersey Village",TX
77041,"Jersey Village",TX
77064,"Jersey Village",TX
77065,"Jersey Village",TX
78584,"J.f. Villareal",TX
76305,Jolly,TX
76310,Jolly,TX
76365,Jolly,TX
77541,"Jones Creek",TX
78552,Juarez,TX
78372,"K-bar Ranch",TX
77535,Kenefick,TX
78219,Kirby,TX
78244,Kirby,TX
75092,Knollwood,TX
76227,Krugerville,TX
78582,"La Carla",TX
78582,"La Casita",TX
78582,"La Chuparosa",TX
78236,"Lackland Afb",TX
78043,"La Coma",TX
78039,Lacoste,TX
76640,Lacy-lakeview,TX
76705,Lacy-lakeview,TX
78582,"La Escondida",TX
78582,"La Esperanza",TX
78559,"La Feria North",TX
78586,Lago,TX
78548,"La Grulla",TX
78582,"La Grulla",TX
78578,"Laguna Heights",TX
78562,"Laguna Seca",TX
78570,"Laguna Seca",TX
78566,"Laguna Vista",TX
78578,"Laguna Vista",TX
78573,"La Homa",TX
78574,"La Homa",TX
76426,"Lake Bridgeport",TX
76801,"Lake Brownwood",TX
77807,"Lake Bryan",TX
75603,"Lake Cherokee",TX
75652,"Lake Cherokee",TX
75691,"Lake Cherokee",TX
78368,"Lake City",TX
79512,"Lake Colorado City",TX
78130,"Lake Dunlap",TX
78063,Lakehills,TX
76240,"Lake Kiowa",TX
78003,"Lake Medina Shores",TX
78063,"Lake Medina Shores",TX
79036,"Lake Meredith Estates",TX
75603,Lakeport,TX
78368,"Lakeshore Gardens-hidden Acres",TX
76108,Lakeside,TX
76135,Lakeside,TX
78368,Lakeside,TX
76308,"Lakeside City",TX
79015,"Lake Tanglewood",TX
79118,"Lake Tanglewood",TX
78840,"Lake View",TX
75068,"Lakewood Village",TX
78584,"La Loma De Falcon",TX
78382,Lamar,TX
78584,"La Minita",TX
78585,"La Minita",TX
76226,Lantana,TX
78586,"La Paloma",TX
78387,"La Paloma Addition",TX
78380,"La Paloma-lost Creek",TX
78582,"La Paloma Ranchettes",TX
78046,"La Presa",TX
78582,"La Puerta",TX
78043,"Laredo Ranchettes",TX
78043,"Laredo Ranchettes West",TX
78582,"La Rosita",TX
78550,Lasana,TX
78044,"Las Haciendas",TX
78582,"Las Lomas",TX
78361,"Las Lomitas",TX
78076,"Las Palmas",TX
78552,"Las Palmas Ii",TX
78044,"Las Pilas",TX
78852,"Las Quintas Fronterizas",TX
78583,"La Tina Ranch",TX
78840,"Laughlin Afb",TX
78843,"Laughlin Afb",TX
78566,Laureles,TX
78586,Laureles,TX
78582,"La Victoria",TX
75503,Leary,TX
75561,Leary,TX
75647,"Liberty City",TX
75662,"Liberty City",TX
76227,"Lincoln Park",TX
78596,"Llano Grande",TX
75148,"Log Cabin",TX
78839,"Loma Grande",TX
78387,"Loma Linda",TX
78332,"Loma Linda East",TX
78582,"Loma Linda East",TX
78582,"Loma Linda West",TX
78584,"Loma Vista",TX
78582,Longoria,TX
78539,Lopezville,TX
78542,Lopezville,TX
78589,Lopezville,TX
78043,"Los Altos",TX
78582,"Los Alvarez",TX
78580,"Los Angeles",TX
78043,"Los Arcos",TX
78584,"Los Arrieros",TX
78582,"Los Barreras",TX
78043,"Los Centenarios",TX
78045,"Los Corralitos",TX
78045,"Los Huisaches",TX
78564,"Los Lobos",TX
78045,"Los Minerales",TX
78043,"Los Nopalitos",TX
78746,"Lost Creek",TX
78044,"Los Veteranos I",TX
78045,"Los Veteranos Ii",TX
79331,"Los Ybanez",TX
75069,"Lowry Crossing",TX
75407,"Lowry Crossing",TX
75002,Lucas,TX
75098,Lucas,TX
78582,"Manuel Garcia",TX
78582,"Manuel Garcia Ii",TX
78582,Martinez,TX
78650,Mcdade,TX
79714,"Mckinney Acres",TX
75032,Mclendon-chisholm,TX
78123,Mcqueeney,TX
78155,Mcqueeney,TX
78654,Meadowlakes,TX
77477,"Meadows Place",TX
78537,"Midway North",TX
78596,"Midway North",TX
78537,"Midway South",TX
78596,"Midway South",TX
78582,"Miguel Barrera",TX
78582,Mikes,TX
78570,"Mila Doce",TX
78596,"Mila Doce",TX
75109,Mildred,TX
75493,"Miller's Cove",TX
78582,"Mi Ranchito Estate",TX
77083,"Mission Bend",TX
77407,"Mission Bend",TX
75087,"Mobile City",TX
78538,"Monte Alto",TX
75770,"Moore Station",TX
78584,Moraida,TX
78076,Morales-sanchez,TX
78387,"Morgan Farm",TX
76513,"Morgan's Point Resort",TX
79836,"Morning Glory",TX
78610,"Mountain City",TX
78640,"Mountain City",TX
78542,Muniz,TX
78542,Murillo,TX
75109,Mustang,TX
78610,"Mustang Ridge",TX
78616,"Mustang Ridge",TX
78640,"Mustang Ridge",TX
78644,"Mustang Ridge",TX
78747,"Mustang Ridge",TX
75169,"Myrtle Springs",TX
78582,"Narciso Pena",TX
77058,"Nassau Bay",TX
75109,Navarro,TX
75670,Nesbitt,TX
78582,Netos,TX
78121,"New Berlin",TX
78155,"New Berlin",TX
75707,"New Chapel Hill",TX
76078,"New Fairview",TX
76234,"New Fairview",TX
78545,"New Falcon",TX
75071,"New Hope",TX
77479,"New Territory",TX
75401,Neylandville,TX
78582,Nina,TX
76255,"Nocona Hills",TX
75703,Noonday,TX
75762,Noonday,TX
78516,"North Alamo",TX
78589,"North Alamo",TX
77327,"North Cleveland",TX
77328,"North Cleveland",TX
78584,"North Escobares",TX
76226,Northlake,TX
76247,Northlake,TX
76262,Northlake,TX
78061,"North Pearsall",TX
78584,Northridge,TX
78380,"North San Pedro",TX
75142,"Oak Grove",TX
77514,"Oak Island",TX
75154,"Oak Leaf",TX
75167,"Oak Leaf",TX
75068,"Oak Point",TX
76227,"Oak Point",TX
75142,"Oak Ridge",TX
75160,"Oak Ridge",TX
75161,"Oak Ridge",TX
76240,"Oak Ridge",TX
77385,"Oak Ridge North",TX
77386,"Oak Ridge North",TX
76048,"Oak Trail Shores",TX
75110,"Oak Valley",TX
79539,O'brien,TX
79351,O'donnell,TX
77523,"Old River-winfree",TX
77535,"Old River-winfree",TX
78570,Olivarez,TX
78596,Olivarez,TX
78582,"Olivia Lopez De Gutierrez",TX
78582,"Olmito And Olmito",TX
78212,"Olmos Park",TX
79336,"Opdyke West",TX
78566,Orason,TX
75104,Ovilla,TX
75154,Ovilla,TX
76065,Ovilla,TX
78332,"Owl Ranch",TX
77541,"Oyster Creek",TX
78582,"Pablo Pena",TX
78368,"Paisano Park",TX
79118,Palisades,TX
78573,Palmhurst,TX
78552,"Palm Valley",TX
78572,Palmview,TX
78574,Palmview,TX
78572,"Palmview South",TX
78582,"Palo Blanco",TX
76227,"Paloma Creek",TX
75068,"Paloma Creek South",TX
77304,"Panorama Village",TX
77318,"Panorama Village",TX
76013,Pantego,TX
75002,Parker,TX
75094,Parker,TX
75098,Parker,TX
77357,"Patton Village",TX
77372,"Patton Village",TX
75124,"Payne Springs",TX
75156,"Payne Springs",TX
76020,"Pecan Acres",TX
76071,"Pecan Acres",TX
76078,"Pecan Acres",TX
76179,"Pecan Acres",TX
77406,"Pecan Grove",TX
75154,"Pecan Hill",TX
75165,"Pecan Hill",TX
76049,"Pecan Plantation",TX
76020,"Pelican Bay",TX
78584,Pena,TX
78572,Perezville,TX
78574,Perezville,TX
78343,Petronila,TX
78380,Petronila,TX
77662,"Pine Forest",TX
75657,"Pine Harbor",TX
77445,"Pine Island",TX
77484,"Pine Island",TX
77625,"Pinewood Estates",TX
77659,"Pinewood Estates",TX
77024,"Piney Point Village",TX
77063,"Piney Point Village",TX
77278,"Piney Point Village",TX
77461,Pleak,TX
77469,Pleak,TX
77471,Pleak,TX
75939,"Pleasant Hill",TX
76305,"Pleasant Valley",TX
76367,"Pleasant Valley",TX
77327,"Plum Grove",TX
77372,"Plum Grove",TX
77364,"Point Blank",TX
78645,"Point Venture",TX
78669,"Point Venture",TX
78734,"Point Venture",TX
77365,"Porter Heights",TX
77982,"Port O'connor",TX
75142,"Post Oak Bend City",TX
79602,Potosi,TX
79932,"Prado Verde",TX
75076,Preston,TX
78552,Primera,TX
78579,"Progreso Lakes",TX
78596,"Progreso Lakes",TX
76227,"Providence Village",TX
78044,"Pueblo East",TX
78043,"Pueblo Nuevo",TX
77905,"Quail Creek",TX
78582,Quesada,TX
77541,Quintana,TX
78852,"Radar Base",TX
78582,"Rafael Pena",TX
78067,Ramireno,TX
78582,Ramirez-perez,TX
78584,Ramos,TX
78580,"Ranchette Estates",TX
78582,"Ranchitos Del Norte",TX
78043,"Ranchitos East",TX
78044,"Ranchitos Las Lomas",TX
78332,"Rancho Alegre",TX
78380,"Rancho Banquete",TX
78387,"Rancho Chico",TX
78045,"Ranchos Penitas West",TX
78575,"Rancho Viejo",TX
78582,"Rancho Viejo",TX
78108,"Randolph Afb",TX
78148,"Randolph Afb",TX
78150,"Randolph Afb",TX
78154,"Randolph Afb",TX
78586,Rangerville,TX
78559,Ratamosa,TX
78593,Ratamosa,TX
75965,Redfield,TX
75901,Redland,TX
75904,Redland,TX
75503,"Red Lick",TX
78666,Redwood,TX
78584,"Regino Ramirez",TX
78521,"Reid Hope King",TX
78570,Relampago,TX
76028,Rendon,TX
76063,Rendon,TX
76140,Rendon,TX
75462,Reno,TX
76020,Reno,TX
76082,Reno,TX
75110,Retreat,TX
78363,Ricardo,TX
76117,"Richland Hills",TX
76118,"Richland Hills",TX
76180,"Richland Hills",TX
77531,Richwood,TX
77566,Richwood,TX
78046,"Rio Bravo",TX
78582,Rivereno,TX
76114,"River Oaks",TX
75686,"Rocky Mound",TX
78746,Rollingwood,TX
78584,"Roma Creek",TX
77357,"Roman Forest",TX
77662,"Rose City",TX
77657,"Rose Hill Acres",TX
78852,Rosita,TX
76426,"Runaway Bay",TX
76106,Saginaw,TX
76131,Saginaw,TX
76179,Saginaw,TX
78582,"Sammy Martinez",TX
75931,"Sam Rayburn",TX
78542,"San Carlos",TX
78043,"San Carlos I",TX
78043,"San Carlos Ii",TX
76020,Sanctuary,TX
78584,Sandoval,TX
79511,"Sand Springs",TX
79720,"Sand Springs",TX
78380,"Sandy Hollow-escondidas",TX
78383,"Sandy Hollow-escondidas",TX
78112,"Sandy Oaks",TX
77583,"Sandy Point",TX
78582,"San Fernando",TX
78652,"San Leanna",TX
78748,"San Leanna",TX
77539,"San Leon",TX
78368,"San Patricio",TX
78520,"San Pedro",TX
76106,"Sansom Park",TX
76114,"Sansom Park",TX
78108,"Santa Clara",TX
78124,"Santa Clara",TX
78130,"Santa Clara",TX
78582,"Santa Cruz",TX
78569,"Santa Monica",TX
78582,Santel,TX
76227,Savannah,TX
78006,"Scenic Oaks",TX
78255,"Scenic Oaks",TX
78537,Scissors,TX
78852,"Seco Mines",TX
78628,Serenada,TX
78633,Serenada,TX
79072,"Seth Ward",TX
77350,"Seven Oaks",TX
77351,"Seven Oaks",TX
75143,"Seven Points",TX
75757,Shadybrook,TX
78739,"Shady Hollow",TX
78748,"Shady Hollow",TX
76208,"Shady Shores",TX
78230,"Shavano Park",TX
78231,"Shavano Park",TX
78249,"Shavano Park",TX
77049,Sheldon,TX
77380,Shenandoah,TX
77381,Shenandoah,TX
77384,Shenandoah,TX
77385,Shenandoah,TX
76245,"Sherwood Shores",TX
77571,Shoreacres,TX
77459,"Sienna Plantation",TX
77583,"Sienna Plantation",TX
78852,"Siesta Acres",TX
78076,"Siesta Shores",TX
79836,Socorro,TX
79927,Socorro,TX
79928,Socorro,TX
78559,Solis,TX
78516,"South Alamo",TX
78361,"South Fork Estates",TX
78372,"South La Paloma",TX
76528,"South Mountain",TX
78521,"South Point",TX
77005,"Southside Place",TX
77025,"Southside Place",TX
75932,"South Toledo Bend",TX
79928,Sparks,TX
78832,Spofford,TX
78380,"Spring Gardens",TX
77024,"Spring Valley Village",TX
77055,"Spring Valley Village",TX
77355,Stagecoach,TX
75148,"Star Harbor",TX
78101,"St. Hedwig",TX
78152,"St. Hedwig",TX
76265,"St. Jo",TX
75098,"St. Paul",TX
78387,"St. Paul",TX
79852,"Study Butte",TX
78643,"Sunrise Beach Village",TX
78045,"Sunset Acres",TX
78735,"Sunset Valley",TX
78745,"Sunset Valley",TX
75462,"Sun Valley",TX
78390,"Taft Southwest",TX
75126,Talty,TX
75160,Talty,TX
78043,"Tanquecitos South Acres",TX
78043,"Tanquecitos South Acres Ii",TX
77586,"Taylor Lake Village",TX
77705,"Taylor Landing",TX
78209,"Terrell Hills",TX
73949,Texhoma,TX
77354,"The Woodlands",TX
77375,"The Woodlands",TX
77380,"The Woodlands",TX
77381,"The Woodlands",TX
77382,"The Woodlands",TX
77384,"The Woodlands",TX
77385,"The Woodlands",TX
77389,"The Woodlands",TX
78361,Thompsonville,TX
79756,Thorntonville,TX
76857,"Thunderbird Bay",TX
78593,"Tierra Bonita",TX
78582,"Tierra Dorada",TX
78380,"Tierra Grande",TX
78415,"Tierra Grande",TX
78380,"Tierra Verde",TX
77554,"Tiki Island",TX
79118,"Timbercreek Canyon",TX
78258,"Timberwood Park",TX
78260,"Timberwood Park",TX
75482,Tira,TX
75421,Toco,TX
77363,"Todd Mission",TX
75143,Tool,TX
75163,Tool,TX
78390,Tradewinds,TX
75126,"Travis Ranch",TX
76262,"Trophy Club",TX
78119,Tulsita,TX
75661,Uncertain,TX
75647,"Union Grove",TX
75189,"Union Valley",TX
75474,"Union Valley",TX
75205,"University Park",TX
75225,"University Park",TX
78801,"Uvalde Estates",TX
78802,"Uvalde Estates",TX
78582,"Valle Hermoso",TX
78044,"Valle Verde",TX
78582,"Valle Vista",TX
78840,"Val Verde Park",TX
78582,"Victoria Vera",TX
78586,"Villa Del Sol",TX
78521,"Villa Pancho",TX
78582,Villarreal,TX
78596,"Villa Verde",TX
79821,Vinton,TX
79835,Vinton,TX
78641,Volente,TX
75501,"Wake Village",TX
75647,"Warren City",TX
78728,"Wells Branch",TX
78582,"West Alto Bonito",TX
78372,Westdale,TX
76087,"Western Lake",TX
76092,Westlake,TX
76262,Westlake,TX
77351,"West Livingston",TX
79763,"West Odessa",TX
79764,"West Odessa",TX
77441,"Weston Lakes",TX
77630,"West Orange",TX
76107,"Westover Hills",TX
78573,"West Sharyland",TX
75474,"West Tawakoni",TX
77005,"West University Place",TX
79835,Westway,TX
75862,"Westwood Shores",TX
76114,"Westworth Village",TX
76116,"Westworth Village",TX
76108,"White Settlement",TX
76114,"White Settlement",TX
77422,"Wild Peach Village",TX
77625,Wildwood,TX
77663,Wildwood,TX
76008,"Willow Park",TX
76087,"Willow Park",TX
78218,Windcrest,TX
78239,Windcrest,TX
77808,"Wixon Valley",TX
77357,Woodbranch,TX
78676,Woodcreek,TX
77385,Woodloch,TX
78602,Wyldwood,TX
78612,Wyldwood,TX
78569,Yznaga,TX
78593,Yznaga,TX
78569,"Zapata Ranch",TX
78582,Zarate,TX
78124,Zuehl,TX
78542,"Cesar Chavez",TX
78585,"Salineno North",TX
