zipcode,city,state
38601,Abbeville,MS
39730,Aberdeen,MS
39735,Ackerman,MS
38820,Algoma,MS
38863,Algoma,MS
38720,Alligator,MS
38821,Amory,MS
38721,Anguilla,MS
38722,Arcola,MS
38602,Arkabutla,MS
39701,Artesia,MS
39736,Artesia,MS
38603,Ashland,MS
38723,Avon,MS
39320,Bailey,MS
38824,Baldwyn,MS
38849,Baldwyn,MS
38913,Banner,MS
39421,Bassfield,MS
39427,Bassfield,MS
38606,Batesville,MS
38620,Batesville,MS
39520,"Bay Saint Louis",MS
39338,"Bay Springs",MS
39422,"Bay Springs",MS
39423,Beaumont,MS
38825,Becker,MS
38826,Belden,MS
38609,Belen,MS
39737,Bellefontaine,MS
38827,Belmont,MS
38847,Belmont,MS
39038,Belzoni,MS
38725,Benoit,MS
39039,Benton,MS
39040,Bentonia,MS
38726,Beulah,MS
38914,"Big Creek",MS
39503,Biloxi,MS
39507,Biloxi,MS
39530,Biloxi,MS
39531,Biloxi,MS
39532,Biloxi,MS
39533,Biloxi,MS
39534,Biloxi,MS
39535,Biloxi,MS
38610,"Blue Mountain",MS
38828,"Blue Springs",MS
39350,"Bogue Chitto",MS
39354,"Bogue Chitto",MS
39629,"Bogue Chitto",MS
39041,Bolton,MS
38829,Booneville,MS
38730,Boyle,MS
39042,Brandon,MS
39043,Brandon,MS
39208,Brandon,MS
39044,Braxton,MS
39601,Brookhaven,MS
39602,Brookhaven,MS
39603,Brookhaven,MS
39629,Brookhaven,MS
39425,Brooklyn,MS
39739,Brooksville,MS
38915,Bruce,MS
39322,Buckatunna,MS
39630,Bude,MS
38833,Burnsville,MS
38611,Byhalia,MS
39170,Byram,MS
39212,Byram,MS
39272,Byram,MS
39740,Caledonia,MS
38916,"Calhoun City",MS
39045,Camden,MS
39046,Canton,MS
39110,Canton,MS
39426,Carriere,MS
38917,Carrollton,MS
39427,Carson,MS
39051,Carthage,MS
39054,Cary,MS
39159,Cary,MS
38920,Cascilla,MS
39741,Cedarbluff,MS
39631,Centreville,MS
38921,Charleston,MS
39632,Chatawa,MS
38731,Chatham,MS
39323,Chunky,MS
39324,Clara,MS
39367,Clara,MS
38614,Clarksdale,MS
38645,Clarksdale,MS
38732,Cleveland,MS
39041,Clinton,MS
39056,Clinton,MS
39058,Clinton,MS
39060,Clinton,MS
39154,Clinton,MS
39209,Clinton,MS
39213,Clinton,MS
38617,Coahoma,MS
38922,Coffeeville,MS
38923,Coila,MS
38618,Coldwater,MS
39428,Collins,MS
39325,Collinsville,MS
39429,Columbia,MS
39701,Columbus,MS
39702,Columbus,MS
39703,Columbus,MS
39704,Columbus,MS
39705,Columbus,MS
39710,Columbus,MS
38619,Como,MS
39057,Conehatta,MS
38834,Corinth,MS
38835,Corinth,MS
38620,Courtland,MS
39743,Crawford,MS
38621,Crenshaw,MS
39633,Crosby,MS
38622,Crowder,MS
38924,Cruger,MS
39059,"Crystal Springs",MS
39062,"D Lo",MS
39326,Daleville,MS
38623,Darling,MS
39328,"De Kalb",MS
39327,Decatur,MS
39061,"Delta City",MS
38838,Dennis,MS
38839,Derma,MS
38916,Derma,MS
39525,Diamondhead,MS
39556,Diamondhead,MS
39540,Diberville,MS
38736,Doddsville,MS
38737,Drew,MS
38739,Dublin,MS
38925,"Duck Hill",MS
38625,Dumas,MS
38663,Dumas,MS
38740,Duncan,MS
38774,Duncan,MS
38626,Dundee,MS
39063,Durant,MS
39436,Eastabuchie,MS
38841,Ecru,MS
38863,Ecru,MS
39066,Edwards,MS
38901,Elliott,MS
38925,Elliott,MS
38926,Elliott,MS
39437,Ellisville,MS
39440,Ellisville,MS
38927,Enid,MS
39330,Enterprise,MS
39552,Escatawpa,MS
39562,Escatawpa,MS
39067,Ethel,MS
38627,Etta,MS
39744,Eupora,MS
38670,Falcon,MS
38629,Falkner,MS
38614,Farrell,MS
38630,Farrell,MS
39069,Fayette,MS
39635,Fernwood,MS
39071,Flora,MS
39073,Florence,MS
39218,Florence,MS
39042,Flowood,MS
39047,Flowood,MS
39208,Flowood,MS
39232,Flowood,MS
39074,Forest,MS
39117,Forest,MS
39483,Foxworth,MS
39745,"French Camp",MS
38631,"Friars Point",MS
38843,Fulton,MS
39077,Gallman,MS
38844,Gattman,MS
39740,Gattman,MS
39553,Gautier,MS
39564,Gautier,MS
39565,Gautier,MS
39078,Georgetown,MS
38834,Glen,MS
38846,Glen,MS
38744,"Glen Allan",MS
38928,Glendora,MS
39638,Gloster,MS
38847,Golden,MS
39079,Goodman,MS
38929,"Gore Springs",MS
38745,Grace,MS
38701,Greenville,MS
38702,Greenville,MS
38703,Greenville,MS
38704,Greenville,MS
38930,Greenwood,MS
38935,Greenwood,MS
38941,Greenwood,MS
38954,Greenwood,MS
38848,"Greenwood Springs",MS
38901,Grenada,MS
38902,Grenada,MS
38960,Grenada,MS
39501,Gulfport,MS
39502,Gulfport,MS
39503,Gulfport,MS
39505,Gulfport,MS
39506,Gulfport,MS
39507,Gulfport,MS
38746,Gunnison,MS
38849,Guntown,MS
39746,Hamilton,MS
39080,Harperville,MS
39081,Harriston,MS
39082,Harrisville,MS
39401,Hattiesburg,MS
39402,Hattiesburg,MS
39403,Hattiesburg,MS
39404,Hattiesburg,MS
39406,Hattiesburg,MS
39407,Hattiesburg,MS
39083,Hazlehurst,MS
39439,Heidelberg,MS
39086,Hermanville,MS
38632,Hernando,MS
38651,Hernando,MS
39332,Hickory,MS
38633,"Hickory Flat",MS
39074,Hillsboro,MS
39087,Hillsboro,MS
38940,Holcomb,MS
38748,Hollandale,MS
39088,"Holly Bluff",MS
38749,"Holly Ridge",MS
38634,"Holly Springs",MS
38635,"Holly Springs",MS
38637,"Horn Lake",MS
38651,"Horn Lake",MS
38671,"Horn Lake",MS
38850,Houlka,MS
38851,Houston,MS
39555,Hurley,MS
39562,Hurley,MS
38638,Independence,MS
38751,Indianola,MS
38753,Inverness,MS
38754,Isola,MS
38941,"Itta Bena",MS
38852,Iuka,MS
39056,Jackson,MS
39174,Jackson,MS
39201,Jackson,MS
39202,Jackson,MS
39203,Jackson,MS
39204,Jackson,MS
39205,Jackson,MS
39206,Jackson,MS
39207,Jackson,MS
39208,Jackson,MS
39209,Jackson,MS
39210,Jackson,MS
39211,Jackson,MS
39212,Jackson,MS
39213,Jackson,MS
39215,Jackson,MS
39216,Jackson,MS
39217,Jackson,MS
39225,Jackson,MS
39232,Jackson,MS
39235,Jackson,MS
39236,Jackson,MS
39250,Jackson,MS
39271,Jackson,MS
39272,Jackson,MS
39282,Jackson,MS
39283,Jackson,MS
39284,Jackson,MS
39286,Jackson,MS
39288,Jackson,MS
39289,Jackson,MS
39296,Jackson,MS
39298,Jackson,MS
39641,Jayess,MS
38639,Jonestown,MS
38645,Jonestown,MS
39747,Kilmichael,MS
39556,Kiln,MS
39643,Kokomo,MS
39090,Kosciusko,MS
39092,Lake,MS
38641,"Lake Cormorant",MS
39558,Lakeshore,MS
38642,Lamar,MS
38643,Lambert,MS
39335,Lauderdale,MS
39440,Laurel,MS
39441,Laurel,MS
39442,Laurel,MS
39443,Laurel,MS
39336,Lawrence,MS
39451,Leakesville,MS
38756,Leland,MS
39094,Lena,MS
39095,Lexington,MS
39645,Liberty,MS
39337,"Little Rock",MS
39560,"Long Beach",MS
39096,Lorman,MS
39338,Louin,MS
39097,Louise,MS
39339,Louisville,MS
39452,Lucedale,MS
39098,Ludlow,MS
38617,Lula,MS
38644,Lula,MS
39455,Lumberton,MS
38614,Lyon,MS
38645,Lyon,MS
39750,Maben,MS
39341,Macon,MS
39109,Madden,MS
39110,Madison,MS
39130,Madison,MS
39157,Madison,MS
39111,Magee,MS
39114,Magee,MS
39648,Magnolia,MS
39652,Magnolia,MS
38855,Mantachie,MS
39751,Mantee,MS
38856,Marietta,MS
39301,Marion,MS
39305,Marion,MS
39342,Marion,MS
38646,Marks,MS
39752,Mathiston,MS
39113,Mayersville,MS
39159,Mayersville,MS
39753,Mayhew,MS
39107,"Mc Adams",MS
39647,"Mc Call Creek",MS
38943,"Mc Carley",MS
39648,"Mc Comb",MS
39108,"Mc Cool",MS
39561,"Mc Henry",MS
39456,"Mc Lain",MS
39457,"Mc Neill",MS
39653,Meadville,MS
39114,Mendenhall,MS
39301,Meridian,MS
39302,Meridian,MS
39303,Meridian,MS
39304,Meridian,MS
39305,Meridian,MS
39307,Meridian,MS
39309,Meridian,MS
39342,Meridian,MS
38759,Merigold,MS
38703,Metcalfe,MS
38760,Metcalfe,MS
38647,"Michigan City",MS
39115,Midnight,MS
38944,"Minter City",MS
39759,"Mississippi State",MS
39762,"Mississippi State",MS
39116,Mize,MS
38945,Money,MS
39654,Monticello,MS
39663,Monticello,MS
39754,Montpelier,MS
38857,Mooreville,MS
38761,Moorhead,MS
38946,"Morgan City",MS
39117,Morton,MS
39459,Moselle,MS
39460,Moss,MS
39562,"Moss Point",MS
39563,"Moss Point",MS
38762,"Mound Bayou",MS
39119,"Mount Olive",MS
38635,"Mount Pleasant",MS
38650,Myrtle,MS
39120,Natchez,MS
39121,Natchez,MS
39122,Natchez,MS
39461,Neely,MS
38651,Nesbit,MS
38858,Nettleton,MS
38652,"New Albany",MS
39423,"New Augusta",MS
39462,"New Augusta",MS
38859,"New Site",MS
39140,Newhebron,MS
39345,Newton,MS
39466,Nicholson,MS
38917,"North Carrollton",MS
38947,"North Carrollton",MS
39346,Noxapater,MS
39656,"Oak Vale",MS
38948,Oakland,MS
39564,"Ocean Springs",MS
39566,"Ocean Springs",MS
38860,Okolona,MS
38654,"Olive Branch",MS
39657,Osyka,MS
39464,Ovett,MS
38655,Oxford,MS
38677,Oxford,MS
38764,Pace,MS
39330,Pachuta,MS
39347,Pachuta,MS
38765,"Panther Burn",MS
38738,Parchman,MS
38949,Paris,MS
39563,Pascagoula,MS
39567,Pascagoula,MS
39568,Pascagoula,MS
39569,Pascagoula,MS
39581,Pascagoula,MS
39595,Pascagoula,MS
39560,"Pass Christian",MS
39571,"Pass Christian",MS
39144,Pattison,MS
39348,Paulding,MS
39042,Pearl,MS
39208,Pearl,MS
39232,Pearl,MS
39572,Pearlington,MS
39042,Pelahatchie,MS
39145,Pelahatchie,MS
39161,Pelahatchie,MS
39573,Perkinston,MS
39465,Petal,MS
39755,Pheba,MS
39350,Philadelphia,MS
38950,Philipp,MS
39426,Picayune,MS
39463,Picayune,MS
39466,Picayune,MS
39146,Pickens,MS
39148,"Piney Woods",MS
39149,Pinola,MS
38951,Pittsboro,MS
38801,Plantersville,MS
38804,Plantersville,MS
38862,Plantersville,MS
39072,Pocahontas,MS
38863,Pontotoc,MS
38658,Pope,MS
39470,Poplarville,MS
39150,"Port Gibson",MS
39352,Porterville,MS
38659,"Potts Camp",MS
39756,Prairie,MS
39474,Prentiss,MS
39354,Preston,MS
39042,Puckett,MS
39114,Puckett,MS
39151,Puckett,MS
39152,Pulaski,MS
39475,Purvis,MS
39355,Quitman,MS
39153,Raleigh,MS
38864,Randolph,MS
39154,Raymond,MS
38661,"Red Banks",MS
39156,Redwood,MS
38767,"Rena Lara",MS
39073,Richland,MS
39208,Richland,MS
39218,Richland,MS
39232,Richland,MS
39476,Richton,MS
39110,Ridgeland,MS
39157,Ridgeland,MS
39158,Ridgeland,MS
39213,Ridgeland,MS
38865,Rienzi,MS
38663,Ripley,MS
38664,Robinsonville,MS
39159,"Rolling Fork",MS
38768,Rome,MS
39356,"Rose Hill",MS
38769,Rosedale,MS
39661,Roxie,MS
38771,Ruleville,MS
39662,Ruth,MS
39160,Sallis,MS
38866,Saltillo,MS
39439,Sandersville,MS
39443,Sandersville,MS
39477,Sandersville,MS
39161,Sandhill,MS
39478,"Sandy Hook",MS
38665,Sarah,MS
38666,Sardis,MS
39162,Satartia,MS
39574,Saucier,MS
38952,Schlater,MS
38953,Scobey,MS
39358,Scooba,MS
38772,Scott,MS
39189,Sebastopol,MS
39359,Sebastopol,MS
39479,Seminary,MS
38668,Senatobia,MS
38868,Shannon,MS
39443,Sharon,MS
38773,Shaw,MS
38774,Shelby,MS
38669,Sherard,MS
38804,Sherman,MS
38826,Sherman,MS
38828,Sherman,MS
38869,Sherman,MS
39360,Shubuta,MS
39361,Shuqualak,MS
39165,Sibley,MS
38954,Sidon,MS
39166,"Silver City",MS
39663,"Silver Creek",MS
38955,"Slate Spring",MS
38670,Sledge,MS
39664,Smithdale,MS
38870,Smithville,MS
39665,Sontag,MS
39443,Soso,MS
39480,Soso,MS
38637,Southaven,MS
38651,Southaven,MS
38654,Southaven,MS
38671,Southaven,MS
38672,Southaven,MS
38680,Southaven,MS
39167,Star,MS
39759,Starkville,MS
39760,Starkville,MS
39762,Starkville,MS
39362,"State Line",MS
39766,Steens,MS
39767,Stewart,MS
38776,Stoneville,MS
39330,Stonewall,MS
39363,Stonewall,MS
39460,Stringer,MS
39769,Sturgis,MS
39648,Summit,MS
39666,Summit,MS
38957,Sumner,MS
39482,Sumrall,MS
38778,Sunflower,MS
38958,"Swan Lake",MS
38959,Swiftown,MS
38655,Taylor,MS
38673,Taylor,MS
39168,Taylorsville,MS
39169,Tchula,MS
39170,Terry,MS
38863,Thaxton,MS
38871,Thaxton,MS
39171,Thomastown,MS
38960,"Tie Plant",MS
38961,Tillatoba,MS
39173,Tinsley,MS
38674,Tiplersville,MS
38962,Tippo,MS
38873,Tishomingo,MS
38863,Toccopola,MS
38871,Toccopola,MS
38874,Toccopola,MS
39364,Toomsuba,MS
39174,Tougaloo,MS
38875,Trebloc,MS
38876,Tremont,MS
38675,Tula,MS
38676,Tunica,MS
38801,Tupelo,MS
38802,Tupelo,MS
38803,Tupelo,MS
38804,Tupelo,MS
38826,Tupelo,MS
38866,Tupelo,MS
38963,Tutwiler,MS
39667,Tylertown,MS
39365,Union,MS
39668,"Union Church",MS
38655,University,MS
38677,University,MS
39175,Utica,MS
39176,Vaiden,MS
39177,"Valley Park",MS
38877,"Van Vleet",MS
38964,Vance,MS
38878,Vardaman,MS
39179,Vaughan,MS
38801,Verona,MS
38879,Verona,MS
39180,Vicksburg,MS
39181,Vicksburg,MS
39182,Vicksburg,MS
39183,Vicksburg,MS
38679,Victoria,MS
39366,Vossburg,MS
38641,Walls,MS
38680,Walls,MS
38686,Walls,MS
38683,Walnut,MS
39189,"Walnut Grove",MS
39744,Walthall,MS
39771,Walthall,MS
39190,Washington,MS
38965,"Water Valley",MS
38685,Waterford,MS
39520,Waveland,MS
39576,Waveland,MS
39367,Waynesboro,MS
38780,Wayside,MS
38966,Webb,MS
39772,Weir,MS
39191,Wesson,MS
39192,West,MS
39773,"West Point",MS
38880,Wheeler,MS
39193,Whitfield,MS
39577,Wiggins,MS
38967,Winona,MS
38762,Winstonville,MS
38781,Winstonville,MS
38782,Winterville,MS
39776,Woodland,MS
39669,Woodville,MS
39194,"Yazoo City",MS
39096,"Alcorn State University",MS
39402,"Arnold Line",MS
39520,"Bay St. Louis",MS
39556,"Bay St. Louis",MS
39191,Beauregard,MS
39180,Beechwood,MS
39562,"Big Point",MS
38651,Bridgetown,MS
39073,Cleary,MS
39120,Cloverdale,MS
39705,"Columbus Afb",MS
39571,Delisle,MS
39532,D'iberville,MS
39540,D'iberville,MS
39062,D'lo,MS
39194,Eden,MS
38834,Farmington,MS
39401,Glendale,MS
39564,"Gulf Hills",MS
39564,"Gulf Park Estates",MS
38821,Hatley,MS
39562,Helena,MS
39571,"Henderson Point",MS
39426,"Hide-a-way Lake",MS
38829,Jumpertown,MS
38865,Jumpertown,MS
39071,"Kearney Park",MS
38834,Kossuth,MS
39532,Latimer,MS
39565,Latimer,MS
39154,Learned,MS
39503,Lyman,MS
38680,Lynchburg,MS
39648,Mccomb,MS
39649,Mccomb,MS
39108,Mccool,MS
39456,Mclain,MS
39305,"Meridian Station",MS
39309,"Meridian Station",MS
39335,"Meridian Station",MS
38941,"Mississippi Valley State University",MS
39338,Montrose,MS
39120,Morgantown,MS
39305,Nellieburg,MS
39307,Nellieburg,MS
39746,"New Hamilton",MS
39140,"New Hebron",MS
39702,"New Hope",MS
38850,"New Houlka",MS
38676,"North Tunica",MS
38873,Paden,MS
39051,"Pearl River",MS
39350,"Pearl River",MS
39042,Polkville,MS
39117,Polkville,MS
39402,"Rawls Springs",MS
39051,Redwater,MS
38732,Renova,MS
39042,Robinhood,MS
38916,"Slate Springs",MS
38955,"Slate Springs",MS
38603,"Snow Lake Shores",MS
39051,"Standing Pine",MS
39189,"Standing Pine",MS
39532,"St. Martin",MS
39153,Sylvarena,MS
39422,Sylvarena,MS
39350,Tucker,MS
38664,"Tunica Resorts",MS
39565,Vancleave,MS
39562,Wade,MS
39402,"West Hattiesburg",MS
38676,"White Oak",MS
