zipcode,city,state
61410,Abingdon,IL
61411,Adair,IL
62214,Addieville,IL
60101,Addison,IL
60143,Addison,IL
60148,Addison,IL
60191,Addison,IL
62890,Akin,IL
61230,Albany,IL
62215,Albers,IL
62265,Albers,IL
62806,Albion,IL
60001,Alden,IL
60033,Alden,IL
60034,Alden,IL
61231,Aledo,IL
62601,Alexander,IL
61412,Alexis,IL
60013,Algonquin,IL
60102,Algonquin,IL
60118,Algonquin,IL
60142,Algonquin,IL
60156,Algonquin,IL
62001,Alhambra,IL
62410,Allendale,IL
61810,Allerton,IL
62807,Alma,IL
61413,Alpha,IL
62082,Alsey,IL
62610,Alsey,IL
62694,Alsey,IL
60406,Alsip,IL
60482,Alsip,IL
60803,Alsip,IL
62411,Altamont,IL
62905,"Alto Pass",IL
62920,"Alto Pass",IL
62002,Alton,IL
62010,Alton,IL
62018,Alton,IL
62035,Alton,IL
61414,Altona,IL
61811,Alvin,IL
61021,Amboy,IL
61310,Amboy,IL
60666,"Amf Ohare",IL
61720,Anchor,IL
61311,Ancona,IL
61232,Andalusia,IL
61264,Andalusia,IL
61284,Andalusia,IL
61233,Andover,IL
61238,Andover,IL
61262,Andover,IL
62906,Anna,IL
62413,Annapolis,IL
61234,Annawan,IL
61344,Annawan,IL
60002,Antioch,IL
61001,"Apple River",IL
61910,Arcola,IL
62611,Arenzville,IL
62501,Argenta,IL
61312,Arlington,IL
60004,"Arlington Heights",IL
60005,"Arlington Heights",IL
60006,"Arlington Heights",IL
60008,"Arlington Heights",IL
60090,"Arlington Heights",IL
61721,Armington,IL
61812,Armstrong,IL
60901,"Aroma Park",IL
60910,"Aroma Park",IL
60964,"Aroma Park",IL
61722,Arrowsmith,IL
61911,Arthur,IL
60911,Ashkum,IL
62612,Ashland,IL
62808,Ashley,IL
61912,Ashmore,IL
61006,Ashton,IL
62510,Assumption,IL
61501,Astoria,IL
62613,Athens,IL
61235,Atkinson,IL
61723,Atlanta,IL
61913,Atwood,IL
62441,Auburn,IL
62442,Auburn,IL
62615,Auburn,IL
62311,Augusta,IL
60502,Aurora,IL
60503,Aurora,IL
60504,Aurora,IL
60505,Aurora,IL
60506,Aurora,IL
60507,Aurora,IL
60542,Aurora,IL
60543,Aurora,IL
60563,Aurora,IL
60564,Aurora,IL
60568,Aurora,IL
60572,Aurora,IL
60585,Aurora,IL
60597,Aurora,IL
60598,Aurora,IL
62907,Ava,IL
62216,Aviston,IL
60030,Avon,IL
60046,Avon,IL
60073,Avon,IL
61415,Avon,IL
61007,Baileyville,IL
62217,Baldwin,IL
61416,Bardolph,IL
61455,Bardolph,IL
62809,Barnhill,IL
62820,Barnhill,IL
62837,Barnhill,IL
60010,Barrington,IL
60011,Barrington,IL
62312,Barry,IL
61236,Barstow,IL
62218,Bartelso,IL
60103,Bartlett,IL
60120,Bartlett,IL
60185,Bartlett,IL
62313,Basco,IL
60134,Batavia,IL
60502,Batavia,IL
60510,Batavia,IL
62006,Batchtown,IL
62617,Bath,IL
62314,Baylis,IL
62618,Beardstown,IL
62512,Beason,IL
60912,Beaverville,IL
62219,Beckemeyer,IL
60455,"Bedford Park",IL
60499,"Bedford Park",IL
60501,"Bedford Park",IL
60629,"Bedford Park",IL
60638,"Bedford Park",IL
60401,Beecher,IL
62414,"Beecher City",IL
62908,Belknap,IL
62810,"Belle Rive",IL
62207,Belleville,IL
62220,Belleville,IL
62221,Belleville,IL
62223,Belleville,IL
62226,Belleville,IL
62243,Belleville,IL
61724,Bellflower,IL
62811,Bellmont,IL
60104,Bellwood,IL
61008,Belvidere,IL
61813,Bement,IL
62009,Benld,IL
60007,Bensenville,IL
60105,Bensenville,IL
60106,Bensenville,IL
60131,Bensenville,IL
60399,Bensenville,IL
61516,Benson,IL
60083,Benton,IL
60087,Benton,IL
60096,Benton,IL
60099,Benton,IL
62812,Benton,IL
62897,Benton,IL
60163,Berkeley,IL
60164,Berkeley,IL
61410,Berwick,IL
61415,Berwick,IL
61417,Berwick,IL
61473,Berwick,IL
61474,Berwick,IL
60402,Berwyn,IL
62010,Bethalto,IL
62018,Bethalto,IL
62024,Bethalto,IL
61914,Bethany,IL
60511,"Big Rock",IL
60554,"Big Rock",IL
61418,Biggsville,IL
62011,Bingham,IL
61419,"Bishop Hill",IL
61814,Bismarck,IL
61313,Blackstone,IL
61420,Blandinsville,IL
60101,Bloomingdale,IL
60108,Bloomingdale,IL
60117,Bloomingdale,IL
60172,Bloomingdale,IL
61701,Bloomington,IL
61702,Bloomington,IL
61704,Bloomington,IL
61705,Bloomington,IL
61709,Bloomington,IL
61710,Bloomington,IL
61761,Bloomington,IL
61791,Bloomington,IL
61799,Bloomington,IL
60406,"Blue Island",IL
60827,"Blue Island",IL
61730,"Blue Mound",IL
61737,"Blue Mound",IL
61753,"Blue Mound",IL
61761,"Blue Mound",IL
61776,"Blue Mound",IL
62513,"Blue Mound",IL
62618,"Bluff Springs",IL
62622,"Bluff Springs",IL
62691,"Bluff Springs",IL
62621,Bluffs,IL
62814,Bluford,IL
62909,Boles,IL
60440,Bolingbrook,IL
60446,Bolingbrook,IL
60490,Bolingbrook,IL
60517,Bolingbrook,IL
60544,Bolingbrook,IL
60585,Bolingbrook,IL
61815,Bondville,IL
61822,Bondville,IL
62815,"Bone Gap",IL
60913,Bonfield,IL
62816,Bonnie,IL
62514,Boody,IL
62544,Boody,IL
60914,Bourbonnais,IL
60950,Bourbonnais,IL
62316,Bowen,IL
60407,Braceville,IL
60408,Braceville,IL
61006,Bradford,IL
61031,Bradford,IL
61310,Bradford,IL
61378,Bradford,IL
61421,Bradford,IL
60901,Bradley,IL
60914,Bradley,IL
60915,Bradley,IL
62280,Bradley,IL
62907,Bradley,IL
62916,Bradley,IL
60407,Braidwood,IL
60408,Braidwood,IL
60416,Braidwood,IL
60481,Braidwood,IL
62230,Breese,IL
62417,Bridgeport,IL
60455,Bridgeview,IL
60501,Bridgeview,IL
62012,Brighton,IL
61517,Brimfield,IL
60512,Bristol,IL
60538,Bristol,IL
60543,Bristol,IL
60545,Bristol,IL
60554,Bristol,IL
60560,Bristol,IL
61816,Broadlands,IL
60155,Broadview,IL
61917,Brocton,IL
60470,Brookfield,IL
60513,Brookfield,IL
61325,Brookfield,IL
61341,Brookfield,IL
61360,Brookfield,IL
62910,Brookport,IL
60917,Broughton,IL
60919,Broughton,IL
60920,Broughton,IL
60934,Broughton,IL
60946,Broughton,IL
62817,Broughton,IL
62624,Browning,IL
62812,Browning,IL
62819,Browning,IL
62822,Browning,IL
62865,Browning,IL
62884,Browning,IL
62891,Browning,IL
62818,Browns,IL
62418,Brownstown,IL
62013,Brussels,IL
61519,Bryant,IL
60917,Buckingham,IL
60918,Buckley,IL
62812,Buckner,IL
62819,Buckner,IL
61314,Buda,IL
61064,Buffalo,IL
62515,Buffalo,IL
60049,"Buffalo Grove",IL
60069,"Buffalo Grove",IL
60089,"Buffalo Grove",IL
61259,"Buffalo Prairie",IL
61260,"Buffalo Prairie",IL
61279,"Buffalo Prairie",IL
61284,"Buffalo Prairie",IL
62517,Bulpitt,IL
62912,Buncombe,IL
62014,"Bunker Hill",IL
60459,Burbank,IL
61356,Bureau,IL
61376,Bureau,IL
61379,Bureau,IL
60109,Burlington,IL
60140,Burlington,IL
60178,Burlington,IL
62820,"Burnt Prairie",IL
61422,Bushnell,IL
60932,Butler,IL
60942,Butler,IL
60960,Butler,IL
60963,Butler,IL
62015,Butler,IL
61010,Byron,IL
60919,Cabery,IL
62914,Cairo,IL
61011,Caledonia,IL
62419,Calhoun,IL
60409,"Calumet City",IL
60473,"Calumet City",IL
61919,Camargo,IL
62915,Cambria,IL
62918,Cambria,IL
61238,Cambridge,IL
62319,Camden,IL
61423,Cameron,IL
61424,"Camp Grove",IL
62320,"Camp Point",IL
62916,"Campbell Hill",IL
60920,Campus,IL
61520,Canton,IL
62625,Cantrall,IL
61012,Capron,IL
61239,"Carbon Cliff",IL
61244,"Carbon Cliff",IL
61282,"Carbon Cliff",IL
62901,Carbondale,IL
62902,Carbondale,IL
62903,Carbondale,IL
62966,Carbondale,IL
62626,Carlinville,IL
61725,Carlock,IL
62231,Carlyle,IL
61425,Carman,IL
62821,Carmi,IL
60103,"Carol Stream",IL
60108,"Carol Stream",IL
60116,"Carol Stream",IL
60125,"Carol Stream",IL
60128,"Carol Stream",IL
60132,"Carol Stream",IL
60185,"Carol Stream",IL
60188,"Carol Stream",IL
60197,"Carol Stream",IL
60110,Carpentersville,IL
60118,Carpentersville,IL
62917,"Carrier Mills",IL
62016,Carrollton,IL
62901,Carterville,IL
62918,Carterville,IL
62321,Carthage,IL
60013,Cary,IL
62420,Casey,IL
62203,Caseyville,IL
62204,Caseyville,IL
62208,Caseyville,IL
62232,Caseyville,IL
62234,Caseyville,IL
61426,Castleton,IL
61817,Catlin,IL
62919,"Cave In Rock",IL
61316,"Cedar Point",IL
61354,"Cedar Point",IL
61013,Cedarville,IL
61032,Cedarville,IL
62801,Centralia,IL
61818,"Cerro Gordo",IL
61014,Chadwick,IL
62323,Chambersburg,IL
62340,Chambersburg,IL
61820,Champaign,IL
61821,Champaign,IL
61822,Champaign,IL
61824,Champaign,IL
61825,Champaign,IL
61826,Champaign,IL
61015,Chana,IL
62627,Chandlerville,IL
60404,Channahon,IL
60410,Channahon,IL
60436,Channahon,IL
60447,Channahon,IL
60450,Channahon,IL
60481,Channahon,IL
62628,Chapin,IL
61920,Charleston,IL
61938,Charleston,IL
62536,Chatham,IL
62615,Chatham,IL
62629,Chatham,IL
60921,Chatsworth,IL
60922,Chebanse,IL
61726,Chenoa,IL
61312,Cherry,IL
61317,Cherry,IL
61008,"Cherry Valley",IL
61016,"Cherry Valley",IL
61108,"Cherry Valley",IL
61109,"Cherry Valley",IL
61112,"Cherry Valley",IL
62233,Chester,IL
62512,Chester,IL
62548,Chester,IL
62656,Chester,IL
62630,Chesterfield,IL
61410,Chestnut,IL
61436,Chestnut,IL
61458,Chestnut,IL
61474,Chestnut,IL
61544,Chestnut,IL
62518,Chestnut,IL
60007,Chicago,IL
60018,Chicago,IL
60106,Chicago,IL
60131,Chicago,IL
60290,Chicago,IL
60601,Chicago,IL
60602,Chicago,IL
60603,Chicago,IL
60604,Chicago,IL
60605,Chicago,IL
60606,Chicago,IL
60607,Chicago,IL
60608,Chicago,IL
60609,Chicago,IL
60610,Chicago,IL
60611,Chicago,IL
60612,Chicago,IL
60613,Chicago,IL
60614,Chicago,IL
60615,Chicago,IL
60616,Chicago,IL
60617,Chicago,IL
60618,Chicago,IL
60619,Chicago,IL
60620,Chicago,IL
60621,Chicago,IL
60622,Chicago,IL
60623,Chicago,IL
60624,Chicago,IL
60625,Chicago,IL
60626,Chicago,IL
60628,Chicago,IL
60629,Chicago,IL
60630,Chicago,IL
60631,Chicago,IL
60632,Chicago,IL
60633,Chicago,IL
60634,Chicago,IL
60636,Chicago,IL
60637,Chicago,IL
60638,Chicago,IL
60639,Chicago,IL
60640,Chicago,IL
60641,Chicago,IL
60642,Chicago,IL
60643,Chicago,IL
60644,Chicago,IL
60645,Chicago,IL
60646,Chicago,IL
60647,Chicago,IL
60649,Chicago,IL
60651,Chicago,IL
60652,Chicago,IL
60653,Chicago,IL
60654,Chicago,IL
60655,Chicago,IL
60656,Chicago,IL
60657,Chicago,IL
60659,Chicago,IL
60660,Chicago,IL
60661,Chicago,IL
60663,Chicago,IL
60664,Chicago,IL
60666,Chicago,IL
60668,Chicago,IL
60669,Chicago,IL
60670,Chicago,IL
60673,Chicago,IL
60674,Chicago,IL
60675,Chicago,IL
60677,Chicago,IL
60678,Chicago,IL
60679,Chicago,IL
60680,Chicago,IL
60681,Chicago,IL
60684,Chicago,IL
60685,Chicago,IL
60686,Chicago,IL
60687,Chicago,IL
60688,Chicago,IL
60689,Chicago,IL
60690,Chicago,IL
60691,Chicago,IL
60693,Chicago,IL
60694,Chicago,IL
60695,Chicago,IL
60696,Chicago,IL
60697,Chicago,IL
60707,Chicago,IL
60714,Chicago,IL
60804,Chicago,IL
60827,Chicago,IL
60411,"Chicago Heights",IL
60412,"Chicago Heights",IL
60415,"Chicago Ridge",IL
60453,"Chicago Ridge",IL
61523,Chillicothe,IL
61924,Chrisman,IL
62822,Christopher,IL
62865,Christopher,IL
60804,Cicero,IL
61830,Cisco,IL
62823,Cisne,IL
60924,"Cissna Park",IL
60111,Clare,IL
62421,Claremont,IL
60514,"Clarendon Hills",IL
62824,"Clay City",IL
61516,Clayton,IL
61760,Clayton,IL
62324,Clayton,IL
60926,Claytonville,IL
60927,Clifton,IL
60518,Clinton,IL
60520,Clinton,IL
60550,Clinton,IL
60556,Clinton,IL
61727,Clinton,IL
60407,"Coal City",IL
60416,"Coal City",IL
61240,"Coal Valley",IL
62325,Coatsburg,IL
62920,Cobden,IL
62825,Coello,IL
62017,Coffeen,IL
62326,Colchester,IL
61728,Colfax,IL
61822,Colfax,IL
61851,Colfax,IL
61872,Colfax,IL
61875,Colfax,IL
61880,Colfax,IL
61884,Colfax,IL
62232,Collinsville,IL
62234,Collinsville,IL
61831,Collison,IL
61240,Colona,IL
61241,Colona,IL
62921,Colp,IL
62236,Columbia,IL
62329,Colusa,IL
61318,Compton,IL
60931,Concord,IL
60945,Concord,IL
60966,Concord,IL
60970,Concord,IL
61314,Concord,IL
61361,Concord,IL
61379,Concord,IL
62320,Concord,IL
62324,Concord,IL
62628,Concord,IL
62631,Concord,IL
61729,Congerville,IL
61730,Cooksville,IL
61242,Cordova,IL
61319,Cornell,IL
62519,Cornland,IL
60112,Cortland,IL
60115,Cortland,IL
60151,Cortland,IL
62018,"Cottage Hills",IL
62237,Coulterville,IL
60478,"Country Club Hills",IL
62422,Cowden,IL
62922,"Creal Springs",IL
60928,"Crescent City",IL
60435,Cresthill,IL
60113,Creston,IL
61068,Creston,IL
60401,Crete,IL
60417,Crete,IL
61554,"Creve Coeur",IL
61610,"Creve Coeur",IL
61720,Cropsey,IL
61728,Cropsey,IL
61731,Cropsey,IL
62827,Crossville,IL
60012,"Crystal Lake",IL
60013,"Crystal Lake",IL
60014,"Crystal Lake",IL
60039,"Crystal Lake",IL
60098,"Crystal Lake",IL
60156,"Crystal Lake",IL
60010,Cuba,IL
60013,Cuba,IL
60021,Cuba,IL
61427,Cuba,IL
60929,Cullom,IL
62238,Cutler,IL
62923,Cypress,IL
61428,Dahinda,IL
62828,Dahlgren,IL
61018,Dakota,IL
61705,Dale,IL
61732,Dale,IL
61772,Dale,IL
61774,Dale,IL
62330,"Dallas City",IL
61925,"Dalton City",IL
61320,Dalzell,IL
61362,Dalzell,IL
61321,Dana,IL
60930,Danforth,IL
61732,Danvers,IL
61832,Danville,IL
61834,Danville,IL
60439,Darien,IL
60516,Darien,IL
60517,Darien,IL
60527,Darien,IL
60561,Darien,IL
61019,Davis,IL
61020,"Davis Junction",IL
61722,Dawson,IL
61736,Dawson,IL
61737,Dawson,IL
61752,Dawson,IL
62520,Dawson,IL
61839,"De Land",IL
62924,"De Soto",IL
62501,Decatur,IL
62521,Decatur,IL
62522,Decatur,IL
62523,Decatur,IL
62524,Decatur,IL
62525,Decatur,IL
62526,Decatur,IL
62535,Decatur,IL
62554,Decatur,IL
61733,"Deer Creek",IL
61243,"Deer Grove",IL
60015,Deerfield,IL
60062,Deerfield,IL
61427,Deerfield,IL
61431,Deerfield,IL
61477,Deerfield,IL
61520,Deerfield,IL
60115,Dekalb,IL
60178,Dekalb,IL
61734,Delavan,IL
62423,Dennison,IL
61322,Depue,IL
60007,"Des Plaines",IL
60016,"Des Plaines",IL
60017,"Des Plaines",IL
60018,"Des Plaines",IL
60019,"Des Plaines",IL
60068,"Des Plaines",IL
61840,Dewey,IL
61735,Dewitt,IL
62424,Dieterich,IL
62530,Divernon,IL
60933,Dix,IL
60936,Dix,IL
60952,Dix,IL
60957,Dix,IL
62830,Dix,IL
61021,Dixon,IL
60409,Dolton,IL
60419,Dolton,IL
60473,Dolton,IL
60827,Dolton,IL
62926,Dongola,IL
62019,Donnellson,IL
60931,Donovan,IL
62021,Dorsey,IL
61323,Dover,IL
61356,Dover,IL
62022,Dow,IL
62927,Dowell,IL
62932,Dowell,IL
60137,"Downers Grove",IL
60515,"Downers Grove",IL
60516,"Downers Grove",IL
61705,Downs,IL
61736,Downs,IL
62831,"Du Bois",IL
62832,"Du Quoin",IL
62425,Dundas,IL
60010,Dundee,IL
60102,Dundee,IL
60110,Dundee,IL
60118,Dundee,IL
60120,Dundee,IL
60123,Dundee,IL
60124,Dundee,IL
60136,Dundee,IL
61524,Dunfermline,IL
61525,Dunlap,IL
62236,Dupo,IL
62239,Dupo,IL
62240,Dupo,IL
61024,Durand,IL
60420,Dwight,IL
62023,Eagarville,IL
62069,Eagarville,IL
60518,Earlville,IL
62002,"East Alton",IL
62018,"East Alton",IL
62024,"East Alton",IL
62095,"East Alton",IL
62240,"East Carondelet",IL
61025,"East Dubuque",IL
61401,"East Galesburg",IL
61430,"East Galesburg",IL
61448,"East Galesburg",IL
60932,"East Lynn",IL
61236,"East Moline",IL
61244,"East Moline",IL
61257,"East Moline",IL
61275,"East Moline",IL
61571,"East Peoria",IL
61610,"East Peoria",IL
61611,"East Peoria",IL
62201,"East Saint Louis",IL
62633,Easton,IL
62928,Eddyville,IL
61526,Edelstein,IL
62426,Edgewood,IL
62531,Edinburg,IL
61528,Edwards,IL
62025,Edwardsville,IL
62026,Edwardsville,IL
62034,Edwardsville,IL
62040,Edwardsville,IL
62048,Edwardsville,IL
62401,Effingham,IL
62467,Effingham,IL
61738,"El Paso",IL
60119,Elburn,IL
61324,Eldena,IL
61411,Eldorado,IL
61440,Eldorado,IL
61482,Eldorado,IL
61484,Eldorado,IL
62930,Eldorado,IL
62027,Eldred,IL
61027,Eleroy,IL
60103,Elgin,IL
60118,Elgin,IL
60120,Elgin,IL
60121,Elgin,IL
60122,Elgin,IL
60123,Elgin,IL
60124,Elgin,IL
60140,Elgin,IL
60175,Elgin,IL
60177,Elgin,IL
61028,Elizabeth,IL
62931,Elizabethtown,IL
60007,"Elk Grove Village",IL
60009,"Elk Grove Village",IL
60018,"Elk Grove Village",IL
60191,"Elk Grove Village",IL
62634,Elkhart,IL
62932,Elkville,IL
62833,Ellery,IL
60933,Elliott,IL
62241,"Ellis Grove",IL
61431,Ellisville,IL
61737,Ellsworth,IL
60126,Elmhurst,IL
60523,Elmhurst,IL
61529,Elmwood,IL
60707,"Elmwood Park",IL
62028,Elsah,IL
62334,Elvaston,IL
62379,Elvaston,IL
62532,Elwin,IL
60421,Elwood,IL
61846,Elwood,IL
61850,Elwood,IL
61870,Elwood,IL
62635,Emden,IL
60934,Emington,IL
62821,Emma,IL
62834,Emma,IL
62861,Emma,IL
62867,Emma,IL
62933,Energy,IL
62835,Enfield,IL
60519,Eola,IL
62934,Equality,IL
61250,Erie,IL
60129,Esmond,IL
60935,Essex,IL
61483,Essex,IL
61491,Essex,IL
61559,Essex,IL
61530,Eureka,IL
60201,Evanston,IL
60202,Evanston,IL
60204,Evanston,IL
60208,Evanston,IL
60209,Evanston,IL
62242,Evansville,IL
60805,"Evergreen Park",IL
62836,Ewing,IL
61739,Fairbury,IL
61283,Fairfield,IL
61361,Fairfield,IL
62837,Fairfield,IL
61841,Fairmount,IL
62314,Fairmount,IL
62340,Fairmount,IL
61432,Fairview,IL
61544,Fairview,IL
62208,"Fairview Heights",IL
62223,"Fairview Heights",IL
62226,"Fairview Heights",IL
62232,"Fairview Heights",IL
62838,Farina,IL
62854,Farina,IL
61842,"Farmer City",IL
62533,Farmersville,IL
61529,Farmington,IL
61531,Farmington,IL
61250,Fenton,IL
61251,Fenton,IL
61270,Fenton,IL
61277,Fenton,IL
62321,Ferris,IL
62336,Ferris,IL
61433,Fiatt,IL
62030,Fidelity,IL
62031,Fieldon,IL
62032,Fillmore,IL
62534,Findlay,IL
61843,Fisher,IL
61844,Fithian,IL
61740,Flanagan,IL
62427,"Flat Rock",IL
60145,Flora,IL
60146,Flora,IL
61008,Flora,IL
61016,Flora,IL
62839,Flora,IL
60411,Flossmoor,IL
60422,Flossmoor,IL
60430,Flossmoor,IL
61845,Foosland,IL
61532,"Forest City",IL
61567,"Forest City",IL
60130,"Forest Park",IL
60153,"Forest Park",IL
60546,"Forest Park",IL
60682,"Forest Park",IL
61741,Forrest,IL
61030,Forreston,IL
62526,Forsyth,IL
62535,Forsyth,IL
60037,"Fort Sheridan",IL
62338,Fowler,IL
60002,"Fox Lake",IL
60020,"Fox Lake",IL
60041,"Fox Lake",IL
60050,"Fox Lake",IL
60081,"Fox Lake",IL
60021,"Fox River Grove",IL
60572,"Fox Valley",IL
60423,Frankfort,IL
60443,Frankfort,IL
60448,Frankfort,IL
60449,Frankfort,IL
62812,Frankfort,IL
62840,Frankfort,IL
62856,Frankfort,IL
62890,Frankfort,IL
62896,Frankfort,IL
62840,"Frankfort Heights",IL
60145,Franklin,IL
60146,Franklin,IL
62638,Franklin,IL
61031,"Franklin Grove",IL
60131,"Franklin Park",IL
60160,"Franklin Park",IL
62624,Frederick,IL
62639,Frederick,IL
62681,Frederick,IL
62221,Freeburg,IL
62243,Freeburg,IL
62841,"Freeman Spur",IL
62896,"Freeman Spur",IL
61032,Freeport,IL
61252,Fulton,IL
62244,Fults,IL
62935,Galatia,IL
61036,Galena,IL
61401,Galesburg,IL
61402,Galesburg,IL
61037,Galt,IL
61434,Galva,IL
61038,"Garden Prairie",IL
60424,Gardner,IL
62670,Gardner,IL
62677,Gardner,IL
62707,Gardner,IL
62711,Gardner,IL
61928,Gays,IL
62842,Geff,IL
61254,Geneseo,IL
60134,Geneva,IL
60185,Geneva,IL
60135,Genoa,IL
61455,Georgetown,IL
61846,Georgetown,IL
61435,Gerlaw,IL
61039,"German Valley",IL
62245,Germantown,IL
60936,"Gibson City",IL
61847,Gifford,IL
60118,Gilberts,IL
60136,Gilberts,IL
60142,Gilberts,IL
62033,Gillespie,IL
60938,Gilman,IL
61436,Gilson,IL
62640,Girard,IL
61437,Gladstone,IL
61533,Glasford,IL
62025,"Glen Carbon",IL
62034,"Glen Carbon",IL
62040,"Glen Carbon",IL
60137,"Glen Ellyn",IL
60138,"Glen Ellyn",IL
60189,"Glen Ellyn",IL
62536,Glenarm,IL
60022,Glencoe,IL
60093,Glencoe,IL
60101,"Glendale Heights",IL
60139,"Glendale Heights",IL
60016,Glenview,IL
60025,Glenview,IL
60026,Glenview,IL
60062,Glenview,IL
60093,Glenview,IL
60026,"Glenview Nas",IL
60411,Glenwood,IL
60425,Glenwood,IL
62002,Godfrey,IL
62012,Godfrey,IL
62035,Godfrey,IL
62938,Golconda,IL
62339,Golden,IL
62036,"Golden Eagle",IL
62843,"Golden Gate",IL
60029,Golf,IL
61438,"Good Hope",IL
61729,Goodfield,IL
61742,Goodfield,IL
60939,Goodwine,IL
62939,Goreville,IL
62972,Goreville,IL
62940,Gorham,IL
60014,Grafton,IL
60098,Grafton,IL
60102,Grafton,IL
60142,Grafton,IL
60156,Grafton,IL
62037,Grafton,IL
62941,"Grand Chain",IL
61325,"Grand Ridge",IL
62942,"Grand Tower",IL
62040,"Granite City",IL
62048,"Granite City",IL
60940,"Grant Park",IL
62943,Grantsburg,IL
61326,Granville,IL
61340,Granville,IL
61743,Graymont,IL
60030,Grayslake,IL
60046,Grayslake,IL
60048,Grayslake,IL
60060,Grayslake,IL
62844,Grayville,IL
60088,"Great Lakes",IL
61534,"Green Valley",IL
60407,Greenfield,IL
60424,Greenfield,IL
60474,Greenfield,IL
60961,Greenfield,IL
62044,Greenfield,IL
62428,Greenup,IL
62642,Greenview,IL
61283,Greenville,IL
61346,Greenville,IL
61376,Greenville,IL
62246,Greenville,IL
61744,Gridley,IL
62340,Griggsville,IL
61321,Groveland,IL
61358,Groveland,IL
61535,Groveland,IL
61550,Groveland,IL
61554,Groveland,IL
61610,Groveland,IL
61611,Groveland,IL
60031,Gurnee,IL
60048,Gurnee,IL
62247,Hagarstown,IL
62045,Hamburg,IL
62025,Hamel,IL
62046,Hamel,IL
62097,Hamel,IL
61042,Hamilton,IL
61376,Hamilton,IL
62341,Hamilton,IL
62379,Hamilton,IL
61929,Hammond,IL
60140,Hampshire,IL
52767,Hampton,IL
61244,Hampton,IL
61256,Hampton,IL
61536,"Hanna City",IL
60103,Hanover,IL
60107,Hanover,IL
60120,Hanover,IL
60133,Hanover,IL
60169,Hanover,IL
60192,Hanover,IL
60193,Hanover,IL
60194,Hanover,IL
61041,Hanover,IL
60103,"Hanover Park",IL
60133,"Hanover Park",IL
62047,Hardin,IL
62355,Hardin,IL
62361,Hardin,IL
62363,Hardin,IL
61042,Harmon,IL
62946,Harrisburg,IL
62522,Harristown,IL
62537,Harristown,IL
62551,Harristown,IL
62024,Hartford,IL
62048,Hartford,IL
62084,Hartford,IL
62087,Hartford,IL
62643,Hartsburg,IL
60033,Harvard,IL
62538,Harvel,IL
60426,Harvey,IL
60428,Harvey,IL
60706,"Harwood Heights",IL
62644,Havana,IL
60429,"Hazel Crest",IL
60430,"Hazel Crest",IL
60034,Hebron,IL
62248,Hecker,IL
61439,Henderson,IL
61327,Hennepin,IL
61811,Henning,IL
61848,Henning,IL
61865,Henning,IL
61537,Henry,IL
62947,Herod,IL
62431,Herrick,IL
62918,Herrin,IL
62933,Herrin,IL
62948,Herrin,IL
62959,Herrin,IL
60941,Herscher,IL
62649,Hettick,IL
61745,Heyworth,IL
60457,"Hickory Hills",IL
62432,Hidalgo,IL
60420,Highland,IL
60437,Highland,IL
60470,Highland,IL
60479,Highland,IL
62249,Highland,IL
60035,"Highland Park",IL
60035,Highwood,IL
60040,Highwood,IL
62049,Hillsboro,IL
62051,Hillsboro,IL
61257,Hillsdale,IL
60162,Hillside,IL
62050,Hillview,IL
60520,Hinckley,IL
61930,Hindsboro,IL
60141,Hines,IL
60521,Hinsdale,IL
60525,Hinsdale,IL
60527,Hinsdale,IL
60558,Hinsdale,IL
62250,Hoffman,IL
62801,Hoffman,IL
60010,"Hoffman Estates",IL
60067,"Hoffman Estates",IL
60107,"Hoffman Estates",IL
60118,"Hoffman Estates",IL
60120,"Hoffman Estates",IL
60169,"Hoffman Estates",IL
60179,"Hoffman Estates",IL
60192,"Hoffman Estates",IL
60195,"Hoffman Estates",IL
61043,Holcomb,IL
60432,Homer,IL
60439,Homer,IL
60441,Homer,IL
60448,Homer,IL
60467,Homer,IL
60491,Homer,IL
61849,Homer,IL
60456,Hometown,IL
60430,Homewood,IL
60942,Hoopeston,IL
61258,Hooppole,IL
61747,Hopedale,IL
60944,"Hopkins Park",IL
60958,"Hopkins Park",IL
62803,Hoyleton,IL
61748,Hudson,IL
62231,Huey,IL
62343,Hull,IL
61931,Humboldt,IL
61071,Hume,IL
61277,Hume,IL
61283,Hume,IL
61932,Hume,IL
60140,Huntley,IL
60142,Huntley,IL
62311,Huntsville,IL
62319,Huntsville,IL
62344,Huntsville,IL
62346,Huntsville,IL
62353,Huntsville,IL
62924,Hurst,IL
62949,Hurst,IL
62433,Hutsonville,IL
61259,"Illinois City",IL
62539,Illiopolis,IL
62846,Ina,IL
61850,Indianola,IL
61440,Industry,IL
60041,Ingleside,IL
62434,Ingraham,IL
61441,Ipava,IL
60945,Iroquois,IL
60970,Iroquois,IL
62051,Irving,IL
62801,Irvington,IL
62848,Irvington,IL
60042,"Island Lake",IL
60051,"Island Lake",IL
60084,"Island Lake",IL
60143,Itasca,IL
60191,Itasca,IL
62849,Iuka,IL
61813,Ivesdale,IL
61851,Ivesdale,IL
61856,Ivesdale,IL
62650,Jacksonville,IL
62651,Jacksonville,IL
62950,Jacob,IL
62435,Janesville,IL
62052,Jerseyville,IL
62436,Jewett,IL
62850,Johnsonville,IL
62951,"Johnston City",IL
60404,Joliet,IL
60410,Joliet,IL
60421,Joliet,IL
60431,Joliet,IL
60432,Joliet,IL
60433,Joliet,IL
60434,Joliet,IL
60435,Joliet,IL
60436,Joliet,IL
60441,Joliet,IL
60442,Joliet,IL
60447,Joliet,IL
60451,Joliet,IL
60544,Joliet,IL
60560,Joliet,IL
60586,Joliet,IL
62906,Jonesboro,IL
62952,Jonesboro,IL
62953,Joppa,IL
61260,Joy,IL
62954,Junction,IL
60458,Justice,IL
60501,Justice,IL
62053,Kampsville,IL
62054,Kane,IL
60119,Kaneville,IL
60144,Kaneville,IL
60901,Kankakee,IL
60915,Kankakee,IL
60922,Kankakee,IL
61725,Kansas,IL
61738,Kansas,IL
61748,Kansas,IL
61933,Kansas,IL
62955,"Karbers Ridge",IL
62941,Karnak,IL
62956,Karnak,IL
61328,Kasbeer,IL
62851,Keenes,IL
62852,Keensburg,IL
62863,Keensburg,IL
61442,Keithsburg,IL
62853,Kell,IL
60946,Kempton,IL
60043,Kenilworth,IL
61749,Kenney,IL
61044,Kent,IL
61048,Kent,IL
61062,Kent,IL
61443,Kewanee,IL
62253,Keyesport,IL
62655,Kilbourne,IL
62540,Kincaid,IL
62568,Kincaid,IL
62345,Kinderhook,IL
60145,Kingston,IL
61533,"Kingston Mines",IL
61539,"Kingston Mines",IL
61547,"Kingston Mines",IL
62854,Kinmundy,IL
60437,Kinsman,IL
60145,Kirkland,IL
60146,Kirkland,IL
61447,Kirkwood,IL
61448,Knoxville,IL
61449,"La Fayette",IL
60525,"La Grange",IL
60526,"La Grange Park",IL
61450,"La Harpe",IL
61330,"La Moille",IL
61936,"La Place",IL
61479,"La Prairie",IL
61491,"La Prairie",IL
61523,"La Prairie",IL
61526,"La Prairie",IL
61565,"La Prairie",IL
62346,"La Prairie",IL
61541,"La Rose",IL
61570,"La Rose",IL
61301,"La Salle",IL
61540,Lacon,IL
61312,Ladd,IL
61329,Ladd,IL
61362,Ladd,IL
60147,Lafox,IL
60044,"Lake Bluff",IL
60088,"Lake Bluff",IL
60035,"Lake Forest",IL
60045,"Lake Forest",IL
62541,"Lake Fork",IL
62543,"Lake Fork",IL
62548,"Lake Fork",IL
60013,"Lake In The Hills",IL
60014,"Lake In The Hills",IL
60102,"Lake In The Hills",IL
60142,"Lake In The Hills",IL
60156,"Lake In The Hills",IL
60002,"Lake Villa",IL
60046,"Lake Villa",IL
60010,"Lake Zurich",IL
60047,"Lake Zurich",IL
60014,Lakewood,IL
60098,Lakewood,IL
60142,Lakewood,IL
62422,Lakewood,IL
62438,Lakewood,IL
62444,Lakewood,IL
62565,Lakewood,IL
62571,Lakewood,IL
61046,Lanark,IL
61013,Lancaster,IL
61018,Lancaster,IL
61032,Lancaster,IL
61067,Lancaster,IL
61750,Lane,IL
60411,Lansing,IL
60438,Lansing,IL
62543,Latham,IL
61451,Laura,IL
61728,Lawndale,IL
61730,Lawndale,IL
61739,Lawndale,IL
61753,Lawndale,IL
62439,Lawrenceville,IL
61752,"Le Roy",IL
61047,"Leaf River",IL
62254,Lebanon,IL
60530,Lee,IL
61415,Lee,IL
61431,Lee,IL
61459,Lee,IL
61477,Lee,IL
62353,Lee,IL
62375,Lee,IL
61310,"Lee Center",IL
61331,"Lee Center",IL
61367,"Lee Center",IL
61378,"Lee Center",IL
60531,Leland,IL
60439,Lemont,IL
61048,Lena,IL
62255,Lenzburg,IL
62257,Lenzburg,IL
61332,Leonore,IL
62440,Lerna,IL
61542,Lewistown,IL
61753,Lexington,IL
62347,Liberty,IL
62414,Liberty,IL
62461,Liberty,IL
60030,Libertyville,IL
60048,Libertyville,IL
60060,Libertyville,IL
62348,Lima,IL
62376,Lima,IL
61030,Lincoln,IL
61064,Lincoln,IL
62656,Lincoln,IL
62659,"Lincoln's New Salem",IL
60045,Lincolnshire,IL
60069,Lincolnshire,IL
60712,Lincolnwood,IL
61049,Lindenwood,IL
60517,Lisle,IL
60532,Lisle,IL
62015,Litchfield,IL
62056,Litchfield,IL
62560,Litchfield,IL
62650,Literberry,IL
61453,"Little York",IL
61452,Littleton,IL
61543,Liverpool,IL
62058,Livingston,IL
62074,Livingston,IL
62661,Loami,IL
60439,Lockport,IL
60441,Lockport,IL
60491,Lockport,IL
60948,Loda,IL
61533,Logan,IL
61536,Logan,IL
61547,Logan,IL
61569,Logan,IL
61454,Lomax,IL
60137,Lombard,IL
60148,Lombard,IL
61544,"London Mills",IL
60047,"Long Grove",IL
60060,"Long Grove",IL
61333,"Long Point",IL
61852,Longview,IL
62838,Loogootee,IL
61250,Loraine,IL
61254,Loraine,IL
61277,Loraine,IL
62349,Loraine,IL
61334,Lostant,IL
62858,Louisville,IL
60942,Lovejoy,IL
60953,Lovejoy,IL
60973,Lovejoy,IL
61011,"Loves Park",IL
61111,"Loves Park",IL
61114,"Loves Park",IL
61130,"Loves Park",IL
61131,"Loves Park",IL
61132,"Loves Park",IL
61937,Lovington,IL
62662,Lowder,IL
61545,Lowpoint,IL
60949,Ludlow,IL
61261,Lyndon,IL
61262,"Lynn Center",IL
60501,Lyons,IL
60513,Lyons,IL
60525,Lyons,IL
60534,Lyons,IL
62860,Macedonia,IL
61011,"Machesney Park",IL
61073,"Machesney Park",IL
61103,"Machesney Park",IL
61111,"Machesney Park",IL
61115,"Machesney Park",IL
61755,Mackinaw,IL
61455,Macomb,IL
61314,Macon,IL
61345,Macon,IL
61361,Macon,IL
61368,Macon,IL
62544,Macon,IL
62040,Madison,IL
62059,Madison,IL
62060,Madison,IL
62201,Madison,IL
62419,Madison,IL
62450,Madison,IL
62452,Madison,IL
62244,Maeystown,IL
62256,Maeystown,IL
61336,Magnolia,IL
61822,Mahomet,IL
61840,Mahomet,IL
61853,Mahomet,IL
61875,Mahomet,IL
62958,Makanda,IL
61337,Malden,IL
60150,Malta,IL
61011,Manchester,IL
61065,Manchester,IL
61073,Manchester,IL
61080,Manchester,IL
62082,Manchester,IL
62663,Manchester,IL
60442,Manhattan,IL
61546,Manito,IL
61338,Manlius,IL
61341,Manlius,IL
61360,Manlius,IL
61379,Manlius,IL
61854,Mansfield,IL
60950,Manteno,IL
60151,"Maple Park",IL
61547,Mapleton,IL
61607,Mapleton,IL
61458,Maquon,IL
60152,Marengo,IL
60180,Marengo,IL
61459,Marietta,IL
62061,Marine,IL
61010,Marion,IL
61015,Marion,IL
61021,Marion,IL
61042,Marion,IL
61061,Marion,IL
61084,Marion,IL
61310,Marion,IL
62918,Marion,IL
62922,Marion,IL
62959,Marion,IL
62257,Marissa,IL
61326,Mark,IL
61340,Mark,IL
60426,Markham,IL
60428,Markham,IL
60429,Markham,IL
60478,Markham,IL
61756,Maroa,IL
61341,Marseilles,IL
62441,Marshall,IL
62442,Martinsville,IL
60951,Martinton,IL
62062,Maryville,IL
62234,Maryville,IL
62221,Mascoutah,IL
62224,Mascoutah,IL
62254,Mascoutah,IL
62258,Mascoutah,IL
62443,Mason,IL
62664,"Mason City",IL
61231,Matherville,IL
61263,Matherville,IL
60423,Matteson,IL
60443,Matteson,IL
61938,Mattoon,IL
62861,Maunie,IL
60153,Maywood,IL
60444,Mazon,IL
62957,"Mc Clure",IL
61050,"Mc Connell",IL
60050,"Mc Henry",IL
61754,"Mc Lean",IL
62859,"Mc Leansboro",IL
61335,"Mc Nabb",IL
62545,Mechanicsburg,IL
61460,Media,IL
60157,Medinah,IL
62063,Medora,IL
60160,"Melrose Park",IL
60161,"Melrose Park",IL
60163,"Melrose Park",IL
60952,Melvin,IL
62259,Menard,IL
62351,Mendon,IL
61342,Mendota,IL
62665,Meredosia,IL
61758,Merna,IL
61548,Metamora,IL
61940,Metcalf,IL
62910,Metropolis,IL
62960,Metropolis,IL
62065,Michael,IL
62666,Middletown,IL
60445,Midlothian,IL
60115,Milan,IL
60150,Milan,IL
60530,Milan,IL
60550,Milan,IL
61201,Milan,IL
61264,Milan,IL
61265,Milan,IL
60953,Milford,IL
62809,"Mill Shoals",IL
62862,"Mill Shoals",IL
60536,Millbrook,IL
60541,Millbrook,IL
60560,Millbrook,IL
61451,Millbrook,IL
61517,Millbrook,IL
61529,Millbrook,IL
61559,Millbrook,IL
62961,Millcreek,IL
61051,Milledgeville,IL
62962,"Miller City",IL
60537,Millington,IL
60551,Millington,IL
62260,Millstadt,IL
61855,Milmine,IL
60137,Milton,IL
60138,Milton,IL
60139,Milton,IL
60148,Milton,IL
60187,Milton,IL
60188,Milton,IL
60189,Milton,IL
60190,Milton,IL
60515,Milton,IL
60532,Milton,IL
60563,Milton,IL
62352,Milton,IL
61344,Mineral,IL
61759,Minier,IL
61760,Minonk,IL
60447,Minooka,IL
60450,Minooka,IL
62444,Mode,IL
62667,Modesto,IL
62261,Modoc,IL
60448,Mokena,IL
61240,Moline,IL
61244,Moline,IL
61264,Moline,IL
61265,Moline,IL
61266,Moline,IL
60954,Momence,IL
60449,Monee,IL
61462,Monmouth,IL
61052,"Monroe Center",IL
60505,Montgomery,IL
60506,Montgomery,IL
60512,Montgomery,IL
60538,Montgomery,IL
60543,Montgomery,IL
61530,Montgomery,IL
61725,Montgomery,IL
61729,Montgomery,IL
61733,Montgomery,IL
61742,Montgomery,IL
61771,Montgomery,IL
62427,Montgomery,IL
62451,Montgomery,IL
62454,Montgomery,IL
61856,Monticello,IL
62445,Montrose,IL
60539,Mooseheart,IL
62010,Moro,IL
62021,Moro,IL
62025,Moro,IL
62067,Moro,IL
62097,Moro,IL
60450,Morris,IL
61270,Morrison,IL
62546,Morrisonville,IL
61535,Morton,IL
61550,Morton,IL
61571,Morton,IL
60029,"Morton Grove",IL
60053,"Morton Grove",IL
61552,Mossville,IL
62963,"Mound City",IL
62964,Mounds,IL
62547,"Mount Auburn",IL
62863,"Mount Carmel",IL
61053,"Mount Carroll",IL
62446,"Mount Erie",IL
61054,"Mount Morris",IL
62069,"Mount Olive",IL
60005,"Mount Prospect",IL
60056,"Mount Prospect",IL
62548,"Mount Pulaski",IL
62353,"Mount Sterling",IL
62864,"Mount Vernon",IL
62550,Moweaqua,IL
62070,Mozier,IL
62549,"Mt Zion",IL
62946,Muddy,IL
62965,Muddy,IL
62262,"Mulberry Grove",IL
62865,Mulkeytown,IL
61857,Muncie,IL
60048,Mundelein,IL
60060,Mundelein,IL
61852,Murdock,IL
61919,Murdock,IL
61941,Murdock,IL
61942,Murdock,IL
61956,Murdock,IL
62966,Murphysboro,IL
62668,Murrayville,IL
61021,Nachusa,IL
61031,Nachusa,IL
61057,Nachusa,IL
61310,Nachusa,IL
60440,Naperville,IL
60519,Naperville,IL
60540,Naperville,IL
60563,Naperville,IL
60564,Naperville,IL
60565,Naperville,IL
60566,Naperville,IL
60567,Naperville,IL
60585,Naperville,IL
62263,Nashville,IL
62816,Nason,IL
62866,Nason,IL
62071,"National Stock Yards",IL
62354,Nauvoo,IL
62355,Nebo,IL
61021,Nelson,IL
61071,Nelson,IL
62447,Neoga,IL
61345,Neponset,IL
62264,"New Athens",IL
62258,"New Baden",IL
62265,"New Baden",IL
61346,"New Bedford",IL
62670,"New Berlin",IL
61272,"New Boston",IL
62922,"New Burnside",IL
62967,"New Burnside",IL
62356,"New Canton",IL
62074,"New Douglas",IL
62867,"New Haven",IL
62671,"New Holland",IL
60432,"New Lenox",IL
60433,"New Lenox",IL
60441,"New Lenox",IL
60442,"New Lenox",IL
60448,"New Lenox",IL
60451,"New Lenox",IL
60491,"New Lenox",IL
62266,"New Memphis",IL
61411,"New Salem",IL
61455,"New Salem",IL
61482,"New Salem",IL
62357,"New Salem",IL
61465,"New Windsor",IL
60541,Newark,IL
61942,Newman,IL
61230,Newton,IL
61250,Newton,IL
61251,Newton,IL
61252,Newton,IL
62448,Newton,IL
62551,Niantic,IL
60714,Niles,IL
62672,Nilwood,IL
62329,Niota,IL
62868,Noble,IL
62075,Nokomis,IL
61059,Nora,IL
61087,Nora,IL
61701,Normal,IL
61705,Normal,IL
61761,Normal,IL
61776,Normal,IL
61790,Normal,IL
61553,Norris,IL
62869,"Norris City",IL
60506,"North Aurora",IL
60510,"North Aurora",IL
60542,"North Aurora",IL
60044,"North Chicago",IL
60064,"North Chicago",IL
60085,"North Chicago",IL
60086,"North Chicago",IL
60088,"North Chicago",IL
61466,"North Henderson",IL
60022,Northbrook,IL
60062,Northbrook,IL
60065,Northbrook,IL
62269,"O Fallon",IL
60523,"Oak Brook",IL
60452,"Oak Forest",IL
60477,"Oak Forest",IL
60478,"Oak Forest",IL
60415,"Oak Lawn",IL
60453,"Oak Lawn",IL
60454,"Oak Lawn",IL
60803,"Oak Lawn",IL
60301,"Oak Park",IL
60302,"Oak Park",IL
60303,"Oak Park",IL
60304,"Oak Park",IL
62268,Oakdale,IL
62673,Oakford,IL
61440,Oakland,IL
61484,Oakland,IL
61943,Oakland,IL
62681,Oakland,IL
61858,Oakwood,IL
62449,Oblong,IL
62553,Oconee,IL
60460,Odell,IL
62870,Odin,IL
61859,Ogden,IL
61348,Oglesby,IL
61349,Ohio,IL
62076,Ohlman,IL
62271,Okawville,IL
62969,"Olive Branch",IL
62988,"Olive Branch",IL
62990,"Olive Branch",IL
62970,Olmsted,IL
62450,Olney,IL
60443,"Olympia Fields",IL
60461,"Olympia Fields",IL
62871,Omaha,IL
60955,Onarga,IL
61467,Oneida,IL
62872,Opdyke,IL
61468,Opheim,IL
61469,Oquawka,IL
61060,Orangeville,IL
62971,Oraville,IL
62554,Oreana,IL
61061,Oregon,IL
62874,Orient,IL
61273,Orion,IL
61520,Orion,IL
61533,Orion,IL
61569,Orion,IL
60448,"Orland Park",IL
60462,"Orland Park",IL
60464,"Orland Park",IL
60467,"Orland Park",IL
60487,"Orland Park",IL
61238,Osco,IL
61254,Osco,IL
61274,Osco,IL
60543,Oswego,IL
60560,Oswego,IL
61341,Ottawa,IL
61350,Ottawa,IL
62555,Owaneco,IL
62972,Ozark,IL
60038,Palatine,IL
60055,Palatine,IL
60067,Palatine,IL
60074,Palatine,IL
60078,Palatine,IL
60094,Palatine,IL
60095,Palatine,IL
61530,Palestine,IL
61738,Palestine,IL
61771,Palestine,IL
62451,Palestine,IL
62556,Palmer,IL
61021,Palmyra,IL
61064,Palmyra,IL
61081,Palmyra,IL
62674,Palmyra,IL
62359,Paloma,IL
60462,"Palos Heights",IL
60463,"Palos Heights",IL
60465,"Palos Hills",IL
60439,"Palos Park",IL
60464,"Palos Park",IL
62557,Pana,IL
62571,Pana,IL
62077,Panama,IL
60964,Papineau,IL
61944,Paris,IL
60417,"Park Forest",IL
60466,"Park Forest",IL
60016,"Park Ridge",IL
60068,"Park Ridge",IL
62452,Parkersburg,IL
62875,Patoka,IL
62050,Patterson,IL
62078,Patterson,IL
62082,Patterson,IL
62092,Patterson,IL
60518,"Paw Paw",IL
60531,"Paw Paw",IL
60550,"Paw Paw",IL
60556,"Paw Paw",IL
61353,"Paw Paw",IL
62558,Pawnee,IL
60957,Paxton,IL
62360,Payson,IL
62361,Pearl,IL
61062,"Pearl City",IL
61063,Pecatonica,IL
61554,Pekin,IL
61555,Pekin,IL
61558,Pekin,IL
61607,Pekin,IL
61862,Penfield,IL
61525,Peoria,IL
61528,Peoria,IL
61601,Peoria,IL
61602,Peoria,IL
61603,Peoria,IL
61604,Peoria,IL
61605,Peoria,IL
61606,Peoria,IL
61607,Peoria,IL
61612,Peoria,IL
61613,Peoria,IL
61614,Peoria,IL
61615,Peoria,IL
61625,Peoria,IL
61629,Peoria,IL
61630,Peoria,IL
61633,Peoria,IL
61634,Peoria,IL
61635,Peoria,IL
61636,Peoria,IL
61637,Peoria,IL
61638,Peoria,IL
61639,Peoria,IL
61641,Peoria,IL
61643,Peoria,IL
61650,Peoria,IL
61651,Peoria,IL
61652,Peoria,IL
61653,Peoria,IL
61654,Peoria,IL
61655,Peoria,IL
61656,Peoria,IL
61611,"Peoria Heights",IL
61616,"Peoria Heights",IL
60468,Peotone,IL
62272,Percy,IL
62973,Perks,IL
62362,Perry,IL
61301,Peru,IL
61354,Peru,IL
61863,Pesotum,IL
62675,Petersburg,IL
61864,Philo,IL
62012,Piasa,IL
62035,Piasa,IL
62052,Piasa,IL
62273,Pierron,IL
62275,Pierron,IL
62274,Pinckneyville,IL
60959,"Piper City",IL
62974,Pittsburg,IL
62363,Pittsfield,IL
60543,Plainfield,IL
60544,Plainfield,IL
60585,Plainfield,IL
60586,Plainfield,IL
62365,Plainville,IL
60545,Plano,IL
60124,"Plato Center",IL
62366,"Pleasant Hill",IL
62677,"Pleasant Plains",IL
62367,Plymouth,IL
62275,Pocahontas,IL
61064,Polo,IL
62903,Pomona,IL
62905,Pomona,IL
62958,Pomona,IL
62966,Pomona,IL
62975,Pomona,IL
61764,Pontiac,IL
61008,"Poplar Grove",IL
61011,"Poplar Grove",IL
61065,"Poplar Grove",IL
61275,"Port Byron",IL
60406,Posen,IL
60426,Posen,IL
60469,Posen,IL
61865,Potomac,IL
61470,"Prairie City",IL
62277,"Prairie Du Rocher",IL
61231,Preemption,IL
61263,Preemption,IL
61264,Preemption,IL
61276,Preemption,IL
61279,Preemption,IL
61281,Preemption,IL
61486,Preemption,IL
61356,Princeton,IL
61559,Princeville,IL
61277,Prophetstown,IL
60004,"Prospect Heights",IL
60062,"Prospect Heights",IL
60070,"Prospect Heights",IL
60090,"Prospect Heights",IL
62976,Pulaski,IL
61560,Putnam,IL
62301,Quincy,IL
62305,Quincy,IL
62306,Quincy,IL
62876,Radom,IL
62946,Raleigh,IL
62977,Raleigh,IL
62080,Ramsey,IL
60960,Rankin,IL
60470,Ransom,IL
61866,Rantoul,IL
61275,"Rapids City",IL
61278,"Rapids City",IL
61471,Raritan,IL
61816,Raymond,IL
61852,Raymond,IL
61864,Raymond,IL
61877,Raymond,IL
62560,Raymond,IL
62278,"Red Bud",IL
60961,Reddick,IL
61949,Redmon,IL
62279,Renault,IL
60553,Reynolds,IL
61006,Reynolds,IL
61068,Reynolds,IL
61264,Reynolds,IL
61279,Reynolds,IL
61378,Reynolds,IL
60071,Richmond,IL
60443,"Richton Park",IL
60471,"Richton Park",IL
62877,Richview,IL
61870,"Ridge Farm",IL
62979,Ridgway,IL
61067,Ridott,IL
62878,Rinard,IL
60072,Ringwood,IL
60097,Ringwood,IL
61472,Rio,IL
60305,"River Forest",IL
60160,"River Grove",IL
60171,"River Grove",IL
60406,Riverdale,IL
60827,Riverdale,IL
60546,Riverside,IL
62301,Riverside,IL
62305,Riverside,IL
62561,Riverton,IL
62707,Riverton,IL
61561,Roanoke,IL
60406,Robbins,IL
60472,Robbins,IL
60962,Roberts,IL
61336,Roberts,IL
61369,Roberts,IL
61375,Roberts,IL
62454,Robinson,IL
61068,Rochelle,IL
62563,Rochester,IL
61070,"Rock City",IL
61071,"Rock Falls",IL
61201,"Rock Island",IL
61204,"Rock Island",IL
61264,"Rock Island",IL
61265,"Rock Island",IL
61299,"Rock Island",IL
62081,Rockbridge,IL
61020,Rockford,IL
61101,Rockford,IL
61102,Rockford,IL
61103,Rockford,IL
61104,Rockford,IL
61105,Rockford,IL
61106,Rockford,IL
61107,Rockford,IL
61108,Rockford,IL
61109,Rockford,IL
61110,Rockford,IL
61111,Rockford,IL
61114,Rockford,IL
61125,Rockford,IL
61126,Rockford,IL
62370,Rockport,IL
61072,Rockton,IL
62280,Rockwood,IL
60008,"Rolling Meadows",IL
60067,"Rolling Meadows",IL
61523,Rome,IL
61562,Rome,IL
62830,Rome,IL
62864,Rome,IL
62893,Rome,IL
62898,Rome,IL
60439,Romeoville,IL
60440,Romeoville,IL
60441,Romeoville,IL
60446,Romeoville,IL
60490,Romeoville,IL
60544,Romeoville,IL
62082,Roodhouse,IL
62083,Rosamond,IL
62555,Rosamond,IL
62557,Rosamond,IL
61072,Roscoe,IL
61073,Roscoe,IL
61080,Roscoe,IL
60133,Roselle,IL
60157,Roselle,IL
60172,Roselle,IL
61473,Roseville,IL
62982,Rosiclare,IL
60942,Rossville,IL
60963,Rossville,IL
60073,"Round Lake",IL
62025,Roxana,IL
62084,Roxana,IL
62087,Roxana,IL
62095,Roxana,IL
61871,Royal,IL
62983,Royalton,IL
62681,Rushville,IL
62427,Russell,IL
62439,Russell,IL
60118,Rutland,IL
60124,Rutland,IL
60136,Rutland,IL
60140,Rutland,IL
60142,Rutland,IL
61358,Rutland,IL
61872,Sadorus,IL
62824,"Sailor Springs",IL
62879,"Sailor Springs",IL
60964,"Saint Anne",IL
61474,"Saint Augustine",IL
60174,"Saint Charles",IL
61563,"Saint David",IL
62458,"Saint Elmo",IL
62460,"Saint Francisville",IL
62281,"Saint Jacob",IL
61873,"Saint Joseph",IL
62282,"Saint Libory",IL
62880,"Saint Peter",IL
62459,"Sainte Marie",IL
61014,Salem,IL
61046,Salem,IL
61053,Salem,IL
61458,Salem,IL
61529,Salem,IL
61531,Salem,IL
61572,Salem,IL
62881,Salem,IL
62682,"San Jose",IL
62882,Sandoval,IL
60545,Sandwich,IL
60548,Sandwich,IL
61769,Saunemin,IL
61074,Savanna,IL
61822,Savoy,IL
61874,Savoy,IL
61880,Savoy,IL
62009,Sawyerville,IL
62085,Sawyerville,IL
62088,Sawyerville,IL
61770,Saybrook,IL
61075,"Scales Mound",IL
60007,Schaumburg,IL
60008,Schaumburg,IL
60067,Schaumburg,IL
60159,Schaumburg,IL
60168,Schaumburg,IL
60172,Schaumburg,IL
60173,Schaumburg,IL
60193,Schaumburg,IL
60194,Schaumburg,IL
60195,Schaumburg,IL
60196,Schaumburg,IL
62883,Scheller,IL
60018,"Schiller Park",IL
60176,"Schiller Park",IL
61475,Sciota,IL
62225,"Scott Air Force Base",IL
62674,Scottville,IL
61476,Seaton,IL
61359,Seatonville,IL
61771,Secor,IL
60098,Seneca,IL
60152,Seneca,IL
60180,Seneca,IL
60450,Seneca,IL
61341,Seneca,IL
61360,Seneca,IL
60531,Serena,IL
60549,Serena,IL
60551,Serena,IL
61350,Serena,IL
62884,Sesser,IL
60431,Seward,IL
60447,Seward,IL
60560,Seward,IL
61047,Seward,IL
61063,Seward,IL
61077,Seward,IL
61088,Seward,IL
61875,Seymour,IL
60550,Shabbona,IL
61078,Shannon,IL
62984,Shawneetown,IL
61361,Sheffield,IL
62565,Shelbyville,IL
60966,Sheldon,IL
60551,Sheridan,IL
62643,Sheridan,IL
62656,Sheridan,IL
62671,Sheridan,IL
61532,Sherman,IL
61567,Sherman,IL
62633,Sherman,IL
62684,Sherman,IL
62707,Sherman,IL
61281,Sherrard,IL
62685,Shipman,IL
61024,Shirland,IL
61072,Shirland,IL
61079,Shirland,IL
61772,Shirley,IL
62885,Shobonier,IL
60404,Shorewood,IL
60431,Shorewood,IL
62461,Shumway,IL
61773,Sibley,IL
61876,Sidell,IL
61877,Sidney,IL
62462,Sigel,IL
61239,Silvis,IL
61244,Silvis,IL
61265,Silvis,IL
61282,Silvis,IL
62985,Simpson,IL
62886,Sims,IL
60076,Skokie,IL
60077,Skokie,IL
60203,Skokie,IL
62284,Smithboro,IL
61477,Smithfield,IL
61478,Smithshire,IL
62220,Smithton,IL
62243,Smithton,IL
62285,Smithton,IL
60548,Somonauk,IL
60552,Somonauk,IL
62086,Sorento,IL
61072,"South Beloit",IL
61073,"South Beloit",IL
61080,"South Beloit",IL
60120,"South Elgin",IL
60124,"South Elgin",IL
60175,"South Elgin",IL
60177,"South Elgin",IL
60409,"South Holland",IL
60473,"South Holland",IL
61554,"South Pekin",IL
61564,"South Pekin",IL
62025,"South Roxana",IL
62087,"South Roxana",IL
60474,"South Wilmington",IL
61565,Sparland,IL
61401,Sparta,IL
61448,Sparta,IL
61467,Sparta,IL
61488,Sparta,IL
62286,Sparta,IL
61479,Speer,IL
60051,"Spring Grove",IL
60071,"Spring Grove",IL
60081,"Spring Grove",IL
61412,"Spring Grove",IL
61435,"Spring Grove",IL
61453,"Spring Grove",IL
61462,"Spring Grove",IL
61354,"Spring Valley",IL
61362,"Spring Valley",IL
62887,Springerton,IL
62629,Springfield,IL
62670,Springfield,IL
62701,Springfield,IL
62702,Springfield,IL
62703,Springfield,IL
62704,Springfield,IL
62705,Springfield,IL
62706,Springfield,IL
62707,Springfield,IL
62708,Springfield,IL
62711,Springfield,IL
62712,Springfield,IL
62713,Springfield,IL
62715,Springfield,IL
62716,Springfield,IL
62719,Springfield,IL
62721,Springfield,IL
62722,Springfield,IL
62723,Springfield,IL
62726,Springfield,IL
62736,Springfield,IL
62739,Springfield,IL
62746,Springfield,IL
62756,Springfield,IL
62757,Springfield,IL
62761,Springfield,IL
62762,Springfield,IL
62763,Springfield,IL
62764,Springfield,IL
62765,Springfield,IL
62766,Springfield,IL
62767,Springfield,IL
62769,Springfield,IL
62776,Springfield,IL
62777,Springfield,IL
62781,Springfield,IL
62786,Springfield,IL
62791,Springfield,IL
62794,Springfield,IL
62796,Springfield,IL
61326,Standard,IL
61363,Standard,IL
61774,Stanford,IL
62824,Stanford,IL
62839,Stanford,IL
62088,Staunton,IL
62288,Steeleville,IL
60411,Steger,IL
60475,Steger,IL
61081,Sterling,IL
60553,Steward,IL
62463,Stewardson,IL
61084,"Stillman Valley",IL
60953,Stockland,IL
60966,Stockland,IL
60967,Stockland,IL
61085,Stockton,IL
60165,"Stone Park",IL
62922,Stonefort,IL
62987,Stonefort,IL
62567,Stonington,IL
62454,Stoy,IL
62465,Strasburg,IL
61775,Strawn,IL
60103,Streamwood,IL
60107,Streamwood,IL
60120,Streamwood,IL
61364,Streator,IL
61480,Stronghurst,IL
61367,Sublette,IL
60119,"Sugar Grove",IL
60506,"Sugar Grove",IL
60511,"Sugar Grove",IL
60554,"Sugar Grove",IL
60929,Sullivan,IL
60934,Sullivan,IL
60946,Sullivan,IL
60959,Sullivan,IL
61769,Sullivan,IL
61951,Sullivan,IL
62289,Summerfield,IL
62293,Summerfield,IL
60501,"Summit Argo",IL
60468,Sumner,IL
60940,Sumner,IL
60950,Sumner,IL
61412,Sumner,IL
61453,Sumner,IL
61462,Sumner,IL
62466,Sumner,IL
62373,Sutter,IL
60178,Sycamore,IL
61482,"Table Grove",IL
62688,Tallula,IL
62888,Tamaroa,IL
62988,Tamms,IL
61283,Tampico,IL
61284,"Taylor Ridge",IL
62049,"Taylor Springs",IL
62089,"Taylor Springs",IL
62555,Taylorville,IL
62568,Taylorville,IL
60082,Techny,IL
62374,Tennessee,IL
62467,Teutopolis,IL
62889,Texico,IL
60968,Thawville,IL
62615,Thayer,IL
62689,Thayer,IL
62990,Thebes,IL
61878,Thomasboro,IL
62890,Thompsonville,IL
61285,Thomson,IL
60430,Thornton,IL
60473,Thornton,IL
60476,Thornton,IL
62292,Tilden,IL
61832,Tilton,IL
61833,Tilton,IL
61834,Tilton,IL
62375,Timewell,IL
60448,"Tinley Park",IL
60477,"Tinley Park",IL
60487,"Tinley Park",IL
61368,Tiskilwa,IL
62468,Toledo,IL
61880,Tolono,IL
61369,Toluca,IL
61370,Tonica,IL
61567,Topeka,IL
61483,Toulon,IL
62570,Tovey,IL
61761,Towanda,IL
61776,Towanda,IL
62571,"Tower Hill",IL
61568,Tremont,IL
62293,Trenton,IL
62469,Trilla,IL
61371,Triumph,IL
61529,Trivoli,IL
61531,Trivoli,IL
61569,Trivoli,IL
60403,Troy,IL
60404,Troy,IL
60410,Troy,IL
60431,Troy,IL
60435,Troy,IL
60436,Troy,IL
60447,Troy,IL
60586,Troy,IL
62034,Troy,IL
62234,Troy,IL
62294,Troy,IL
61342,"Troy Grove",IL
61372,"Troy Grove",IL
61373,"Troy Grove",IL
61953,Tuscola,IL
62992,Ullin,IL
60180,Union,IL
60420,Union,IL
60460,Union,IL
60934,Union,IL
61415,Union,IL
61431,Union,IL
61764,Union,IL
61769,Union,IL
62420,Union,IL
62424,Union,IL
62428,Union,IL
62443,Union,IL
62473,Union,IL
62858,Union,IL
60969,"Union Hill",IL
61813,Unity,IL
61913,Unity,IL
61929,Unity,IL
61801,Urbana,IL
61802,Urbana,IL
61803,Urbana,IL
62376,Ursa,IL
61301,Utica,IL
61350,Utica,IL
61373,Utica,IL
62812,Valier,IL
62891,Valier,IL
62295,Valmeyer,IL
62298,Valmeyer,IL
61374,"Van Orin",IL
62471,Vandalia,IL
61375,Varna,IL
62060,Venice,IL
62090,Venice,IL
62994,Vergennes,IL
61944,Vermilion,IL
61955,Vermilion,IL
61484,Vermont,IL
60015,Vernon,IL
60045,Vernon,IL
60047,Vernon,IL
60048,Vernon,IL
60049,Vernon,IL
60060,Vernon,IL
60061,Vernon,IL
60069,Vernon,IL
60089,Vernon,IL
62892,Vernon,IL
60048,"Vernon Hills",IL
60060,"Vernon Hills",IL
60061,"Vernon Hills",IL
60069,"Vernon Hills",IL
60479,Verona,IL
62378,Versailles,IL
61485,Victoria,IL
60437,Vienna,IL
60444,Vienna,IL
60450,Vienna,IL
60479,Vienna,IL
61360,Vienna,IL
62995,Vienna,IL
61956,"Villa Grove",IL
60126,"Villa Park",IL
60181,"Villa Park",IL
62996,"Villa Ridge",IL
60553,Viola,IL
61006,Viola,IL
61318,Viola,IL
61378,Viola,IL
61486,Viola,IL
62690,Virden,IL
62691,Virginia,IL
60031,Wadsworth,IL
60083,Wadsworth,IL
60099,Wadsworth,IL
62572,Waggoner,IL
61376,Walnut,IL
62893,"Walnut Hill",IL
62297,Walsh,IL
62091,Walshville,IL
62894,Waltonville,IL
61777,Wapella,IL
60030,Warren,IL
60031,Warren,IL
60046,Warren,IL
60048,Warren,IL
60083,Warren,IL
60085,Warren,IL
60087,Warren,IL
61087,Warren,IL
62573,Warrensburg,IL
60185,Warrenville,IL
60555,Warrenville,IL
60563,Warrenville,IL
62379,Warsaw,IL
60183,Wasco,IL
61570,Washburn,IL
60401,Washington,IL
60940,Washington,IL
61074,Washington,IL
61571,Washington,IL
61488,Wataga,IL
62298,Waterloo,IL
60556,Waterman,IL
60970,Watseka,IL
62473,Watson,IL
60030,Wauconda,IL
60084,Wauconda,IL
60031,Waukegan,IL
60048,Waukegan,IL
60079,Waukegan,IL
60083,Waukegan,IL
60085,Waukegan,IL
60087,Waukegan,IL
60099,Waukegan,IL
62692,Waverly,IL
60120,Wayne,IL
60174,Wayne,IL
60184,Wayne,IL
62895,"Wayne City",IL
61778,Waynesville,IL
60557,Wedron,IL
61882,Weldon,IL
60973,Wellington,IL
61358,Wenona,IL
61377,Wenona,IL
61378,"West Brooklyn",IL
60185,"West Chicago",IL
60186,"West Chicago",IL
62896,"West Frankfort",IL
62475,"West Liberty",IL
61048,"West Point",IL
61089,"West Point",IL
62380,"West Point",IL
62476,"West Salem",IL
62477,"West Union",IL
62478,"West York",IL
60154,Westchester,IL
60570,Westchester,IL
60558,"Western Springs",IL
61312,Westfield,IL
61317,Westfield,IL
61330,Westfield,IL
61337,Westfield,IL
61342,Westfield,IL
62474,Westfield,IL
60516,Westmont,IL
60523,Westmont,IL
60527,Westmont,IL
60559,Westmont,IL
61883,Westville,IL
60137,Wheaton,IL
60187,Wheaton,IL
60189,Wheaton,IL
62479,Wheeler,IL
60089,Wheeling,IL
60090,Wheeling,IL
62092,"White Hall",IL
61884,"White Heath",IL
62897,Whittington,IL
61489,Williamsfield,IL
62684,Williamsville,IL
62693,Williamsville,IL
62272,Willisville,IL
62997,Willisville,IL
62480,"Willow Hill",IL
60458,"Willow Springs",IL
60480,"Willow Springs",IL
60501,"Willow Springs",IL
60525,"Willow Springs",IL
60417,Willowbrook,IL
60514,Willowbrook,IL
60527,Willowbrook,IL
60091,Wilmette,IL
60093,Wilmette,IL
60481,Wilmington,IL
62078,Wilmington,IL
62082,Wilmington,IL
62033,Wilsonville,IL
62093,Wilsonville,IL
62694,Winchester,IL
61465,Windsor,IL
61957,Windsor,IL
60185,Winfield,IL
60188,Winfield,IL
60190,Winfield,IL
61088,Winnebago,IL
60093,Winnetka,IL
61089,Winslow,IL
60096,"Winthrop Harbor",IL
60099,"Winthrop Harbor",IL
62094,Witt,IL
62998,"Wolf Lake",IL
60050,"Wonder Lake",IL
60097,"Wonder Lake",IL
60098,"Wonder Lake",IL
60143,"Wood Dale",IL
60191,"Wood Dale",IL
62024,"Wood River",IL
62025,"Wood River",IL
62048,"Wood River",IL
62084,"Wood River",IL
62095,"Wood River",IL
61490,Woodhull,IL
60953,Woodland,IL
60974,Woodland,IL
61053,Woodland,IL
61074,Woodland,IL
61441,Woodland,IL
61501,Woodland,IL
62898,Woodlawn,IL
60439,Woodridge,IL
60440,Woodridge,IL
60516,Woodridge,IL
60517,Woodridge,IL
60540,Woodridge,IL
60561,Woodridge,IL
60565,Woodridge,IL
62650,Woodson,IL
62695,Woodson,IL
60098,Woodstock,IL
62681,Woodstock,IL
61021,Woosung,IL
61064,Woosung,IL
61091,Woosung,IL
62097,Worden,IL
60482,Worth,IL
61548,Worth,IL
61611,Worth,IL
62016,Wrights,IL
62044,Wrights,IL
62092,Wrights,IL
62098,Wrights,IL
61379,Wyanet,IL
60518,Wyoming,IL
61318,Wyoming,IL
61353,Wyoming,IL
61491,Wyoming,IL
62899,Xenia,IL
62481,Yale,IL
61572,"Yates City",IL
60512,Yorkville,IL
60543,Yorkville,IL
60545,Yorkville,IL
60560,Yorkville,IL
62865,Zeigler,IL
62999,Zeigler,IL
60083,Zion,IL
60099,Zion,IL
60050,Mchenry,IL
60051,Mchenry,IL
60417,"University Park",IL
60449,"University Park",IL
60466,"University Park",IL
60471,"University Park",IL
60484,"University Park",IL
62880,"Saint Paul",IL
60411,"Sauk Village",IL
60402,Stickney,IL
60804,Stickney,IL
60141,"North Riverside",IL
60546,"North Riverside",IL
60501,Summit,IL
62401,Summit,IL
62411,Summit,IL
62461,Summit,IL
62473,Summit,IL
60827,"Calumet Park",IL
60525,"Indian Head Park",IL
60527,"Indian Head Park",IL
60411,Lynwood,IL
60445,Crestwood,IL
60463,Crestwood,IL
60472,Crestwood,IL
60164,Northlake,IL
60406,Dixmoor,IL
60426,Dixmoor,IL
60827,Dixmoor,IL
60411,Village,IL
60426,Phoenix,IL
60411,"Ford Heights",IL
60803,"Merrionette Park",IL
60525,"Lagrange Hlds",IL
60525,"Mc Cook",IL
60525,Countryside,IL
62316,Houston,IL
62320,Houston,IL
62339,Houston,IL
62346,Houston,IL
62349,Houston,IL
60480,Hodgkins,IL
60501,Hodgkins,IL
60525,Hodgkins,IL
60082,Northfield,IL
60093,Northfield,IL
60525,"Burr Ridge",IL
60527,"Burr Ridge",IL
60176,"Shiller Park",IL
60501,Argo,IL
60467,"Orland Hills",IL
60487,"Orland Hills",IL
60501,"Summitt Argo",IL
60921,Charlotte,IL
60929,Charlotte,IL
60959,Charlotte,IL
61741,Charlotte,IL
60633,Burnham,IL
60706,Norridge,IL
60118,"West Dundee",IL
60482,"Worth Off",IL
60030,"Round Lake Beach",IL
60046,"Round Lake Beach",IL
60073,"Round Lake Beach",IL
61434,Goshen,IL
61449,Goshen,IL
61483,Goshen,IL
61250,Portland,IL
61277,Portland,IL
60083,"Beach Park",IL
60087,"Beach Park",IL
60099,"Beach Park",IL
61364,Munster,IL
60536,"Little Rock",IL
60545,"Little Rock",IL
60548,"Little Rock",IL
60180,"Union City",IL
60018,Rosemont,IL
60411,"South Chicago Heights",IL
60062,Huntington,IL
60617,"Green Bay",IL
60601,Chicag,IL
61231,Duncan,IL
61237,Duncan,IL
61260,Duncan,IL
61279,Duncan,IL
60706,"Hardwood Heights",IL
60454,Birdgview,IL
61231,Abington,IL
61260,Abington,IL
61442,Abington,IL
61476,Abington,IL
60531,Adams,IL
60551,Adams,IL
60552,Adams,IL
60007,"Addison (township)",IL
60101,"Addison (township)",IL
60105,"Addison (township)",IL
60106,"Addison (township)",IL
60126,"Addison (township)",IL
60143,"Addison (township)",IL
60148,"Addison (township)",IL
60181,"Addison (township)",IL
60191,"Addison (township)",IL
60399,"Addison (township)",IL
61047,Adeline,IL
61749,Aetna,IL
62512,Aetna,IL
62518,Aetna,IL
60115,Afton,IL
60150,Afton,IL
60556,Afton,IL
61525,Akron,IL
61526,Akron,IL
61559,Akron,IL
61234,Alba,IL
61235,Alba,IL
61277,Alba,IL
61230,"Albany (township)",IL
61250,"Albany (township)",IL
60010,"Algonquin (township)",IL
60013,"Algonquin (township)",IL
60014,"Algonquin (township)",IL
60021,"Algonquin (township)",IL
60039,"Algonquin (township)",IL
60102,"Algonquin (township)",IL
60156,"Algonquin (township)",IL
62001,"Alhambra (township)",IL
62097,"Alhambra (township)",IL
60470,Allen,IL
61364,Allen,IL
62664,"Allens Grove",IL
62682,"Allens Grove",IL
61951,Allenville,IL
61732,Allin,IL
61774,Allin,IL
62439,Allison,IL
62460,Allison,IL
62807,"Alma (township)",IL
62849,"Alma (township)",IL
62854,"Alma (township)",IL
62881,"Alma (township)",IL
62205,Alorton,IL
62207,Alorton,IL
60530,Alto,IL
60553,Alto,IL
61068,Alto,IL
62002,"Alton (township)",IL
62010,"Alton (township)",IL
62018,"Alton (township)",IL
62035,"Alton (township)",IL
61811,Alvan,IL
61021,"Amboy (township)",IL
61310,"Amboy (township)",IL
61319,Amity,IL
61364,Amity,IL
61740,Amity,IL
61764,Amity,IL
60936,"Anchor (township)",IL
61720,"Anchor (township)",IL
61728,"Anchor (township)",IL
61770,"Anchor (township)",IL
61232,"Andalusia (township)",IL
61264,"Andalusia (township)",IL
61284,"Andalusia (township)",IL
62441,Anderson,IL
62442,Anderson,IL
62477,Anderson,IL
61233,"Andover (township)",IL
61238,"Andover (township)",IL
61262,"Andover (township)",IL
61490,"Andover (township)",IL
61234,"Annawan (township)",IL
61235,"Annawan (township)",IL
61344,"Annawan (township)",IL
61361,"Annawan (township)",IL
61443,"Annawan (township)",IL
60002,"Antioch (township)",IL
60020,"Antioch (township)",IL
60046,"Antioch (township)",IL
60081,"Antioch (township)",IL
62354,Appanoose,IL
62358,Appanoose,IL
61001,"Apple Canyon Lake",IL
61075,"Apple Canyon Lake",IL
61001,"Apple River (township)",IL
61075,"Apple River (township)",IL
61910,"Arcola (township)",IL
61953,"Arcola (township)",IL
62611,"Arenzville (township)",IL
62618,"Arenzville (township)",IL
62691,"Arenzville (township)",IL
61356,Arispie,IL
61368,Arispie,IL
60901,Aroma,IL
60910,Aroma,IL
60954,Aroma,IL
60964,Aroma,IL
62837,Arrington,IL
62886,Arrington,IL
62895,Arrington,IL
61722,"Arrowsmith (township)",IL
61728,"Arrowsmith (township)",IL
61737,"Arrowsmith (township)",IL
61770,"Arrowsmith (township)",IL
60918,Artesia,IL
60924,Artesia,IL
60955,Artesia,IL
60968,Artesia,IL
62871,Asbury,IL
60924,"Ash Grove",IL
60926,"Ash Grove",IL
60953,"Ash Grove",IL
60955,"Ash Grove",IL
61928,"Ash Grove",IL
61957,"Ash Grove",IL
62447,"Ash Grove",IL
62465,"Ash Grove",IL
60911,"Ashkum (township)",IL
60927,"Ashkum (township)",IL
60930,"Ashkum (township)",IL
62612,"Ashland (township)",IL
62808,"Ashley (township)",IL
61912,"Ashmore (township)",IL
61920,"Ashmore (township)",IL
61933,"Ashmore (township)",IL
61943,"Ashmore (township)",IL
61006,"Ashton (township)",IL
61031,"Ashton (township)",IL
62510,"Assumption (township)",IL
62550,"Assumption (township)",IL
62557,"Assumption (township)",IL
61484,"Astoria (township)",IL
61501,"Astoria (township)",IL
62044,Athensville,IL
62082,Athensville,IL
61235,"Atkinson (township)",IL
61254,"Atkinson (township)",IL
61723,"Atlanta (township)",IL
61754,"Atlanta (township)",IL
62356,Atlas,IL
62363,Atlas,IL
62366,Atlas,IL
62370,Atlas,IL
62530,"Auburn (township)",IL
62615,"Auburn (township)",IL
62689,"Auburn (township)",IL
62690,"Auburn (township)",IL
62075,Audubon,IL
62076,Audubon,IL
62080,Audubon,IL
62083,Audubon,IL
62553,Audubon,IL
62557,Audubon,IL
62311,"Augusta (township)",IL
62316,"Augusta (township)",IL
62367,"Augusta (township)",IL
60502,"Aurora (township)",IL
60504,"Aurora (township)",IL
60505,"Aurora (township)",IL
60506,"Aurora (township)",IL
60507,"Aurora (township)",IL
60538,"Aurora (township)",IL
60542,"Aurora (township)",IL
60543,"Aurora (township)",IL
60568,"Aurora (township)",IL
60572,"Aurora (township)",IL
60598,"Aurora (township)",IL
61749,Austin,IL
61756,Austin,IL
62543,Austin,IL
62573,Austin,IL
60410,"Aux Sable",IL
60447,"Aux Sable",IL
60450,"Aux Sable",IL
60481,"Aux Sable",IL
62411,Avena,IL
62418,Avena,IL
62458,Avena,IL
61739,Avoca,IL
61764,Avoca,IL
61810,Ayers,IL
61816,Ayers,IL
61849,Ayers,IL
62639,Bainbridge,IL
62681,Bainbridge,IL
61442,"Bald Bluff",IL
61453,"Bald Bluff",IL
61469,"Bald Bluff",IL
61476,"Bald Bluff",IL
62883,"Bald Hill",IL
62894,"Bald Hill",IL
62530,Ball,IL
62536,Ball,IL
62558,Ball,IL
62615,Ball,IL
62629,Ball,IL
62712,Ball,IL
61520,Banner,IL
62401,Banner,IL
62461,Banner,IL
61520,"Banner (township)",IL
60015,Bannockburn,IL
61727,Barnett,IL
61749,Barnett,IL
61777,Barnett,IL
61778,Barnett,IL
62512,Barnett,IL
62044,Barr,IL
62649,Barr,IL
62674,Barr,IL
62812,Barren,IL
62884,Barren,IL
62897,Barren,IL
60010,"Barrington Hills",IL
60021,"Barrington Hills",IL
60102,"Barrington Hills",IL
60110,"Barrington Hills",IL
60010,"Barrington (township)",IL
60192,"Barrington (township)",IL
62312,"Barry (township)",IL
62345,"Barry (township)",IL
61605,Bartonville,IL
61607,Bartonville,IL
60502,"Batavia (township)",IL
60510,"Batavia (township)",IL
60539,"Batavia (township)",IL
60542,"Batavia (township)",IL
62617,"Bath (township)",IL
62627,"Bath (township)",IL
62644,"Bath (township)",IL
62655,"Bath (township)",IL
61611,"Bay View Gardens",IL
62313,"Bear Creek",IL
62321,"Bear Creek",IL
62379,"Bear Creek",IL
62380,"Bear Creek",IL
62546,"Bear Creek",IL
62556,"Bear Creek",IL
62568,"Bear Creek",IL
62618,"Beardstown (township)",IL
62247,"Bear Grove",IL
62262,"Bear Grove",IL
62471,"Bear Grove",IL
62263,Beaucoup,IL
62803,Beaucoup,IL
62808,Beaucoup,IL
62877,Beaucoup,IL
60931,Beaver,IL
60970,Beaver,IL
62828,"Beaver Creek",IL
62835,"Beaver Creek",IL
62859,"Beaver Creek",IL
62887,"Beaver Creek",IL
60912,"Beaverville (township)",IL
60931,"Beaverville (township)",IL
60964,"Beaverville (township)",IL
62823,Bedford,IL
62842,Bedford,IL
62878,Bedford,IL
61883,Belgium,IL
61731,"Belle Prairie",IL
61739,"Belle Prairie",IL
62828,"Belle Prairie City",IL
62207,"Belleville (township)",IL
62220,"Belleville (township)",IL
62221,"Belleville (township)",IL
62223,"Belleville (township)",IL
62226,"Belleville (township)",IL
62243,"Belleville (township)",IL
61604,Bellevue,IL
61607,Bellevue,IL
61722,"Bellflower (township)",IL
61724,"Bellflower (township)",IL
61770,"Bellflower (township)",IL
61842,"Bellflower (township)",IL
61843,"Bellflower (township)",IL
61369,"Bell Plain",IL
61375,"Bell Plain",IL
61541,"Bell Plain",IL
61570,"Bell Plain",IL
61760,"Bell Plain",IL
60953,Belmont,IL
60970,Belmont,IL
60974,Belmont,IL
61008,"Belvidere (township)",IL
61011,"Belvidere (township)",IL
61016,"Belvidere (township)",IL
61065,"Belvidere (township)",IL
61107,"Belvidere (township)",IL
61111,"Belvidere (township)",IL
61114,"Belvidere (township)",IL
61813,"Bement (township)",IL
61851,"Bement (township)",IL
61856,"Bement (township)",IL
61358,Bennington,IL
61369,Bennington,IL
61377,Bennington,IL
61760,Bennington,IL
62321,Bentley,IL
62812,"Benton (township)",IL
62836,"Benton (township)",IL
62856,"Benton (township)",IL
62890,"Benton (township)",IL
62896,"Benton (township)",IL
61312,Berlin,IL
61323,Berlin,IL
61330,Berlin,IL
61337,Berlin,IL
61356,Berlin,IL
62670,Berlin,IL
61441,Bernadotte,IL
61477,Bernadotte,IL
61482,Bernadotte,IL
61542,Bernadotte,IL
61053,Berreman,IL
61062,Berreman,IL
61085,Berreman,IL
62823,Berry,IL
62837,Berry,IL
62842,Berry,IL
62850,Berry,IL
62886,Berry,IL
62895,Berry,IL
60402,"Berwyn (township)",IL
61455,Bethel,IL
62326,Bethel,IL
62367,Bethel,IL
62312,Beverly,IL
62314,Beverly,IL
62347,Beverly,IL
62434,"Bible Grove",IL
62858,"Bible Grove",IL
60541,"Big Grove",IL
61418,"Biggsville (township)",IL
61469,"Biggsville (township)",IL
62809,"Big Mound",IL
62837,"Big Mound",IL
62895,"Big Mound",IL
60119,"Big Rock (township)",IL
60511,"Big Rock (township)",IL
60554,"Big Rock (township)",IL
61957,"Big Spring",IL
62447,"Big Spring",IL
62462,"Big Spring",IL
62463,"Big Spring",IL
62465,"Big Spring",IL
62626,Bird,IL
62630,Bird,IL
62649,Bird,IL
62311,Birmingham,IL
62344,Birmingham,IL
62367,Birmingham,IL
62401,Bishop,IL
62424,Bishop,IL
62467,Bishop,IL
60119,Blackberry,IL
60134,Blackberry,IL
60147,Blackberry,IL
60510,Blackberry,IL
60542,Blackberry,IL
60554,Blackberry,IL
61201,Blackhawk,IL
61240,Blackhawk,IL
61264,Blackhawk,IL
61265,Blackhawk,IL
61284,Blackhawk,IL
62426,Blair,IL
62443,Blair,IL
62858,Blair,IL
61420,"Blandinsville (township)",IL
61450,"Blandinsville (township)",IL
61475,"Blandinsville (township)",IL
62808,Blissville,IL
62883,Blissville,IL
62894,Blissville,IL
62898,Blissville,IL
60411,Bloom,IL
60412,Bloom,IL
60422,Bloom,IL
60425,Bloom,IL
60430,Bloom,IL
60438,Bloom,IL
60461,Bloom,IL
60466,Bloom,IL
60475,Bloom,IL
60101,"Bloomingdale (township)",IL
60108,"Bloomingdale (township)",IL
60116,"Bloomingdale (township)",IL
60117,"Bloomingdale (township)",IL
60125,"Bloomingdale (township)",IL
60128,"Bloomingdale (township)",IL
60132,"Bloomingdale (township)",IL
60133,"Bloomingdale (township)",IL
60137,"Bloomingdale (township)",IL
60139,"Bloomingdale (township)",IL
60143,"Bloomingdale (township)",IL
60148,"Bloomingdale (township)",IL
60157,"Bloomingdale (township)",IL
60172,"Bloomingdale (township)",IL
60188,"Bloomingdale (township)",IL
60197,"Bloomingdale (township)",IL
61701,"Bloomington City",IL
61702,"Bloomington City",IL
61704,"Bloomington City",IL
61705,"Bloomington City",IL
61709,"Bloomington City",IL
61710,"Bloomington City",IL
61761,"Bloomington City",IL
61791,"Bloomington City",IL
61799,"Bloomington City",IL
61701,"Bloomington (township)",IL
61704,"Bloomington (township)",IL
61705,"Bloomington (township)",IL
61772,"Bloomington (township)",IL
61831,Blount,IL
61832,Blount,IL
61834,Blount,IL
61858,Blount,IL
61865,Blount,IL
62513,"Blue Mound (township)",IL
62514,"Blue Mound (township)",IL
62521,"Blue Mound (township)",IL
62522,"Blue Mound (township)",IL
62544,"Blue Mound (township)",IL
62547,"Blue Mound (township)",IL
61839,"Blue Ridge",IL
61842,"Blue Ridge",IL
61853,"Blue Ridge",IL
61854,"Blue Ridge",IL
62016,Bluffdale,IL
62027,Bluffdale,IL
62092,Bluffdale,IL
62533,"Bois D'arc",IL
62546,"Bois D'arc",IL
62558,"Bois D'arc",IL
62640,"Bois D'arc",IL
62690,"Bois D'arc",IL
62263,Bolo,IL
62808,Bolo,IL
62831,Bolo,IL
62417,Bond,IL
62427,Bond,IL
62439,Bond,IL
62466,Bond,IL
62419,Bonpas,IL
62421,Bonpas,IL
62450,Bonpas,IL
62452,Bonpas,IL
62466,Bonpas,IL
61008,Bonus,IL
61038,Bonus,IL
61065,Bonus,IL
60033,Boone,IL
61012,Boone,IL
61038,Boone,IL
61065,Boone,IL
60538,"Boulder Hill",IL
61910,Bourbon,IL
61911,Bourbon,IL
61953,Bourbon,IL
60901,"Bourbonnais (township)",IL
60914,"Bourbonnais (township)",IL
60915,"Bourbonnais (township)",IL
60950,"Bourbonnais (township)",IL
61910,Bowdre,IL
61919,Bowdre,IL
61930,Bowdre,IL
61943,Bowdre,IL
61953,Bowdre,IL
62931,Bowlesville,IL
62954,Bowlesville,IL
62984,Bowlesville,IL
61264,Bowling,IL
61279,Bowling,IL
61281,Bowling,IL
61284,Bowling,IL
62080,"Bowling Green",IL
62422,"Bowling Green",IL
62431,"Bowling Green",IL
61721,Boynton,IL
61734,Boynton,IL
61747,Boynton,IL
62635,Boynton,IL
60407,"Braceville (township)",IL
60416,"Braceville (township)",IL
60424,"Braceville (township)",IL
60474,"Braceville (township)",IL
62216,"Breese (township)",IL
62230,"Breese (township)",IL
62231,"Breese (township)",IL
62245,"Breese (township)",IL
60406,Bremen,IL
60426,Bremen,IL
60428,Bremen,IL
60429,Bremen,IL
60430,Bremen,IL
60445,Bremen,IL
60452,Bremen,IL
60462,Bremen,IL
60469,Bremen,IL
60472,Bremen,IL
60477,Bremen,IL
60478,Bremen,IL
60921,Brenton,IL
60959,Brenton,IL
60962,Brenton,IL
60968,Brenton,IL
62417,"Bridgeport (township)",IL
62466,"Bridgeport (township)",IL
62002,"Brighton (township)",IL
62012,"Brighton (township)",IL
62014,"Brighton (township)",IL
62685,"Brighton (township)",IL
61489,"Brimfield (township)",IL
61517,"Brimfield (township)",IL
61529,"Brimfield (township)",IL
62634,Broadwell,IL
62634,"Broadwell (township)",IL
62656,"Broadwell (township)",IL
62666,"Broadwell (township)",IL
60518,Brooklyn,IL
61318,Brooklyn,IL
61342,Brooklyn,IL
61378,Brooklyn,IL
61452,Brooklyn,IL
62059,Brooklyn,IL
62201,Brooklyn,IL
62319,Brooklyn,IL
62344,Brooklyn,IL
62367,Brooklyn,IL
62801,Brookside,IL
61030,Brookville,IL
61064,Brookville,IL
61078,Brookville,IL
61924,"Brouilletts Creek",IL
61944,"Brouilletts Creek",IL
61843,Brown,IL
61845,Brown,IL
62624,"Browning (township)",IL
62681,"Browning (township)",IL
61364,Bruce,IL
62917,Brushy,IL
62935,Brushy,IL
62946,Brushy,IL
62033,"Brushy Mound",IL
62626,"Brushy Mound",IL
62685,"Brushy Mound",IL
61917,Buck,IL
61933,Buck,IL
61944,Buck,IL
61949,Buck,IL
61013,Buckeye,IL
61018,Buckeye,IL
61032,Buckeye,IL
61050,Buckeye,IL
61060,Buckeye,IL
62513,Buckhart,IL
62531,Buckhart,IL
62567,Buckhart,IL
62568,Buckhart,IL
61519,Buckheart,IL
61520,Buckheart,IL
61524,Buckheart,IL
61542,Buckheart,IL
61563,Buckheart,IL
62353,Buckhorn,IL
62375,Buckhorn,IL
62319,"Buena Vista",IL
62681,"Buena Vista",IL
62515,"Buffalo Hart",IL
62561,"Buffalo Hart",IL
62693,"Buffalo Hart",IL
60012,"Bull Valley",IL
60050,"Bull Valley",IL
60097,"Bull Valley",IL
60098,"Bull Valley",IL
62012,"Bunker Hill (township)",IL
62014,"Bunker Hill (township)",IL
62685,"Bunker Hill (township)",IL
61315,"Bureau Junction",IL
62246,Burgess,IL
62273,Burgess,IL
62275,Burgess,IL
60109,"Burlington (township)",IL
60140,"Burlington (township)",IL
60151,"Burlington (township)",IL
60178,"Burlington (township)",IL
61238,Burns,IL
61434,Burns,IL
61443,Burns,IL
62820,"Burnt Prairie (township)",IL
62821,"Burnt Prairie (township)",IL
62835,"Burnt Prairie (township)",IL
62844,"Burnt Prairie (township)",IL
62862,"Burnt Prairie (township)",IL
61024,Burritt,IL
61063,Burritt,IL
61088,Burritt,IL
61101,Burritt,IL
60081,Burton,IL
62305,Burton,IL
62347,Burton,IL
62924,Bush,IL
61422,"Bushnell (township)",IL
61470,"Bushnell (township)",IL
62015,"Butler Grove",IL
62049,"Butler Grove",IL
62051,"Butler Grove",IL
62056,"Butler Grove",IL
60957,Button,IL
60960,Button,IL
61010,"Byron (township)",IL
61047,"Byron (township)",IL
61102,"Byron (township)",IL
62009,Cahokia,IL
62023,Cahokia,IL
62033,Cahokia,IL
62056,Cahokia,IL
62069,Cahokia,IL
62206,Cahokia,IL
62239,Cahokia,IL
62240,Cahokia,IL
62260,Cahokia,IL
61008,"Caledonia (township)",IL
61011,"Caledonia (township)",IL
61065,"Caledonia (township)",IL
61111,"Caledonia (township)",IL
60406,Calumet,IL
60827,Calumet,IL
61919,"Camargo (township)",IL
61953,"Camargo (township)",IL
61956,"Camargo (township)",IL
61238,"Cambridge (township)",IL
61434,"Cambridge (township)",IL
62319,"Camden (township)",IL
62344,"Camden (township)",IL
62320,"Camp Point (township)",IL
62325,"Camp Point (township)",IL
62339,"Camp Point (township)",IL
60119,Campton,IL
60124,Campton,IL
60151,Campton,IL
60175,Campton,IL
60183,Campton,IL
60119,"Campton Hills",IL
60124,"Campton Hills",IL
60175,"Campton Hills",IL
60183,"Campton Hills",IL
61065,"Candlewick Lake",IL
61257,"Canoe Creek",IL
62201,Canteen,IL
62203,Canteen,IL
62204,Canteen,IL
62208,Canteen,IL
62223,Canteen,IL
62232,Canteen,IL
62234,Canteen,IL
61520,"Canton (township)",IL
61531,"Canton (township)",IL
61553,"Canton (township)",IL
62629,Capital,IL
62670,Capital,IL
62701,Capital,IL
62702,Capital,IL
62703,Capital,IL
62704,Capital,IL
62705,Capital,IL
62706,Capital,IL
62707,Capital,IL
62708,Capital,IL
62711,Capital,IL
62712,Capital,IL
62713,Capital,IL
62715,Capital,IL
62716,Capital,IL
62719,Capital,IL
62721,Capital,IL
62722,Capital,IL
62723,Capital,IL
62726,Capital,IL
62736,Capital,IL
62739,Capital,IL
62746,Capital,IL
62756,Capital,IL
62757,Capital,IL
62761,Capital,IL
62762,Capital,IL
62763,Capital,IL
62764,Capital,IL
62765,Capital,IL
62766,Capital,IL
62767,Capital,IL
62769,Capital,IL
62776,Capital,IL
62777,Capital,IL
62781,Capital,IL
62786,Capital,IL
62791,Capital,IL
62794,Capital,IL
62796,Capital,IL
62901,"Carbondale (township)",IL
62902,"Carbondale (township)",IL
62903,"Carbondale (township)",IL
62924,"Carbondale (township)",IL
62966,"Carbondale (township)",IL
60416,"Carbon Hill",IL
62626,"Carlinville (township)",IL
62231,"Carlyle (township)",IL
62821,"Carmi (township)",IL
62835,"Carmi (township)",IL
62917,"Carrier Mills (township)",IL
62946,"Carrier Mills (township)",IL
62987,"Carrier Mills (township)",IL
62870,Carrigan,IL
62875,Carrigan,IL
62882,Carrigan,IL
61817,Carroll,IL
61846,Carroll,IL
61850,Carroll,IL
61870,Carroll,IL
61876,Carroll,IL
62016,"Carrollton (township)",IL
62092,"Carrollton (township)",IL
62080,Carson,IL
62418,Carson,IL
62431,Carson,IL
62321,"Carthage (township)",IL
62670,Cartwright,IL
62677,Cartwright,IL
62420,"Casey (township)",IL
62442,"Casey (township)",IL
62208,"Caseyville (township)",IL
62223,"Caseyville (township)",IL
62226,"Caseyville (township)",IL
62232,"Caseyville (township)",IL
62234,"Caseyville (township)",IL
62269,"Caseyville (township)",IL
62808,Casner,IL
62877,Casner,IL
62898,Casner,IL
61427,Cass,IL
61477,Cass,IL
61817,"Catlin (township)",IL
61834,"Catlin (township)",IL
61841,"Catlin (township)",IL
61846,"Catlin (township)",IL
61858,"Catlin (township)",IL
61883,"Catlin (township)",IL
62890,Cave,IL
62896,Cave,IL
62919,Cave-in-rock,IL
61545,Cazenovia,IL
61548,Cazenovia,IL
61570,Cazenovia,IL
61401,Cedar,IL
61410,Cedar,IL
61436,Cedar,IL
62246,Central,IL
62801,"Central City",IL
62801,"Centralia (township)",IL
62870,"Centralia (township)",IL
62882,"Centralia (township)",IL
62893,"Centralia (township)",IL
62203,Centreville,IL
62205,Centreville,IL
62206,Centreville,IL
62207,Centreville,IL
62201,"Centreville (township)",IL
62203,"Centreville (township)",IL
62205,"Centreville (township)",IL
62206,"Centreville (township)",IL
62207,"Centreville (township)",IL
62223,"Centreville (township)",IL
62239,"Centreville (township)",IL
62240,"Centreville (township)",IL
62260,"Centreville (township)",IL
61813,"Cerro Gordo (township)",IL
61818,"Cerro Gordo (township)",IL
61855,"Cerro Gordo (township)",IL
61929,"Cerro Gordo (township)",IL
61936,"Cerro Gordo (township)",IL
61455,Chalmers,IL
62326,Chalmers,IL
61820,"Champaign City",IL
61821,"Champaign City",IL
61822,"Champaign City",IL
61824,"Champaign City",IL
61825,"Champaign City",IL
61826,"Champaign City",IL
61820,"Champaign (township)",IL
61821,"Champaign (township)",IL
61822,"Champaign (township)",IL
61874,"Champaign (township)",IL
62627,"Chandlerville (township)",IL
62673,"Chandlerville (township)",IL
60410,"Channahon (township)",IL
60421,"Channahon (township)",IL
60447,"Channahon (township)",IL
60481,"Channahon (township)",IL
60002,"Channel Lake",IL
61920,"Charleston (township)",IL
62440,"Charleston (township)",IL
62615,"Chatham (township)",IL
62629,"Chatham (township)",IL
62661,"Chatham (township)",IL
60921,"Chatsworth (township)",IL
61775,"Chatsworth (township)",IL
60911,"Chebanse (township)",IL
60922,"Chebanse (township)",IL
60927,"Chebanse (township)",IL
60033,Chemung,IL
60033,"Chemung (township)",IL
60936,"Cheney's Grove",IL
61770,"Cheney's Grove",IL
61726,"Chenoa (township)",IL
61744,"Chenoa (township)",IL
61753,"Chenoa (township)",IL
61046,"Cherry Grove-shannon",IL
61078,"Cherry Grove-shannon",IL
60146,"Cherry Valley (township)",IL
61016,"Cherry Valley (township)",IL
61109,"Cherry Valley (township)",IL
61112,"Cherry Valley (township)",IL
62063,"Chesterfield (township)",IL
62630,"Chesterfield (township)",IL
62316,Chili,IL
62321,Chili,IL
62380,Chili,IL
61523,"Chillicothe (township)",IL
61562,"Chillicothe (township)",IL
61565,"Chillicothe (township)",IL
62024,Chouteau,IL
62025,Chouteau,IL
62040,Chouteau,IL
62048,Chouteau,IL
62084,Chouteau,IL
62087,Chouteau,IL
62466,Christy,IL
60804,"Cicero (township)",IL
61534,Cincinnati,IL
61546,Cincinnati,IL
61554,Cincinnati,IL
61564,Cincinnati,IL
62343,Cincinnati,IL
62345,Cincinnati,IL
62356,Cincinnati,IL
62421,"Claremont (township)",IL
62450,"Claremont (township)",IL
62466,"Claremont (township)",IL
61330,Clarion,IL
61342,Clarion,IL
62422,Clarksburg,IL
62444,Clarksburg,IL
62465,Clarksburg,IL
62565,Clarksburg,IL
62824,"Clay City (township)",IL
62320,"Clayton (township)",IL
62324,"Clayton (township)",IL
62339,"Clayton (township)",IL
62707,"Clear Lake",IL
62520,"Clear Lake (township)",IL
62561,"Clear Lake (township)",IL
62684,"Clear Lake (township)",IL
62702,"Clear Lake (township)",IL
62703,"Clear Lake (township)",IL
62707,"Clear Lake (township)",IL
62712,"Clear Lake (township)",IL
62231,Clement,IL
62252,Clement,IL
62801,Clement,IL
61241,Cleveland,IL
61727,Clintonia,IL
61777,Clintonia,IL
61238,Clover,IL
61262,Clover,IL
61413,Clover,IL
61490,Clover,IL
61014,Clyde,IL
61270,Clyde,IL
62075,Coalton,IL
61240,"Coal Valley (township)",IL
61264,"Coal Valley (township)",IL
61265,"Coal Valley (township)",IL
61242,Coe,IL
61257,Coe,IL
61275,Coe,IL
62326,"Colchester (township)",IL
61401,Coldbrook,IL
61423,Coldbrook,IL
61435,Coldbrook,IL
61462,Coldbrook,IL
62422,"Cold Spring",IL
62431,"Cold Spring",IL
62438,"Cold Spring",IL
62557,"Cold Spring",IL
62571,"Cold Spring",IL
61081,Coleta,IL
62034,"Collinsville (township)",IL
62040,"Collinsville (township)",IL
62062,"Collinsville (township)",IL
62234,"Collinsville (township)",IL
61071,Coloma,IL
61081,Coloma,IL
61240,"Colona (township)",IL
61241,"Colona (township)",IL
61254,"Colona (township)",IL
62320,Columbus,IL
62320,"Columbus (township)",IL
62347,"Columbus (township)",IL
61081,Como,IL
61847,Compromise,IL
61859,Compromise,IL
61862,Compromise,IL
61866,Compromise,IL
61873,Compromise,IL
61878,Compromise,IL
61822,Condit,IL
61840,Condit,IL
61843,Condit,IL
61866,Condit,IL
61878,Condit,IL
62520,Cooper,IL
62545,Cooper,IL
62563,Cooper,IL
62353,Cooperstown,IL
62378,Cooperstown,IL
61414,Copley,IL
61428,Copley,IL
61448,Copley,IL
61467,Copley,IL
61485,Copley,IL
60142,Coral,IL
60152,Coral,IL
60180,Coral,IL
61242,"Cordova (township)",IL
61234,Cornwall,IL
61235,Cornwall,IL
61238,Cornwall,IL
61443,Cornwall,IL
60112,"Cortland (township)",IL
60115,"Cortland (township)",IL
60151,"Cortland (township)",IL
60178,"Cortland (township)",IL
62634,Corwin,IL
62656,Corwin,IL
62666,Corwin,IL
62671,Corwin,IL
62930,Cottage,IL
62934,Cottage,IL
62946,Cottage,IL
62558,"Cotton Hill",IL
62563,"Cotton Hill",IL
62712,"Cotton Hill",IL
62428,Cottonwood,IL
62435,Cottonwood,IL
62440,Cottonwood,IL
62468,Cottonwood,IL
62469,Cottonwood,IL
61036,"Council Hill",IL
61075,"Council Hill",IL
62214,Covington,IL
62263,Covington,IL
62271,Covington,IL
62803,Covington,IL
61264,"Coyne Center",IL
62959,"Crab Orchard",IL
62918,Crainville,IL
62633,"Crane Creek",IL
62655,"Crane Creek",IL
62664,"Crane Creek",IL
61727,Creek,IL
61750,Creek,IL
61756,Creek,IL
61882,Creek,IL
60928,Crescent,IL
60953,Crescent,IL
60955,Crescent,IL
60970,Crescent,IL
60403,"Crest Hill",IL
60441,"Crest Hill",IL
60401,"Crete (township)",IL
60417,"Crete (township)",IL
60466,"Crete (township)",IL
60475,"Crete (township)",IL
60484,"Crete (township)",IL
61863,Crittenden,IL
61864,Crittenden,IL
61880,Crittenden,IL
61956,Crittenden,IL
62835,Crook,IL
62859,Crook,IL
62420,"Crooked Creek",IL
62428,"Crooked Creek",IL
62432,"Crooked Creek",IL
62436,"Crooked Creek",IL
62448,"Crooked Creek",IL
62828,Crouch,IL
62859,Crouch,IL
62887,Crouch,IL
62895,Crouch,IL
61530,Cruger,IL
60431,"Crystal Lawns",IL
60435,"Crystal Lawns",IL
60586,"Crystal Lawns",IL
61801,Cunningham,IL
61802,Cunningham,IL
61803,Cunningham,IL
62670,Curran,IL
62629,"Curran (township)",IL
62661,"Curran (township)",IL
62670,"Curran (township)",IL
62677,"Curran (township)",IL
62704,"Curran (township)",IL
62711,"Curran (township)",IL
60481,Custer,IL
62810,"Dahlgren (township)",IL
62828,"Dahlgren (township)",IL
62859,"Dahlgren (township)",IL
61018,"Dakota (township)",IL
61032,"Dakota (township)",IL
61070,"Dakota (township)",IL
62329,"Dallas City (township)",IL
62330,"Dallas City (township)",IL
62358,"Dallas City (township)",IL
62215,Damiansville,IL
60911,"Danforth (township)",IL
60930,"Danforth (township)",IL
60938,"Danforth (township)",IL
60970,"Danforth (township)",IL
61725,"Danvers (township)",IL
61729,"Danvers (township)",IL
61732,"Danvers (township)",IL
61817,"Danville (township)",IL
61832,"Danville (township)",IL
61833,"Danville (township)",IL
61834,"Danville (township)",IL
61858,"Danville (township)",IL
61883,"Danville (township)",IL
62255,Darmstadt,IL
62441,Darwin,IL
62477,Darwin,IL
61350,Dayton,IL
60549,"Dayton (township)",IL
60557,"Dayton (township)",IL
61350,"Dayton (township)",IL
62521,"Decatur (township)",IL
62522,"Decatur (township)",IL
62523,"Decatur (township)",IL
62524,"Decatur (township)",IL
62525,"Decatur (township)",IL
62526,"Decatur (township)",IL
62450,Decker,IL
62868,Decker,IL
61550,"Deer Creek (township)",IL
61732,"Deer Creek (township)",IL
61733,"Deer Creek (township)",IL
61742,"Deer Creek (township)",IL
61755,"Deer Creek (township)",IL
60010,"Deer Park",IL
60047,"Deer Park",IL
60074,"Deer Park",IL
61325,"Deer Park",IL
61348,"Deer Park",IL
61350,"Deer Park",IL
61370,"Deer Park",IL
62280,Degognia,IL
62907,Degognia,IL
62950,Degognia,IL
60111,"Dekalb (township)",IL
60115,"Dekalb (township)",IL
60178,"Dekalb (township)",IL
61734,"Delavan (township)",IL
60113,Dement,IL
61068,Dement,IL
62417,Denison,IL
62439,Denison,IL
62460,Denison,IL
62812,Denning,IL
62865,Denning,IL
62874,Denning,IL
62896,Denning,IL
62425,Denver,IL
62448,Denver,IL
62450,Denver,IL
62868,Denver,IL
61322,"De Pue",IL
61356,"De Pue",IL
61028,Derinda,IL
61041,Derinda,IL
61074,Derinda,IL
61085,Derinda,IL
62312,Derry,IL
62356,Derry,IL
62363,Derry,IL
62370,Derry,IL
62901,"De Soto (township)",IL
62924,"De Soto (township)",IL
62966,"De Soto (township)",IL
62363,Detroit,IL
62340,"Detroit (township)",IL
62363,"Detroit (township)",IL
61735,"De Witt",IL
61735,"De Witt (township)",IL
61842,"De Witt (township)",IL
61882,"De Witt (township)",IL
60416,Diamond,IL
61534,Dillon,IL
61554,Dillon,IL
61568,Dillon,IL
61734,Dillon,IL
61301,Dimmick,IL
61354,Dimmick,IL
62530,"Divernon (township)",IL
62536,"Divernon (township)",IL
62558,"Divernon (township)",IL
62615,"Divernon (township)",IL
62690,"Divernon (township)",IL
61021,"Dixon (township)",IL
62816,Dodds,IL
62864,Dodds,IL
62872,Dodds,IL
61944,Dolson,IL
62441,Dolson,IL
62442,Dolson,IL
61914,Dora,IL
61925,Dora,IL
61937,Dora,IL
62033,Dorchester,IL
62009,"Dorchester (township)",IL
62014,"Dorchester (township)",IL
62033,"Dorchester (township)",IL
62088,"Dorchester (township)",IL
62093,"Dorchester (township)",IL
60012,Dorr,IL
60014,Dorr,IL
60098,Dorr,IL
60938,Douglas,IL
60955,Douglas,IL
60970,Douglas,IL
62401,Douglas,IL
62441,Douglas,IL
62467,Douglas,IL
61323,"Dover (township)",IL
61349,"Dover (township)",IL
61356,"Dover (township)",IL
61376,"Dover (township)",IL
60439,"Downers Grove (township)",IL
60514,"Downers Grove (township)",IL
60515,"Downers Grove (township)",IL
60516,"Downers Grove (township)",IL
60517,"Downers Grove (township)",IL
60521,"Downers Grove (township)",IL
60523,"Downers Grove (township)",IL
60527,"Downers Grove (township)",IL
60559,"Downers Grove (township)",IL
60561,"Downers Grove (township)",IL
61705,"Downs (township)",IL
61736,"Downs (township)",IL
61745,"Downs (township)",IL
61752,"Downs (township)",IL
60936,Drummer,IL
61773,Drummer,IL
61845,Drummer,IL
61259,Drury,IL
61272,Drury,IL
61705,"Dry Grove",IL
61725,"Dry Grove",IL
61732,"Dry Grove",IL
61748,"Dry Grove",IL
61761,"Dry Grove",IL
62414,"Dry Point",IL
62422,"Dry Point",IL
62444,"Dry Point",IL
62808,"Du Bois (township)",IL
62831,"Du Bois (township)",IL
62876,"Du Bois (township)",IL
60033,Dunham,IL
60152,Dunham,IL
61038,Dunham,IL
61025,Dunleith,IL
60439,"Du Page",IL
60440,"Du Page",IL
60441,"Du Page",IL
60446,"Du Page",IL
60490,"Du Page",IL
60544,"Du Page",IL
60565,"Du Page",IL
61019,"Durand (township)",IL
61024,"Durand (township)",IL
61063,"Durand (township)",IL
61450,Durham,IL
62330,Durham,IL
60420,"Dwight (township)",IL
60460,"Dwight (township)",IL
61364,Eagle,IL
61370,Eagle,IL
62934,"Eagle Creek",IL
62954,"Eagle Creek",IL
61051,"Eagle Point",IL
61064,"Eagle Point",IL
60518,Earl,IL
60531,Earl,IL
60936,"East Bend",IL
60957,"East Bend",IL
61840,"East Bend",IL
61843,"East Bend",IL
61845,"East Bend",IL
61866,"East Bend",IL
60474,"East Brooklyn",IL
62957,"East Cape Girardeau",IL
60110,"East Dundee",IL
60118,"East Dundee",IL
60192,"East Dundee",IL
62930,"East Eldorado",IL
62934,"East Eldorado",IL
62946,"East Eldorado",IL
62805,Eastern,IL
62812,Eastern,IL
62860,Eastern,IL
62890,Eastern,IL
62017,"East Fork",IL
62019,"East Fork",IL
62049,"East Fork",IL
62051,"East Fork",IL
62231,"East Fork",IL
62875,"East Fork",IL
62882,"East Fork",IL
61036,"East Galena",IL
62033,"East Gillespie",IL
61042,"East Grove",IL
61310,"East Grove",IL
61349,"East Grove",IL
61376,"East Grove",IL
60429,"East Hazel Crest",IL
60430,"East Hazel Crest",IL
60473,"East Hazel Crest",IL
61723,"East Lincoln",IL
61751,"East Lincoln",IL
62512,"East Lincoln",IL
62656,"East Lincoln",IL
61951,"East Nelson",IL
61933,"East Oakland",IL
61943,"East Oakland",IL
62071,"East St. Louis",IL
62201,"East St. Louis",IL
62202,"East St. Louis",IL
62203,"East St. Louis",IL
62204,"East St. Louis",IL
62205,"East St. Louis",IL
62207,"East St. Louis",IL
62223,"East St. Louis",IL
62071,"East St. Louis (township)",IL
62201,"East St. Louis (township)",IL
62202,"East St. Louis (township)",IL
62203,"East St. Louis (township)",IL
62204,"East St. Louis (township)",IL
62205,"East St. Louis (township)",IL
62207,"East St. Louis (township)",IL
62223,"East St. Louis (township)",IL
61316,Eden,IL
61348,Eden,IL
61354,Eden,IL
61370,Eden,IL
61241,Edford,IL
61254,Edford,IL
61924,Edgar,IL
61940,Edgar,IL
61944,Edgar,IL
61259,Edgington,IL
61279,Edgington,IL
61284,Edgington,IL
62025,"Edwardsville (township)",IL
62026,"Edwardsville (township)",IL
62034,"Edwardsville (township)",IL
60010,Ela,IL
60047,Ela,IL
60060,Ela,IL
60074,Ela,IL
61436,Elba,IL
61458,Elba,IL
61489,Elba,IL
61529,Elba,IL
61572,Elba,IL
61944,Elbridge,IL
61955,Elbridge,IL
62423,Elbridge,IL
62312,"El Dara",IL
62356,"El Dara",IL
60120,"Elgin (township)",IL
60121,"Elgin (township)",IL
60122,"Elgin (township)",IL
60123,"Elgin (township)",IL
60124,"Elgin (township)",IL
60177,"Elgin (township)",IL
61260,Eliza,IL
61272,Eliza,IL
61028,"Elizabeth (township)",IL
61036,"Elizabeth (township)",IL
61041,"Elizabeth (township)",IL
62832,Elk,IL
62924,Elk,IL
62927,Elk,IL
62932,Elk,IL
60005,"Elk Grove",IL
60007,"Elk Grove",IL
60008,"Elk Grove",IL
60009,"Elk Grove",IL
60016,"Elk Grove",IL
60018,"Elk Grove",IL
60056,"Elk Grove",IL
62519,"Elkhart (township)",IL
62548,"Elkhart (township)",IL
62634,"Elkhart (township)",IL
62656,"Elkhart (township)",IL
62693,"Elkhart (township)",IL
62323,Elkhorn,IL
62353,Elkhorn,IL
62378,Elkhorn,IL
61051,"Elkhorn Grove",IL
62816,"Elk Prairie",IL
62846,"Elk Prairie",IL
62866,"Elk Prairie",IL
62894,"Elk Prairie",IL
62301,Ellington,IL
62305,Ellington,IL
62338,Ellington,IL
61473,Ellison,IL
61478,Ellison,IL
61415,"Ellisville (township)",IL
61431,"Ellisville (township)",IL
61544,"Ellisville (township)",IL
61535,"Elm Grove",IL
61554,"Elm Grove",IL
61568,"Elm Grove",IL
61345,Elmira,IL
61421,Elmira,IL
61443,Elmira,IL
61483,Elmira,IL
61491,Elmira,IL
62446,"Elm River",IL
62823,"Elm River",IL
62842,"Elm River",IL
61517,"Elmwood (township)",IL
61529,"Elmwood (township)",IL
61569,"Elmwood (township)",IL
61738,"El Paso (township)",IL
62022,"Elsah (township)",IL
62028,"Elsah (township)",IL
62035,"Elsah (township)",IL
62037,"Elsah (township)",IL
61917,Embarrass,IL
61933,Embarrass,IL
61943,Embarrass,IL
61944,Embarrass,IL
61949,Embarrass,IL
61721,Eminence,IL
61723,Eminence,IL
61751,Eminence,IL
62635,Eminence,IL
62643,Eminence,IL
62656,Eminence,IL
61455,Emmet,IL
61475,Emmet,IL
62326,Emmet,IL
61737,Empire,IL
61752,Empire,IL
62821,"Enfield (township)",IL
62835,"Enfield (township)",IL
62869,"Enfield (township)",IL
62258,Engelmann,IL
62031,English,IL
62052,English,IL
62054,English,IL
61726,"Eppards Point",IL
61739,"Eppards Point",IL
61764,"Eppards Point",IL
62934,"Equality (township)",IL
62954,"Equality (township)",IL
62979,"Equality (township)",IL
60450,Erienna,IL
61250,"Erie (township)",IL
61027,Erin,IL
61032,Erin,IL
61048,Erin,IL
61062,Erin,IL
60460,Esmen,IL
61319,Esmen,IL
61764,Esmen,IL
60424,"Essex (township)",IL
60481,"Essex (township)",IL
60913,"Essex (township)",IL
60917,"Essex (township)",IL
60935,"Essex (township)",IL
60941,"Essex (township)",IL
60961,"Essex (township)",IL
61336,Evans,IL
61358,Evans,IL
61369,Evans,IL
61375,Evans,IL
61377,Evans,IL
60201,"Evanston (township)",IL
60202,"Evanston (township)",IL
60204,"Evanston (township)",IL
60208,"Evanston (township)",IL
60209,"Evanston (township)",IL
62812,"Ewing (township)",IL
62836,"Ewing (township)",IL
62897,"Ewing (township)",IL
62621,Exeter,IL
61014,Fairhaven,IL
61053,Fairhaven,IL
60432,Fairmont,IL
60441,Fairmont,IL
62040,"Fairmont City",IL
62201,"Fairmont City",IL
62204,"Fairmont City",IL
62234,"Fairmont City",IL
61432,"Fairview (township)",IL
61531,"Fairview (township)",IL
61544,"Fairview (township)",IL
62305,"Fall Creek",IL
62360,"Fall Creek",IL
61341,"Fall River",IL
61350,"Fall River",IL
62613,"Fancy Creek",IL
62625,"Fancy Creek",IL
62677,"Fancy Creek",IL
62684,"Fancy Creek",IL
62693,"Fancy Creek",IL
62707,"Fancy Creek",IL
61441,Farmers,IL
61477,Farmers,IL
61482,Farmers,IL
61520,"Farmington (township)",IL
61531,"Farmington (township)",IL
61553,"Farmington (township)",IL
61325,"Farm Ridge",IL
61350,"Farm Ridge",IL
61364,"Farm Ridge",IL
62814,Farrington,IL
62851,Farrington,IL
62864,Farrington,IL
62889,Farrington,IL
61731,Fayette,IL
61741,Fayette,IL
61775,Fayette,IL
62258,Fayetteville,IL
62255,"Fayetteville (township)",IL
62257,"Fayetteville (township)",IL
62258,"Fayetteville (township)",IL
62282,"Fayetteville (township)",IL
60416,Felix,IL
60450,Felix,IL
62012,"Fidelity (township)",IL
62030,"Fidelity (township)",IL
62052,"Fidelity (township)",IL
62063,"Fidelity (township)",IL
62079,"Fidelity (township)",IL
62830,Field,IL
62864,Field,IL
62889,Field,IL
62017,"Fillmore (township)",IL
62032,"Fillmore (township)",IL
62049,"Fillmore (township)",IL
62051,"Fillmore (township)",IL
61068,Flagg,IL
62859,Flannigan,IL
62860,Flannigan,IL
62890,Flannigan,IL
62510,"Flat Branch",IL
62550,"Flat Branch",IL
62340,Flint,IL
62363,Flint,IL
62298,Floraville,IL
60442,Florence,IL
60481,Florence,IL
61007,Florence,IL
61032,Florence,IL
61062,Florence,IL
61078,Florence,IL
62363,Florence,IL
61401,Floyd,IL
61410,Floyd,IL
61417,Floyd,IL
61423,Floyd,IL
61462,Floyd,IL
61571,Fondulac,IL
61610,Fondulac,IL
61611,Fondulac,IL
61532,"Forest City (township)",IL
61546,"Forest City (township)",IL
61567,"Forest City (township)",IL
62633,"Forest City (township)",IL
62682,"Forest City (township)",IL
60047,"Forest Lake",IL
60402,"Forest View",IL
60638,"Forest View",IL
60804,"Forest View",IL
61007,"Forreston (township)",IL
61030,"Forreston (township)",IL
61078,"Forreston (township)",IL
60921,"Forrest (township)",IL
61739,"Forrest (township)",IL
61741,"Forrest (township)",IL
61775,"Forrest (township)",IL
62010,"Fort Russell",IL
62025,"Fort Russell",IL
62067,"Fort Russell",IL
62084,"Fort Russell",IL
62095,"Fort Russell",IL
62002,Foster,IL
62010,Foster,IL
62012,Foster,IL
62021,Foster,IL
62035,Foster,IL
62807,Foster,IL
62854,Foster,IL
62875,Foster,IL
62892,Foster,IL
62907,"Fountain Bluff",IL
62940,"Fountain Bluff",IL
62942,"Fountain Bluff",IL
62950,"Fountain Bluff",IL
60924,"Fountain Creek",IL
60926,"Fountain Creek",IL
60939,"Fountain Creek",IL
60942,"Fountain Creek",IL
60953,"Fountain Creek",IL
60960,"Fountain Creek",IL
61420,"Fountain Green",IL
61450,"Fountain Green",IL
62321,"Fountain Green",IL
62810,"Four Mile",IL
62814,"Four Mile",IL
62851,"Four Mile",IL
62895,"Four Mile",IL
60536,Fox,IL
60537,Fox,IL
60541,Fox,IL
60545,Fox,IL
60548,Fox,IL
60560,Fox,IL
62448,Fox,IL
62475,Fox,IL
60046,"Fox Lake Hills",IL
60423,"Frankfort Square",IL
60487,"Frankfort Square",IL
60423,"Frankfort (township)",IL
60448,"Frankfort (township)",IL
60451,"Frankfort (township)",IL
60467,"Frankfort (township)",IL
60477,"Frankfort (township)",IL
60487,"Frankfort (township)",IL
61031,"Franklin Grove (township)",IL
61310,"Franklin Grove (township)",IL
62221,"Freeburg (township)",IL
62243,"Freeburg (township)",IL
62258,"Freeburg (township)",IL
60518,Freedom,IL
60531,Freedom,IL
60551,Freedom,IL
61046,Freedom,IL
61053,Freedom,IL
61062,Freedom,IL
61350,Freedom,IL
61032,"Freeport (township)",IL
60030,Fremont,IL
60047,Fremont,IL
60048,Fremont,IL
60060,Fremont,IL
60073,Fremont,IL
60084,Fremont,IL
61756,"Friends Creek",IL
61830,"Friends Creek",IL
61882,"Friends Creek",IL
62501,"Friends Creek",IL
62554,"Friends Creek",IL
61252,"Fulton (township)",IL
61745,"Funks Grove",IL
61754,"Funks Grove",IL
61772,"Funks Grove",IL
61774,"Funks Grove",IL
60030,"Gages Lake",IL
60031,"Gages Lake",IL
60048,"Gages Lake",IL
62890,"Galatia (township)",IL
62935,"Galatia (township)",IL
61401,"Galesburg City",IL
61402,"Galesburg City",IL
61401,"Galesburg (township)",IL
61434,"Galva (township)",IL
61443,"Galva (township)",IL
60901,Ganeer,IL
60914,Ganeer,IL
60940,Ganeer,IL
60950,Ganeer,IL
60954,Ganeer,IL
60964,Ganeer,IL
62878,"Garden Hill",IL
62899,"Garden Hill",IL
52734,"Garden Plain",IL
61230,"Garden Plain",IL
61251,"Garden Plain",IL
61252,"Garden Plain",IL
60424,Garfield,IL
61913,Garrett,IL
61872,"Garrett (township)",IL
61911,"Garrett (township)",IL
61913,"Garrett (township)",IL
61953,"Garrett (township)",IL
61014,Genesee,IL
61081,Genesee,IL
61270,Genesee,IL
61254,"Geneseo (township)",IL
60134,"Geneva (township)",IL
60185,"Geneva (township)",IL
60510,"Geneva (township)",IL
60135,"Genoa (township)",IL
60140,"Genoa (township)",IL
60152,"Genoa (township)",IL
60178,"Genoa (township)",IL
61817,"Georgetown (township)",IL
61834,"Georgetown (township)",IL
61846,"Georgetown (township)",IL
61883,"Georgetown (township)",IL
62421,German,IL
62425,German,IL
62450,German,IL
61548,"Germantown Hills",IL
62215,"Germantown (township)",IL
62218,"Germantown (township)",IL
62245,"Germantown (township)",IL
62265,"Germantown (township)",IL
60921,Germanville,IL
60952,Germanville,IL
61775,Germanville,IL
62009,"Gillespie (township)",IL
62014,"Gillespie (township)",IL
62033,"Gillespie (township)",IL
62626,"Gillespie (township)",IL
62685,"Gillespie (township)",IL
62305,Gilmer,IL
62320,Gilmer,IL
62325,Gilmer,IL
62338,Gilmer,IL
62347,Gilmer,IL
62359,Gilmer,IL
62640,"Girard (township)",IL
62690,"Girard (township)",IL
61418,"Gladstone (township)",IL
61425,"Gladstone (township)",IL
61437,"Gladstone (township)",IL
62694,Glasgow,IL
62002,"Godfrey (township)",IL
62012,"Godfrey (township)",IL
62035,"Godfrey (township)",IL
60407,Godley,IL
61283,Gold,IL
61344,Gold,IL
61361,Gold,IL
61376,Gold,IL
62954,"Gold Hill",IL
62979,"Gold Hill",IL
62984,"Gold Hill",IL
62825,Goode,IL
62865,Goode,IL
62883,Goode,IL
62884,Goode,IL
60420,Goodfarm,IL
60424,Goodfarm,IL
60444,Goodfarm,IL
61567,"Goofy Ridge",IL
62644,"Goofy Ridge",IL
61830,"Goose Creek",IL
61839,"Goose Creek",IL
61856,"Goose Creek",IL
60416,"Goose Lake",IL
60444,"Goose Lake",IL
60450,"Goose Lake",IL
60481,"Goose Lake",IL
61021,"Grand Detour",IL
61021,"Grand Detour (township)",IL
61061,"Grand Detour (township)",IL
62801,"Grand Prairie",IL
62830,"Grand Prairie",IL
62877,"Grand Prairie",IL
62893,"Grand Prairie",IL
62898,"Grand Prairie",IL
60470,"Grand Rapids",IL
61325,"Grand Rapids",IL
61341,"Grand Rapids",IL
61364,"Grand Rapids",IL
62942,"Grand Tower (township)",IL
62975,"Grand Tower (township)",IL
61933,Grandview,IL
61944,Grandview,IL
62702,Grandview,IL
62420,Grandville,IL
62449,Grandville,IL
62481,Grandville,IL
60031,"Grandwood Park",IL
60046,"Grandwood Park",IL
62040,"Granite City (township)",IL
60020,Grant,IL
60041,Grant,IL
60050,Grant,IL
60051,Grant,IL
60073,Grant,IL
60081,Grant,IL
60942,Grant,IL
60963,Grant,IL
62249,Grantfork,IL
61326,"Granville (township)",IL
61327,"Granville (township)",IL
61340,"Granville (township)",IL
61354,"Granville (township)",IL
61363,"Granville (township)",IL
62821,Gray,IL
62827,Gray,IL
62844,Gray,IL
61415,Greenbush,IL
61473,Greenbush,IL
61231,Greene,IL
61486,Greene,IL
61516,Greene,IL
61561,Greene,IL
61738,Greene,IL
61771,Greene,IL
60423,"Green Garden",IL
60442,"Green Garden",IL
60449,"Green Garden",IL
60468,"Green Garden",IL
60044,"Green Oaks",IL
60045,"Green Oaks",IL
60048,"Green Oaks",IL
62420,"Greenup (township)",IL
62428,"Greenup (township)",IL
62468,"Greenup (township)",IL
60097,Greenwood,IL
60098,Greenwood,IL
62075,Greenwood,IL
62546,Greenwood,IL
62555,Greenwood,IL
62557,Greenwood,IL
60097,"Greenwood (township)",IL
60098,"Greenwood (township)",IL
61738,"Gridley (township)",IL
61744,"Gridley (township)",IL
61753,"Gridley (township)",IL
62340,"Griggsville (township)",IL
62363,"Griggsville (township)",IL
62019,Grisham,IL
62049,Grisham,IL
62077,Grisham,IL
62086,Grisham,IL
62091,Grisham,IL
62432,Grove,IL
62436,Grove,IL
62445,Grove,IL
62448,Grove,IL
62467,Grove,IL
62479,Grove,IL
62837,Grover,IL
61028,Guilford,IL
61036,Guilford,IL
61075,Guilford,IL
61425,"Gulf Port",IL
62312,Hadley,IL
62314,Hadley,IL
62357,Hadley,IL
62611,Hagener,IL
62618,Hagener,IL
61071,Hahnaman,IL
61243,Hahnaman,IL
61283,Hahnaman,IL
62830,Haines,IL
62849,Haines,IL
62853,Haines,IL
62881,Haines,IL
62889,Haines,IL
60030,Hainesville,IL
60073,Hainesville,IL
61447,Hale,IL
61453,Hale,IL
61462,Hale,IL
61312,Hall,IL
61320,Hall,IL
61322,Hall,IL
61329,Hall,IL
61354,Hall,IL
61359,Hall,IL
61362,Hall,IL
61523,Hallock,IL
61526,Hallock,IL
62001,"Hamel (township)",IL
62025,"Hamel (township)",IL
62046,"Hamel (township)",IL
62097,"Hamel (township)",IL
60140,"Hampshire (township)",IL
60142,"Hampshire (township)",IL
60178,"Hampshire (township)",IL
52767,"Hampton (township)",IL
61236,"Hampton (township)",IL
61239,"Hampton (township)",IL
61244,"Hampton (township)",IL
61256,"Hampton (township)",IL
61265,"Hampton (township)",IL
61275,"Hampton (township)",IL
61278,"Hampton (township)",IL
61282,"Hampton (township)",IL
62856,Hanaford,IL
62890,Hanaford,IL
62321,Hancock,IL
62326,Hancock,IL
62367,Hancock,IL
62374,Hancock,IL
61241,Hanna,IL
61254,Hanna,IL
61028,"Hanover (township)",IL
61041,"Hanover (township)",IL
61074,"Hanover (township)",IL
61011,Harlem,IL
61013,Harlem,IL
61032,Harlem,IL
61048,Harlem,IL
61073,Harlem,IL
61111,Harlem,IL
61115,Harlem,IL
61130,Harlem,IL
61131,Harlem,IL
61132,Harlem,IL
61021,"Harmon (township)",IL
61042,"Harmon (township)",IL
61071,"Harmon (township)",IL
62321,Harmony,IL
61727,Harp,IL
61735,Harp,IL
61882,Harp,IL
61459,Harris,IL
61477,Harris,IL
61482,Harris,IL
62946,"Harrisburg (township)",IL
62965,"Harrisburg (township)",IL
61024,Harrison,IL
61072,Harrison,IL
61088,Harrison,IL
62966,Harrison,IL
62521,"Harristown (township)",IL
62522,"Harristown (township)",IL
62526,"Harristown (township)",IL
62537,"Harristown (township)",IL
62551,"Harristown (township)",IL
62839,Harter,IL
62858,Harter,IL
60033,Hartland,IL
60098,Hartland,IL
60152,Hartland,IL
62533,"Harvel (township)",IL
62538,"Harvel (township)",IL
62546,"Harvel (township)",IL
62560,"Harvel (township)",IL
60949,Harwood,IL
60957,Harwood,IL
61847,Harwood,IL
61866,Harwood,IL
61567,"Havana (township)",IL
62633,"Havana (township)",IL
62644,"Havana (township)",IL
61436,"Haw Creek",IL
61458,"Haw Creek",IL
62821,Hawthorne,IL
62827,Hawthorne,IL
60047,"Hawthorn Woods",IL
60060,"Hawthorn Woods",IL
60033,"Hebron (township)",IL
60034,"Hebron (township)",IL
60071,"Hebron (township)",IL
60097,"Hebron (township)",IL
62249,Helvetia,IL
62293,Helvetia,IL
61401,"Henderson (township)",IL
61439,"Henderson (township)",IL
61472,"Henderson (township)",IL
61488,"Henderson (township)",IL
61326,"Hennepin (township)",IL
61327,"Hennepin (township)",IL
61335,"Hennepin (township)",IL
61336,"Hennepin (township)",IL
61537,"Henry (township)",IL
61565,"Henry (township)",IL
61821,Hensley,IL
61822,Hensley,IL
62821,"Heralds Prairie",IL
62867,"Heralds Prairie",IL
62869,"Heralds Prairie",IL
61755,"Heritage Lake",IL
62422,"Herrick (township)",IL
62431,"Herrick (township)",IL
62624,Hickory,IL
62814,"Hickory Hill",IL
62850,"Hickory Hill",IL
62851,"Hickory Hill",IL
62895,"Hickory Hill",IL
62526,"Hickory Point",IL
62535,"Hickory Point",IL
62554,"Hickory Point",IL
62573,"Hickory Point",IL
61068,Hillcrest,IL
62015,"Hillsboro (township)",IL
62049,"Hillsboro (township)",IL
62056,"Hillsboro (township)",IL
62089,"Hillsboro (township)",IL
62091,"Hillsboro (township)",IL
62014,Hillyard,IL
62685,Hillyard,IL
61420,Hire,IL
61455,Hire,IL
62326,Hire,IL
61721,Hittle,IL
61759,Hittle,IL
60051,"Holiday Hills",IL
62025,"Holiday Shores",IL
62097,"Holiday Shores",IL
62414,Holland,IL
62444,Holland,IL
62461,Holland,IL
61539,Hollis,IL
61547,Hollis,IL
61607,Hollis,IL
61356,Hollowayville,IL
60439,"Homer Glen",IL
60448,"Homer Glen",IL
60467,"Homer Glen",IL
60491,"Homer Glen",IL
62325,"Honey Creek",IL
62338,"Honey Creek",IL
62351,"Honey Creek",IL
62359,"Honey Creek",IL
62427,"Honey Creek",IL
62454,"Honey Creek",IL
62033,"Honey Point",IL
62056,"Honey Point",IL
62560,"Honey Point",IL
62626,"Honey Point",IL
62824,Hoosier,IL
62858,Hoosier,IL
62879,Hoosier,IL
61334,Hope,IL
61370,Hope,IL
61568,"Hopedale (township)",IL
61747,"Hopedale (township)",IL
61755,"Hopedale (township)",IL
61759,"Hopedale (township)",IL
61565,Hopewell,IL
61336,"Hopewell (township)",IL
61375,"Hopewell (township)",IL
61540,"Hopewell (township)",IL
61037,Hopkins,IL
61081,Hopkins,IL
61270,Hopkins,IL
62263,"Hoyleton (township)",IL
62801,"Hoyleton (township)",IL
62803,"Hoyleton (township)",IL
62877,"Hoyleton (township)",IL
61738,"Hudson (township)",IL
61748,"Hudson (township)",IL
61753,"Hudson (township)",IL
61776,"Hudson (township)",IL
61910,"Humboldt (township)",IL
61920,"Humboldt (township)",IL
61931,"Humboldt (township)",IL
61938,"Humboldt (township)",IL
62448,"Hunt City",IL
62449,"Hunt City",IL
62480,"Hunt City",IL
61924,Hunter,IL
61944,Hunter,IL
62613,Hurlbut,IL
62634,Hurlbut,IL
62666,Hurlbut,IL
62693,Hurlbut,IL
62011,Hurricane,IL
62075,Hurricane,IL
62080,Hurricane,IL
62433,"Hutsonville (township)",IL
62451,"Hutsonville (township)",IL
62454,"Hutsonville (township)",IL
62478,"Hutsonville (township)",IL
61920,Hutton,IL
62420,Hutton,IL
62474,Hutton,IL
62526,Illini,IL
62543,Illini,IL
62551,Illini,IL
62573,Illini,IL
62515,"Illiopolis (township)",IL
62539,"Illiopolis (township)",IL
62917,Independence,IL
62946,Independence,IL
62987,Independence,IL
60060,"Indian Creek",IL
60061,"Indian Creek",IL
62821,"Indian Creek",IL
62835,"Indian Creek",IL
62869,"Indian Creek",IL
61739,"Indian Grove",IL
61410,"Indian Point",IL
61474,"Indian Point",IL
62823,"Indian Prairie",IL
62850,"Indian Prairie",IL
62878,"Indian Prairie",IL
62899,"Indian Prairie",IL
61314,Indiantown,IL
61368,Indiantown,IL
61379,Indiantown,IL
61421,Indiantown,IL
61440,"Industry (township)",IL
61455,"Industry (township)",IL
60433,"Ingalls Park",IL
60010,Inverness,IL
60067,Inverness,IL
62838,Iola,IL
62231,Irishtown,IL
62253,Irishtown,IL
60911,"Iroquois (township)",IL
60928,"Iroquois (township)",IL
60930,"Iroquois (township)",IL
60970,"Iroquois (township)",IL
62801,"Irvington (township)",IL
62803,"Irvington (township)",IL
62848,"Irvington (township)",IL
62877,"Irvington (township)",IL
62049,"Irving (township)",IL
62051,"Irving (township)",IL
62094,"Irving (township)",IL
60901,Irwin,IL
61441,Isabel,IL
61542,Isabel,IL
62644,Isabel,IL
62670,"Island Grove",IL
62677,"Island Grove",IL
62849,"Iuka (township)",IL
60421,Jackson,IL
60436,Jackson,IL
60442,Jackson,IL
62401,Jackson,IL
62411,Jackson,IL
62443,Jackson,IL
62473,Jackson,IL
61810,Jamaica,IL
61817,Jamaica,IL
61841,Jamaica,IL
61850,Jamaica,IL
61876,Jamaica,IL
62234,Jarvis,IL
62281,Jarvis,IL
62294,Jarvis,IL
62837,Jasper,IL
62842,Jasper,IL
61062,Jefferson,IL
62842,Jeffersonville,IL
62540,Jeisyville,IL
62568,Jeisyville,IL
62704,Jerome,IL
62052,Jersey,IL
62054,Jersey,IL
62214,Johannisburg,IL
62257,Johannisburg,IL
62268,Johannisburg,IL
60050,Johnsburg,IL
60051,Johnsburg,IL
62420,Johnson,IL
62442,Johnson,IL
62449,Johnson,IL
62546,Johnson,IL
62555,Johnson,IL
62556,Johnson,IL
62568,Johnson,IL
60403,"Joliet (township)",IL
60421,"Joliet (township)",IL
60432,"Joliet (township)",IL
60433,"Joliet (township)",IL
60434,"Joliet (township)",IL
60435,"Joliet (township)",IL
60436,"Joliet (township)",IL
61911,"Jonathan Creek",IL
61937,"Jonathan Creek",IL
61951,"Jonathan Creek",IL
61064,Jordan,IL
61081,Jordan,IL
61427,Joshua,IL
61432,Joshua,IL
61433,Joshua,IL
61520,Joshua,IL
61517,Jubilee,IL
61559,Jubilee,IL
62882,"Junction City",IL
62016,"Kane (township)",IL
62027,"Kane (township)",IL
62054,"Kane (township)",IL
60119,"Kaneville (township)",IL
60144,"Kaneville (township)",IL
60151,"Kaneville (township)",IL
61364,Kangley,IL
60901,"Kankakee (township)",IL
61933,"Kansas (township)",IL
61738,Kappa,IL
62471,Kaskaskia,IL
62885,Kaskaskia,IL
62892,Kaskaskia,IL
63673,Kaskaskia,IL
62349,Keene,IL
62351,Keene,IL
62823,Keith,IL
62824,Keith,IL
62878,Keith,IL
62899,Keith,IL
61260,"Keithsburg (township)",IL
61272,"Keithsburg (township)",IL
61442,"Keithsburg (township)",IL
61401,Kelly,IL
61412,Kelly,IL
61435,Kelly,IL
60541,Kendall,IL
60560,Kendall,IL
60957,Kerr,IL
60960,Kerr,IL
61847,Kerr,IL
61862,Kerr,IL
61501,Kerton,IL
62644,Kerton,IL
61443,"Kewanee (township)",IL
61528,Kickapoo,IL
61536,Kickapoo,IL
61604,Kickapoo,IL
61614,Kickapoo,IL
61615,Kickapoo,IL
62644,"Kilbourne (township)",IL
62655,"Kilbourne (township)",IL
60047,Kildeer,IL
62343,"Kinderhook (township)",IL
62345,"Kinderhook (township)",IL
62538,King,IL
62546,King,IL
62558,King,IL
60135,"Kingston (township)",IL
60145,"Kingston (township)",IL
62280,Kinkaid,IL
62907,Kinkaid,IL
62950,Kinkaid,IL
62807,"Kinmundy (township)",IL
62854,"Kinmundy (township)",IL
62828,"Knight Prairie",IL
62859,"Knight Prairie",IL
62860,"Knight Prairie",IL
60044,Knollwood,IL
61401,Knox,IL
61430,Knox,IL
61436,Knox,IL
61448,Knox,IL
62426,"La Clede",IL
62838,"La Clede",IL
61540,"Lacon (township)",IL
61570,"Lacon (township)",IL
62518,Laenna,IL
62543,Laenna,IL
62548,Laenna,IL
61006,Lafayette,IL
61068,Lafayette,IL
61920,Lafayette,IL
61938,Lafayette,IL
62440,Lafayette,IL
62019,Lagrange,IL
62246,Lagrange,IL
61450,"La Harpe (township)",IL
62231,Lake,IL
62250,Lake,IL
62801,Lake,IL
60010,"Lake Barrington",IL
60084,"Lake Barrington",IL
61547,"Lake Camelot",IL
60002,"Lake Catherine",IL
60548,"Lake Holiday",IL
60552,"Lake Holiday",IL
62069,"Lake Ka-ho",IL
60041,Lakemoor,IL
60051,Lakemoor,IL
60073,Lakemoor,IL
61853,"Lake Of The Woods",IL
62675,"Lake Petersburg",IL
61019,"Lake Summerset",IL
60002,"Lake Villa (township)",IL
60041,"Lake Villa (township)",IL
60046,"Lake Villa (township)",IL
60073,"Lake Villa (township)",IL
60481,"Lakewood Shores",IL
62837,Lamard,IL
62842,Lamard,IL
61330,"La Moille (township)",IL
61349,"La Moille (township)",IL
61356,"La Moille (township)",IL
61374,"La Moille (township)",IL
62326,Lamoine,IL
62367,Lamoine,IL
62433,Lamotte,IL
62451,Lamotte,IL
62454,Lamotte,IL
62515,Lanesville,IL
62539,Lanesville,IL
62545,Lanesville,IL
62548,Lanesville,IL
62568,Langleyville,IL
61019,Laona,IL
61024,Laona,IL
61929,Laplace,IL
61936,Laplace,IL
62426,Larkinsburg,IL
62838,Larkinsburg,IL
62858,Larkinsburg,IL
61301,Lasalle,IL
61348,Lasalle,IL
61354,Lasalle,IL
61373,Lasalle,IL
61301,"Lasalle (township)",IL
61348,"Lasalle (township)",IL
61354,"Lasalle (township)",IL
61373,"Lasalle (township)",IL
62417,Lawrence,IL
62439,Lawrence,IL
61039,"Leaf River (township)",IL
61047,"Leaf River (township)",IL
62254,"Lebanon (township)",IL
62289,"Lebanon (township)",IL
62293,"Lebanon (township)",IL
62820,Leech,IL
62833,Leech,IL
62837,Leech,IL
62843,Leech,IL
62001,Leef,IL
62074,Leef,IL
62249,Leef,IL
62275,Leef,IL
61315,Leepertown,IL
61322,Leepertown,IL
61356,Leepertown,IL
61368,Leepertown,IL
62704,"Leland Grove",IL
60439,"Lemont (township)",IL
60464,"Lemont (township)",IL
61423,Lenox,IL
61462,Lenox,IL
62255,"Lenzburg (township)",IL
62257,"Lenzburg (township)",IL
62264,"Lenzburg (township)",IL
60033,Leroy,IL
61012,Leroy,IL
61065,Leroy,IL
62907,Levan,IL
62966,Levan,IL
62343,Levee,IL
61427,"Lewistown (township)",IL
61542,"Lewistown (township)",IL
61728,"Lexington (township)",IL
61753,"Lexington (township)",IL
60018,Leyden,IL
60068,Leyden,IL
60131,Leyden,IL
60160,Leyden,IL
60164,Leyden,IL
60171,Leyden,IL
60176,Leyden,IL
60706,Leyden,IL
60707,Leyden,IL
62320,"Liberty (township)",IL
62347,"Liberty (township)",IL
60044,"Libertyville (township)",IL
60045,"Libertyville (township)",IL
60048,"Libertyville (township)",IL
60060,"Libertyville (township)",IL
60061,"Libertyville (township)",IL
60064,"Libertyville (township)",IL
60085,"Libertyville (township)",IL
62413,Licking,IL
62442,Licking,IL
62449,Licking,IL
62454,Licking,IL
60151,"Lily Lake",IL
60175,"Lily Lake",IL
62348,"Lima (township)",IL
62349,"Lima (township)",IL
62351,"Lima (township)",IL
62376,"Lima (township)",IL
62379,"Lima (township)",IL
60901,Limestone,IL
61536,Limestone,IL
61547,Limestone,IL
61604,Limestone,IL
61605,Limestone,IL
61607,Limestone,IL
61615,Limestone,IL
60901,"Limestone (township)",IL
60913,"Limestone (township)",IL
60046,Lindenhurst,IL
62016,Linder,IL
62044,Linder,IL
62081,Linder,IL
61516,Linn,IL
61561,Linn,IL
61570,Linn,IL
61760,Linn,IL
60450,Lisbon,IL
60541,Lisbon,IL
60447,"Lisbon (township)",IL
60450,"Lisbon (township)",IL
60541,"Lisbon (township)",IL
60560,"Lisbon (township)",IL
60440,"Lisle (township)",IL
60515,"Lisle (township)",IL
60516,"Lisle (township)",IL
60517,"Lisle (township)",IL
60532,"Lisle (township)",IL
60540,"Lisle (township)",IL
60563,"Lisle (township)",IL
60565,"Lisle (township)",IL
61747,"Little Mackinaw",IL
61755,"Little Mackinaw",IL
61759,"Little Mackinaw",IL
61440,"Littleton (township)",IL
61452,"Littleton (township)",IL
62681,"Littleton (township)",IL
62237,"Lively Grove",IL
62257,"Lively Grove",IL
62268,"Lively Grove",IL
61520,"Liverpool (township)",IL
61542,"Liverpool (township)",IL
61543,"Liverpool (township)",IL
62615,"Loami (township)",IL
62661,"Loami (township)",IL
62692,"Loami (township)",IL
60403,"Lockport (township)",IL
60432,"Lockport (township)",IL
60435,"Lockport (township)",IL
60441,"Lockport (township)",IL
60446,"Lockport (township)",IL
60544,"Lockport (township)",IL
62555,Locust,IL
62557,Locust,IL
62568,Locust,IL
60918,"Loda (township)",IL
60924,"Loda (township)",IL
60948,"Loda (township)",IL
61425,"Lomax (township)",IL
61454,"Lomax (township)",IL
62330,"Lomax (township)",IL
62838,"Lone Grove",IL
62857,"Lone Grove",IL
62880,"Lone Grove",IL
62930,"Long Branch",IL
62935,"Long Branch",IL
62977,"Long Branch",IL
62521,"Long Creek",IL
62549,"Long Creek",IL
61818,"Long Creek (township)",IL
61937,"Long Creek (township)",IL
62501,"Long Creek (township)",IL
62521,"Long Creek (township)",IL
62549,"Long Creek (township)",IL
60041,"Long Lake",IL
60073,"Long Lake",IL
61311,"Long Point (township)",IL
61333,"Long Point (township)",IL
61364,"Long Point (township)",IL
61740,"Long Point (township)",IL
62215,"Looking Glass",IL
62245,"Looking Glass",IL
62265,"Looking Glass",IL
62266,"Looking Glass",IL
62293,"Looking Glass",IL
61032,Loran,IL
61062,Loran,IL
61078,Loran,IL
61021,"Lost Nation",IL
61061,"Lost Nation",IL
62080,Loudon,IL
62411,Loudon,IL
62414,Loudon,IL
62418,Loudon,IL
62422,Loudon,IL
62458,Loudon,IL
62858,"Louisville (township)",IL
61846,Love,IL
61870,Love,IL
61914,"Lovington (township)",IL
61937,"Lovington (township)",IL
61951,"Lovington (township)",IL
61911,Lowe,IL
61937,Lowe,IL
61951,Lowe,IL
62424,Lucas,IL
62858,Lucas,IL
60949,"Ludlow (township)",IL
60957,"Ludlow (township)",IL
61866,"Ludlow (township)",IL
62417,Lukin,IL
62460,Lukin,IL
62466,Lukin,IL
60952,Lyman,IL
60962,Lyman,IL
60968,Lyman,IL
62617,Lynchburg,IL
62627,Lynchburg,IL
61081,"Lyndon (township)",IL
61261,"Lyndon (township)",IL
61270,"Lyndon (township)",IL
61277,"Lyndon (township)",IL
61262,Lynn,IL
61273,Lynn,IL
61413,Lynn,IL
61414,Lynn,IL
61434,Lynn,IL
61449,Lynn,IL
61465,Lynn,IL
61468,Lynn,IL
61485,Lynn,IL
60129,Lynnville,IL
61049,Lynnville,IL
61068,Lynnville,IL
62650,Lynnville,IL
60455,"Lyons (township)",IL
60457,"Lyons (township)",IL
60458,"Lyons (township)",IL
60480,"Lyons (township)",IL
60501,"Lyons (township)",IL
60513,"Lyons (township)",IL
60521,"Lyons (township)",IL
60525,"Lyons (township)",IL
60527,"Lyons (township)",IL
60534,"Lyons (township)",IL
60546,"Lyons (township)",IL
60558,"Lyons (township)",IL
60638,"Lyons (township)",IL
61568,"Mackinaw (township)",IL
61732,"Mackinaw (township)",IL
61755,"Mackinaw (township)",IL
61455,"Macomb City",IL
61416,"Macomb (township)",IL
61422,"Macomb (township)",IL
61438,"Macomb (township)",IL
61455,"Macomb (township)",IL
61326,"Magnolia (township)",IL
61327,"Magnolia (township)",IL
61334,"Magnolia (township)",IL
61335,"Magnolia (township)",IL
61336,"Magnolia (township)",IL
61822,"Mahomet (township)",IL
61840,"Mahomet (township)",IL
61853,"Mahomet (township)",IL
61875,"Mahomet (township)",IL
60016,Maine,IL
60017,Maine,IL
60018,Maine,IL
60019,Maine,IL
60025,Maine,IL
60053,Maine,IL
60068,Maine,IL
60407,Maine,IL
60416,Maine,IL
60424,Maine,IL
60444,Maine,IL
60714,Maine,IL
62902,"Makanda (township)",IL
62903,"Makanda (township)",IL
62958,"Makanda (township)",IL
61534,Malone,IL
61734,Malone,IL
62682,Malone,IL
60111,"Malta (township)",IL
60115,"Malta (township)",IL
60150,"Malta (township)",IL
61068,"Malta (township)",IL
60442,"Manhattan (township)",IL
60451,"Manhattan (township)",IL
61532,"Manito (township)",IL
61546,"Manito (township)",IL
61567,"Manito (township)",IL
62682,"Manito (township)",IL
61338,"Manlius (township)",IL
61361,"Manlius (township)",IL
61376,"Manlius (township)",IL
61379,"Manlius (township)",IL
60468,"Manteno (township)",IL
60914,"Manteno (township)",IL
60950,"Manteno (township)",IL
61458,"Maquon (township)",IL
61544,"Maquon (township)",IL
60033,"Marengo (township)",IL
60152,"Marengo (township)",IL
62001,"Marine (township)",IL
62061,"Marine (township)",IL
62249,"Marine (township)",IL
62281,"Marine (township)",IL
62255,"Marissa (township)",IL
62257,"Marissa (township)",IL
61756,"Maroa (township)",IL
62526,"Maroa (township)",IL
61554,"Marquette Heights",IL
61914,Marrowbone,IL
61951,Marrowbone,IL
62441,"Marshall (township)",IL
61722,Martin,IL
61728,Martin,IL
61730,Martin,IL
61737,Martin,IL
61770,Martin,IL
62421,Martin,IL
62427,Martin,IL
62449,Martin,IL
62454,Martin,IL
62466,Martin,IL
62363,Martinsburg,IL
62366,Martinsburg,IL
62442,"Martinsville (township)",IL
60912,"Martinton (township)",IL
60931,"Martinton (township)",IL
60951,"Martinton (township)",IL
60970,"Martinton (township)",IL
61007,Maryland,IL
61030,Maryland,IL
61039,Maryland,IL
61047,Maryland,IL
62224,"Mascoutah (township)",IL
62225,"Mascoutah (township)",IL
62254,"Mascoutah (township)",IL
62258,"Mascoutah (township)",IL
62265,"Mascoutah (township)",IL
62293,"Mascoutah (township)",IL
62664,"Mason City (township)",IL
62671,"Mason City (township)",IL
62426,"Mason (township)",IL
62443,"Mason (township)",IL
62473,"Mason (township)",IL
62446,Massilon,IL
62833,Massilon,IL
62837,Massilon,IL
62843,Massilon,IL
61928,"Mattoon (township)",IL
61938,"Mattoon (township)",IL
62661,Maxwell,IL
62670,Maxwell,IL
62692,Maxwell,IL
61310,May,IL
61330,May,IL
61349,May,IL
61367,May,IL
62510,May,IL
62567,May,IL
62568,May,IL
62817,Mayberry,IL
62829,Mayberry,IL
62859,Mayberry,IL
62869,Mayberry,IL
60111,Mayfield,IL
60115,Mayfield,IL
60145,Mayfield,IL
60146,Mayfield,IL
60178,Mayfield,IL
60424,"Mazon (township)",IL
60444,"Mazon (township)",IL
60450,"Mazon (township)",IL
62816,Mcclellan,IL
62864,Mcclellan,IL
62894,Mcclellan,IL
62898,Mcclellan,IL
62957,Mcclure,IL
60501,Mccook,IL
60525,Mccook,IL
60050,"Mccullom Lake",IL
60050,"Mchenry (township)",IL
60051,"Mchenry (township)",IL
60072,"Mchenry (township)",IL
60081,"Mchenry (township)",IL
60097,"Mchenry (township)",IL
60098,"Mchenry (township)",IL
62324,Mckee,IL
62347,Mckee,IL
61834,Mckendree,IL
61846,Mckendree,IL
61883,Mckendree,IL
61754,Mclean,IL
62859,Mcleansboro,IL
62859,"Mcleansboro (township)",IL
61335,Mcnabb,IL
62838,Meacham,IL
62854,Meacham,IL
62515,"Mechanicsburg (township)",IL
62520,"Mechanicsburg (township)",IL
62545,"Mechanicsburg (township)",IL
62561,"Mechanicsburg (township)",IL
61418,"Media (township)",IL
61460,"Media (township)",IL
61478,"Media (township)",IL
61480,"Media (township)",IL
61523,Medina,IL
61525,Medina,IL
61526,Medina,IL
61552,Medina,IL
61615,Medina,IL
62301,Melrose,IL
62305,Melrose,IL
62347,Melrose,IL
62360,Melrose,IL
62441,Melrose,IL
62442,Melrose,IL
62477,Melrose,IL
62478,Melrose,IL
62305,"Mendon (township)",IL
62338,"Mendon (township)",IL
62351,"Mendon (township)",IL
62376,"Mendon (township)",IL
61342,"Mendota (township)",IL
61025,Menominee,IL
61025,"Menominee (township)",IL
61036,"Menominee (township)",IL
61231,Mercer,IL
60518,Meriden,IL
61342,Meriden,IL
62231,Meridian,IL
62801,Meridian,IL
62882,Meridian,IL
61530,"Metamora (township)",IL
61545,"Metamora (township)",IL
61548,"Metamora (township)",IL
61561,"Metamora (township)",IL
60045,Mettawa,IL
60048,Mettawa,IL
60960,Middlefork,IL
60963,Middlefork,IL
61812,Middlefork,IL
61862,Middlefork,IL
61865,Middlefork,IL
60951,Middleport,IL
60970,Middleport,IL
60953,"Milford (township)",IL
60911,"Milks Grove",IL
60922,"Milks Grove",IL
60927,"Milks Grove",IL
60941,"Milks Grove",IL
62926,"Mill Creek",IL
62961,"Mill Creek",IL
60551,Miller,IL
61341,Miller,IL
61360,Miller,IL
61231,Millersburg,IL
61260,Millersburg,IL
61476,Millersburg,IL
62246,Mills,IL
62275,Mills,IL
62820,"Mill Shoals (township)",IL
62835,"Mill Shoals (township)",IL
62862,"Mill Shoals (township)",IL
62887,"Mill Shoals (township)",IL
62220,"Millstadt (township)",IL
62223,"Millstadt (township)",IL
62236,"Millstadt (township)",IL
62260,"Millstadt (township)",IL
62285,"Millstadt (township)",IL
62298,"Millstadt (township)",IL
61314,Milo,IL
61368,Milo,IL
61421,Milo,IL
61537,Milo,IL
61344,"Mineral (township)",IL
61345,"Mineral (township)",IL
61361,"Mineral (township)",IL
61760,"Minonk (township)",IL
60537,Mission,IL
60551,Mission,IL
61360,Mission,IL
62022,Mississippi,IL
62035,Mississippi,IL
62037,Mississippi,IL
62052,Mississippi,IL
62353,Missouri,IL
62040,Mitchell,IL
62411,Moccasin,IL
62414,Moccasin,IL
62461,Moccasin,IL
61201,"Moline (township)",IL
61265,"Moline (township)",IL
60940,"Momence (township)",IL
60954,"Momence (township)",IL
60929,Mona,IL
60946,Mona,IL
60959,Mona,IL
60417,"Monee (township)",IL
60423,"Monee (township)",IL
60449,"Monee (township)",IL
60466,"Monee (township)",IL
60471,"Monee (township)",IL
60484,"Monee (township)",IL
61748,"Money Creek",IL
61753,"Money Creek",IL
61776,"Money Creek",IL
61435,"Monmouth (township)",IL
61462,"Monmouth (township)",IL
60129,Monroe,IL
60146,Monroe,IL
61020,Monroe,IL
61049,Monroe,IL
61052,Monroe,IL
61109,Monroe,IL
62334,Montebello,IL
62341,Montebello,IL
62354,Montebello,IL
62379,Montebello,IL
62352,Montezuma,IL
62361,Montezuma,IL
62363,Montezuma,IL
61813,"Monticello (township)",IL
61851,"Monticello (township)",IL
61856,"Monticello (township)",IL
61884,"Monticello (township)",IL
61071,Montmorency,IL
61283,Montmorency,IL
62810,"Moores Prairie",IL
62846,"Moores Prairie",IL
60015,Moraine,IL
60035,Moraine,IL
60040,Moraine,IL
60045,Moraine,IL
61920,Morgan,IL
61930,Morgan,IL
61943,Morgan,IL
60450,"Morris (township)",IL
61550,"Morton (township)",IL
61571,"Morton (township)",IL
61733,"Morton (township)",IL
62513,Mosquito,IL
62547,Mosquito,IL
61411,Mound,IL
61416,Mound,IL
61422,Mound,IL
61455,Mound,IL
61459,Mound,IL
62411,Mound,IL
62375,"Mound Station",IL
62934,Mountain,IL
62946,Mountain,IL
62947,Mountain,IL
62513,"Mount Auburn (township)",IL
62531,"Mount Auburn (township)",IL
62545,"Mount Auburn (township)",IL
62547,"Mount Auburn (township)",IL
62563,"Mount Auburn (township)",IL
61053,"Mount Carroll (township)",IL
61074,"Mount Carroll (township)",IL
62009,"Mount Clare",IL
62033,"Mount Clare",IL
62446,"Mount Erie (township)",IL
62450,"Mount Erie (township)",IL
62842,"Mount Erie (township)",IL
62868,"Mount Erie (township)",IL
61723,"Mount Hope",IL
61754,"Mount Hope",IL
61774,"Mount Hope",IL
61030,"Mount Morris (township)",IL
61047,"Mount Morris (township)",IL
61054,"Mount Morris (township)",IL
61061,"Mount Morris (township)",IL
61064,"Mount Morris (township)",IL
62009,"Mount Olive (township)",IL
62069,"Mount Olive (township)",IL
62085,"Mount Olive (township)",IL
62088,"Mount Olive (township)",IL
61270,"Mount Pleasant",IL
62541,"Mount Pulaski (township)",IL
62548,"Mount Pulaski (township)",IL
62634,"Mount Pulaski (township)",IL
62656,"Mount Pulaski (township)",IL
62353,"Mount Sterling (township)",IL
62864,"Mount Vernon (township)",IL
62521,"Mount Zion",IL
62549,"Mount Zion",IL
61925,"Mount Zion (township)",IL
61937,"Mount Zion (township)",IL
62521,"Mount Zion (township)",IL
62544,"Mount Zion (township)",IL
62549,"Mount Zion (township)",IL
62550,"Moweaqua (township)",IL
62246,"Mulberry Grove (township)",IL
62262,"Mulberry Grove (township)",IL
62284,"Mulberry Grove (township)",IL
61238,Munson,IL
61254,Munson,IL
62901,"Murphysboro (township)",IL
62903,"Murphysboro (township)",IL
62966,"Murphysboro (township)",IL
60431,Na-au-say,IL
60447,Na-au-say,IL
60543,Na-au-say,IL
60544,Na-au-say,IL
60560,Na-au-say,IL
60585,Na-au-say,IL
60586,Na-au-say,IL
62040,Nameoki,IL
62060,Nameoki,IL
62201,Nameoki,IL
62234,Nameoki,IL
60502,"Naperville (township)",IL
60504,"Naperville (township)",IL
60519,"Naperville (township)",IL
60540,"Naperville (township)",IL
60555,"Naperville (township)",IL
60563,"Naperville (township)",IL
60564,"Naperville (township)",IL
60565,"Naperville (township)",IL
60566,"Naperville (township)",IL
60567,"Naperville (township)",IL
60597,"Naperville (township)",IL
61350,Naplate,IL
62665,Naples,IL
62263,"Nashville (township)",IL
62354,"Nauvoo (township)",IL
61740,Nebraska,IL
61021,"Nelson (township)",IL
61042,"Nelson (township)",IL
61071,"Nelson (township)",IL
62447,"Neoga (township)",IL
62468,"Neoga (township)",IL
62469,"Neoga (township)",IL
61314,"Neponset (township)",IL
61345,"Neponset (township)",IL
61443,"Neponset (township)",IL
60450,"Nettle Creek",IL
60541,"Nettle Creek",IL
61360,"Nettle Creek",IL
60420,Nevada,IL
60460,Nevada,IL
61313,Nevada,IL
62243,"New Athens (township)",IL
62264,"New Athens (township)",IL
62661,"New Berlin (township)",IL
62670,"New Berlin (township)",IL
61260,"New Boston (township)",IL
61272,"New Boston (township)",IL
62340,Newburg,IL
62363,Newburg,IL
61840,Newcomb,IL
61843,Newcomb,IL
61853,Newcomb,IL
62001,"New Douglas (township)",IL
62074,"New Douglas (township)",IL
61811,Newell,IL
61814,Newell,IL
61832,Newell,IL
61834,Newell,IL
62941,"New Grand Chain",IL
62867,"New Haven (township)",IL
62871,"New Haven (township)",IL
62979,"New Haven (township)",IL
62984,"New Haven (township)",IL
60432,"New Lenox (township)",IL
60433,"New Lenox (township)",IL
60442,"New Lenox (township)",IL
60448,"New Lenox (township)",IL
60451,"New Lenox (township)",IL
62612,Newmansville,IL
62627,Newmansville,IL
62673,Newmansville,IL
61852,"Newman (township)",IL
61942,"Newman (township)",IL
61109,"New Milford",IL
62263,"New Minden",IL
60002,Newport,IL
60046,Newport,IL
60075,Newport,IL
60083,Newport,IL
60087,Newport,IL
60099,Newport,IL
62314,"New Salem (township)",IL
62340,"New Salem (township)",IL
62357,"New Salem (township)",IL
62363,"New Salem (township)",IL
61311,Newtown,IL
61313,Newtown,IL
61319,Newtown,IL
61364,Newtown,IL
60022,"New Trier",IL
60025,"New Trier",IL
60043,"New Trier",IL
60091,"New Trier",IL
60093,"New Trier",IL
62539,"Niantic (township)",IL
62551,"Niantic (township)",IL
60025,"Niles (township)",IL
60029,"Niles (township)",IL
60053,"Niles (township)",IL
60076,"Niles (township)",IL
60077,"Niles (township)",IL
60203,"Niles (township)",IL
60712,"Niles (township)",IL
60714,"Niles (township)",IL
62572,"Nilwood (township)",IL
62626,"Nilwood (township)",IL
62640,"Nilwood (township)",IL
62672,"Nilwood (township)",IL
61882,Nixon,IL
62450,"Noble (township)",IL
62868,"Noble (township)",IL
62075,"Nokomis (township)",IL
62094,"Nokomis (township)",IL
61048,"Nora (township)",IL
61059,"Nora (township)",IL
61085,"Nora (township)",IL
61087,"Nora (township)",IL
61701,"Normal (township)",IL
61748,"Normal (township)",IL
61761,"Normal (township)",IL
61776,"Normal (township)",IL
61790,"Normal (township)",IL
60450,Norman,IL
60479,Norman,IL
61360,Norman,IL
60010,"North Barrington",IL
62812,"North City",IL
62822,"North City",IL
62825,"North City",IL
62865,"North City",IL
62311,Northeast,IL
62324,Northeast,IL
62339,Northeast,IL
62346,Northeast,IL
62812,Northern,IL
62836,Northern,IL
62860,Northern,IL
60015,"Northfield (township)",IL
60022,"Northfield (township)",IL
60025,"Northfield (township)",IL
60026,"Northfield (township)",IL
60062,"Northfield (township)",IL
60065,"Northfield (township)",IL
60082,"Northfield (township)",IL
60091,"Northfield (township)",IL
60093,"Northfield (township)",IL
62871,"North Fork",IL
62930,"North Fork",IL
62934,"North Fork",IL
62979,"North Fork",IL
61412,"North Henderson (township)",IL
61465,"North Henderson (township)",IL
61466,"North Henderson (township)",IL
62015,"North Litchfield",IL
62056,"North Litchfield",IL
62560,"North Litchfield",IL
62448,"North Muddy",IL
62479,"North Muddy",IL
61910,"North Okaw",IL
61911,"North Okaw",IL
61931,"North Okaw",IL
61938,"North Okaw",IL
61951,"North Okaw",IL
62640,"North Otter",IL
62667,"North Otter",IL
62690,"North Otter",IL
62667,"North Palmyra",IL
62674,"North Palmyra",IL
61554,"North Pekin",IL
61348,"North Utica",IL
61373,"North Utica",IL
60531,Northville,IL
60537,Northville,IL
60541,Northville,IL
60548,Northville,IL
60551,Northville,IL
60552,Northville,IL
60917,Norton,IL
60919,Norton,IL
60941,Norton,IL
60961,Norton,IL
60969,Norton,IL
61604,Norwood,IL
60068,"Norwood Park",IL
60631,"Norwood Park",IL
60634,"Norwood Park",IL
60656,"Norwood Park",IL
60706,"Norwood Park",IL
60010,Nunda,IL
60012,Nunda,IL
60013,Nunda,IL
60014,Nunda,IL
60042,Nunda,IL
60050,Nunda,IL
60051,Nunda,IL
60098,Nunda,IL
60181,"Oakbrook Terrace",IL
60523,"Oakbrook Terrace",IL
62237,"Oakdale (township)",IL
62263,"Oakdale (township)",IL
62268,"Oakdale (township)",IL
61264,"Oak Grove",IL
61818,Oakley,IL
61830,Oakley,IL
62501,Oakley,IL
62521,Oakley,IL
62526,Oakley,IL
62554,Oakley,IL
60301,"Oak Park (township)",IL
60302,"Oak Park (township)",IL
60303,"Oak Park (township)",IL
60304,"Oak Park (township)",IL
61428,"Oak Run",IL
61485,"Oak Run",IL
60013,"Oakwood Hills",IL
61834,"Oakwood (township)",IL
61841,"Oakwood (township)",IL
61844,"Oakwood (township)",IL
61857,"Oakwood (township)",IL
61858,"Oakwood (township)",IL
61859,"Oakwood (township)",IL
62449,"Oblong (township)",IL
62454,"Oblong (township)",IL
62464,"Oblong (township)",IL
62431,"Oconee (township)",IL
62553,"Oconee (township)",IL
62557,"Oconee (township)",IL
60460,"Odell (township)",IL
61764,"Odell (township)",IL
62801,"Odin (township)",IL
62870,"Odin (township)",IL
62882,"Odin (township)",IL
62208,O'fallon,IL
62225,O'fallon,IL
62232,O'fallon,IL
62254,O'fallon,IL
62269,O'fallon,IL
62225,"O'fallon (township)",IL
62234,"O'fallon (township)",IL
62254,"O'fallon (township)",IL
62269,"O'fallon (township)",IL
62294,"O'fallon (township)",IL
61859,"Ogden (township)",IL
61871,"Ogden (township)",IL
61873,"Ogden (township)",IL
61231,"Ohio Grove",IL
61412,"Ohio Grove",IL
61476,"Ohio Grove",IL
61328,"Ohio (township)",IL
61349,"Ohio (township)",IL
61356,"Ohio (township)",IL
61376,"Ohio (township)",IL
61957,Okaw,IL
62534,Okaw,IL
62565,Okaw,IL
62214,"Okawville (township)",IL
62271,"Okawville (township)",IL
60002,"Old Mill Creek",IL
60031,"Old Mill Creek",IL
60046,"Old Mill Creek",IL
60083,"Old Mill Creek",IL
62275,"Old Ripley",IL
62074,"Old Ripley (township)",IL
62086,"Old Ripley (township)",IL
62246,"Old Ripley (township)",IL
62275,"Old Ripley (township)",IL
62984,"Old Shawneetown",IL
61704,"Old Town",IL
61705,"Old Town",IL
61736,"Old Town",IL
61737,"Old Town",IL
61530,Olio,IL
61561,Olio,IL
61729,Olio,IL
61771,Olio,IL
62001,Olive,IL
62058,Olive,IL
62074,Olive,IL
62088,Olive,IL
62097,Olive,IL
61846,Olivet,IL
61870,Olivet,IL
62450,"Olney (township)",IL
62869,"Omaha (township)",IL
62871,"Omaha (township)",IL
62849,Omega,IL
62854,Omega,IL
62021,Omphghent,IL
62088,Omphghent,IL
62097,Omphghent,IL
60918,"Onarga (township)",IL
60938,"Onarga (township)",IL
60955,"Onarga (township)",IL
60968,"Onarga (township)",IL
61050,Oneco,IL
61060,Oneco,IL
61089,Oneco,IL
61414,Ontario,IL
61467,Ontario,IL
61472,Ontario,IL
61490,Ontario,IL
60518,Ophir,IL
61342,Ophir,IL
61350,Ophir,IL
61371,Ophir,IL
61373,Ophir,IL
61418,"Oquawka (township)",IL
61442,"Oquawka (township)",IL
61469,"Oquawka (township)",IL
62907,Ora,IL
62966,Ora,IL
62971,Ora,IL
62994,Ora,IL
61723,Oran,IL
62512,Oran,IL
62656,Oran,IL
61410,Orange,IL
61436,Orange,IL
61448,Orange,IL
61458,Orange,IL
62413,Orange,IL
62442,Orange,IL
62478,Orange,IL
62823,Orchard,IL
62850,Orchard,IL
62851,Orchard,IL
62899,Orchard,IL
61006,Oregon-nashua,IL
61015,Oregon-nashua,IL
61061,Oregon-nashua,IL
62837,Orel,IL
62886,Orel,IL
62895,Orel,IL
60462,Orland,IL
60467,Orland,IL
60477,Orland,IL
60487,Orland,IL
61723,Orvil,IL
62635,Orvil,IL
62643,Orvil,IL
61321,Osage,IL
61358,Osage,IL
61364,Osage,IL
61377,Osage,IL
61345,Osceola,IL
61421,Osceola,IL
62838,Oskaloosa,IL
62854,Oskaloosa,IL
62858,Oskaloosa,IL
62899,Oskaloosa,IL
60503,"Oswego (township)",IL
60504,"Oswego (township)",IL
60538,"Oswego (township)",IL
60543,"Oswego (township)",IL
60560,"Oswego (township)",IL
60585,"Oswego (township)",IL
62418,Otego,IL
62471,Otego,IL
62838,Otego,IL
62880,Otego,IL
61350,"Ottawa (township)",IL
61364,"Otter Creek",IL
62037,"Otter Creek",IL
62052,"Otter Creek",IL
62052,Otterville,IL
60901,Otto,IL
60922,Otto,IL
60941,Otto,IL
60460,Owego,IL
61739,Owego,IL
61764,Owego,IL
61072,Owen,IL
61101,Owen,IL
61103,Owen,IL
61262,Oxford,IL
61413,Oxford,IL
61465,Oxford,IL
61490,Oxford,IL
62298,Paderborn,IL
60004,"Palatine (township)",IL
60005,"Palatine (township)",IL
60008,"Palatine (township)",IL
60010,"Palatine (township)",IL
60011,"Palatine (township)",IL
60038,"Palatine (township)",IL
60055,"Palatine (township)",IL
60067,"Palatine (township)",IL
60074,"Palatine (township)",IL
60078,"Palatine (township)",IL
60094,"Palatine (township)",IL
60095,"Palatine (township)",IL
60173,"Palatine (township)",IL
60192,"Palatine (township)",IL
60195,"Palatine (township)",IL
60455,Palos,IL
60457,Palos,IL
60462,Palos,IL
60463,Palos,IL
60464,Palos,IL
60465,Palos,IL
60467,Palos,IL
60480,Palos,IL
60482,Palos,IL
62557,"Pana (township)",IL
61738,Panola,IL
61760,Panola,IL
61738,"Panola (township)",IL
61744,"Panola (township)",IL
61760,"Panola (township)",IL
62612,"Panther Creek",IL
62627,"Panther Creek",IL
62691,"Panther Creek",IL
60951,"Papineau (township)",IL
60956,"Papineau (township)",IL
60964,"Papineau (township)",IL
61928,Paradise,IL
61938,Paradise,IL
62447,Paradise,IL
62469,Paradise,IL
61944,"Paris (township)",IL
60085,"Park City",IL
62420,Parker,IL
62442,Parker,IL
62474,Parker,IL
61545,Partridge,IL
61548,Partridge,IL
61570,Partridge,IL
62875,"Patoka (township)",IL
62892,"Patoka (township)",IL
60949,Patton,IL
60957,Patton,IL
62530,"Pawnee (township)",IL
62558,"Pawnee (township)",IL
62690,"Pawnee (township)",IL
62343,"Payson (township)",IL
62347,"Payson (township)",IL
62360,"Payson (township)",IL
62365,"Payson (township)",IL
60936,"Peach Orchard",IL
60952,"Peach Orchard",IL
62324,"Pea Ridge",IL
62353,"Pea Ridge",IL
62375,"Pea Ridge",IL
62361,"Pearl (township)",IL
61024,"Pecatonica (township)",IL
61063,"Pecatonica (township)",IL
61088,"Pecatonica (township)",IL
61554,"Pekin (township)",IL
61555,"Pekin (township)",IL
61558,"Pekin (township)",IL
61610,"Pekin (township)",IL
60921,Pella,IL
60929,Pella,IL
60946,Pella,IL
60959,Pella,IL
60944,Pembroke,IL
60954,Pembroke,IL
60958,Pembroke,IL
62810,Pendleton,IL
62814,Pendleton,IL
62872,Pendleton,IL
61421,Penn,IL
61426,Penn,IL
61491,Penn,IL
61914,Penn,IL
62534,Penn,IL
62550,Penn,IL
61532,Pennsylvania,IL
62633,Pennsylvania,IL
62664,Pennsylvania,IL
62682,Pennsylvania,IL
61528,"Peoria City",IL
61601,"Peoria City",IL
61602,"Peoria City",IL
61603,"Peoria City",IL
61604,"Peoria City",IL
61605,"Peoria City",IL
61606,"Peoria City",IL
61607,"Peoria City",IL
61612,"Peoria City",IL
61613,"Peoria City",IL
61614,"Peoria City",IL
61615,"Peoria City",IL
61625,"Peoria City",IL
61629,"Peoria City",IL
61630,"Peoria City",IL
61633,"Peoria City",IL
61634,"Peoria City",IL
61635,"Peoria City",IL
61636,"Peoria City",IL
61637,"Peoria City",IL
61638,"Peoria City",IL
61639,"Peoria City",IL
61641,"Peoria City",IL
61643,"Peoria City",IL
61650,"Peoria City",IL
61651,"Peoria City",IL
61652,"Peoria City",IL
61653,"Peoria City",IL
61654,"Peoria City",IL
61655,"Peoria City",IL
61656,"Peoria City",IL
60468,"Peotone (township)",IL
60950,"Peotone (township)",IL
61231,Perryton,IL
61279,Perryton,IL
62314,"Perry (township)",IL
62323,"Perry (township)",IL
62340,"Perry (township)",IL
62362,"Perry (township)",IL
61428,Persifer,IL
61436,Persifer,IL
61448,Persifer,IL
61485,Persifer,IL
61301,"Peru (township)",IL
61348,"Peru (township)",IL
61354,"Peru (township)",IL
61863,"Pesotum (township)",IL
61872,"Pesotum (township)",IL
61880,"Pesotum (township)",IL
62417,Petty,IL
62439,Petty,IL
62466,Petty,IL
61250,Phenix,IL
61254,Phenix,IL
62612,Philadelphia,IL
62691,Philadelphia,IL
62821,Phillips,IL
62827,Phillips,IL
62844,Phillips,IL
62827,Phillipstown,IL
61802,"Philo (township)",IL
61822,"Philo (township)",IL
61864,"Philo (township)",IL
61880,"Philo (township)",IL
61914,Pickaway,IL
62510,Pickaway,IL
62534,Pickaway,IL
62550,Pickaway,IL
60115,Pierce,IL
60151,Pierce,IL
60520,Pierce,IL
60918,"Pigeon Grove",IL
60924,"Pigeon Grove",IL
60948,"Pigeon Grove",IL
60960,"Pigeon Grove",IL
61726,Pike,IL
61740,Pike,IL
61743,Pike,IL
61744,Pike,IL
61764,Pike,IL
60901,Pilot,IL
60913,Pilot,IL
60922,Pilot,IL
60941,Pilot,IL
61812,Pilot,IL
61831,Pilot,IL
61834,Pilot,IL
61844,Pilot,IL
61858,Pilot,IL
61859,Pilot,IL
61865,Pilot,IL
61450,"Pilot Grove",IL
62321,"Pilot Grove",IL
62330,"Pilot Grove",IL
62263,"Pilot Knob",IL
62268,"Pilot Knob",IL
61021,"Pine Creek",IL
61054,"Pine Creek",IL
61061,"Pine Creek",IL
61064,"Pine Creek",IL
61006,"Pine Rock",IL
61015,"Pine Rock",IL
61061,"Pine Rock",IL
61068,"Pine Rock",IL
60140,"Pingree Grove",IL
62001,"Pin Oak",IL
62025,"Pin Oak",IL
62034,"Pin Oak",IL
62061,"Pin Oak",IL
62281,"Pin Oak",IL
62294,"Pin Oak",IL
60050,"Pistakee Highlands",IL
60051,"Pistakee Highlands",IL
60081,"Pistakee Highlands",IL
62533,Pitman,IL
62538,Pitman,IL
62560,Pitman,IL
62572,Pitman,IL
62363,"Pittsfield (township)",IL
62434,Pixley,IL
62448,Pixley,IL
62824,Pixley,IL
62868,Pixley,IL
62879,Pixley,IL
60403,"Plainfield (township)",IL
60404,"Plainfield (township)",IL
60431,"Plainfield (township)",IL
60435,"Plainfield (township)",IL
60441,"Plainfield (township)",IL
60446,"Plainfield (township)",IL
60544,"Plainfield (township)",IL
60586,"Plainfield (township)",IL
60124,Plato,IL
60140,Plato,IL
60151,Plato,IL
60170,Plato,IL
60175,Plato,IL
60447,Plattville,IL
60560,Plattville,IL
61441,Pleasant,IL
61484,Pleasant,IL
61501,Pleasant,IL
61542,Pleasant,IL
61920,"Pleasant Grove",IL
61938,"Pleasant Grove",IL
62440,"Pleasant Grove",IL
62469,"Pleasant Grove",IL
62355,"Pleasant Hill (township)",IL
62366,"Pleasant Hill (township)",IL
62246,"Pleasant Mound",IL
62262,"Pleasant Mound",IL
62284,"Pleasant Mound",IL
61739,"Pleasant Ridge",IL
61741,"Pleasant Ridge",IL
61769,"Pleasant Ridge",IL
62312,"Pleasant Vale",IL
62345,"Pleasant Vale",IL
62356,"Pleasant Vale",IL
61028,"Pleasant Valley",IL
61053,"Pleasant Valley",IL
61085,"Pleasant Valley",IL
62513,"Pleasant View",IL
62544,"Pleasant View",IL
62550,"Pleasant View",IL
62214,"Plum Hill",IL
62263,"Plum Hill",IL
62268,"Plum Hill",IL
61473,"Point Pleasant",IL
61475,"Point Pleasant",IL
61478,"Point Pleasant",IL
62626,Polk,IL
62630,Polk,IL
62685,Polk,IL
61764,"Pontiac (township)",IL
62025,"Pontoon Beach",IL
62040,"Pontoon Beach",IL
62234,"Pontoon Beach",IL
62330,Pontoosuc,IL
62358,Pontoosuc,IL
62330,"Pontoosuc (township)",IL
62358,"Pontoosuc (township)",IL
62253,Pope,IL
62471,Pope,IL
62875,Pope,IL
62885,Pope,IL
62892,Pope,IL
61008,"Poplar Grove (township)",IL
61011,"Poplar Grove (township)",IL
61012,"Poplar Grove (township)",IL
61065,"Poplar Grove (township)",IL
60010,"Port Barrington",IL
61242,"Port Byron (township)",IL
61275,"Port Byron (township)",IL
61278,"Port Byron (township)",IL
61870,Prairie,IL
61924,Prairie,IL
62321,Prairie,IL
62334,Prairie,IL
62336,Prairie,IL
62341,Prairie,IL
62379,Prairie,IL
62413,Prairie,IL
62433,Prairie,IL
62442,Prairie,IL
62444,Prairie,IL
62454,Prairie,IL
62461,Prairie,IL
62463,Prairie,IL
62465,Prairie,IL
62478,Prairie,IL
61470,"Prairie City (township)",IL
62635,"Prairie Creek",IL
62643,"Prairie Creek",IL
62671,"Prairie Creek",IL
62682,"Prairie Creek",IL
62243,"Prairie Du Long",IL
62264,"Prairie Du Long",IL
62285,"Prairie Du Long",IL
62298,"Prairie Du Long",IL
60942,"Prairie Green",IL
60953,"Prairie Green",IL
60973,"Prairie Green",IL
60012,"Prairie Grove",IL
60014,"Prairie Grove",IL
60050,"Prairie Grove",IL
62510,Prairieton,IL
62550,Prairieton,IL
62567,Prairieton,IL
60554,Prestbury,IL
62425,Preston,IL
62448,Preston,IL
62450,Preston,IL
60433,"Preston Heights",IL
60436,"Preston Heights",IL
61356,"Princeton (township)",IL
61368,"Princeton (township)",IL
61559,"Princeville (township)",IL
61277,"Prophetstown (township)",IL
60104,Proviso,IL
60126,Proviso,IL
60130,Proviso,IL
60141,Proviso,IL
60153,Proviso,IL
60154,Proviso,IL
60155,Proviso,IL
60160,Proviso,IL
60161,Proviso,IL
60162,Proviso,IL
60163,Proviso,IL
60164,Proviso,IL
60165,Proviso,IL
60513,Proviso,IL
60526,Proviso,IL
60546,Proviso,IL
60558,Proviso,IL
60570,Proviso,IL
60682,Proviso,IL
61427,Putman,IL
61520,Putman,IL
61542,Putman,IL
62037,Quarry,IL
62301,"Quincy (township)",IL
62305,"Quincy (township)",IL
62306,"Quincy (township)",IL
61546,Quiver,IL
61567,Quiver,IL
62644,Quiver,IL
62801,Raccoon,IL
62853,Raccoon,IL
62870,Raccoon,IL
62881,Raccoon,IL
62893,Raccoon,IL
61525,Radnor,IL
61528,Radnor,IL
61559,Radnor,IL
61615,Radnor,IL
62930,"Raleigh (township)",IL
62935,"Raleigh (township)",IL
62946,"Raleigh (township)",IL
62977,"Raleigh (township)",IL
62080,"Ramsey (township)",IL
62431,"Ramsey (township)",IL
61705,Randolph,IL
61745,Randolph,IL
61772,Randolph,IL
61866,"Rantoul (township)",IL
61878,"Rantoul (township)",IL
61420,"Raritan (township)",IL
61450,"Raritan (township)",IL
61460,"Raritan (township)",IL
61471,"Raritan (township)",IL
61480,"Raritan (township)",IL
61036,Rawlins,IL
62015,"Raymond (township)",IL
62538,"Raymond (township)",IL
62560,"Raymond (township)",IL
61311,Reading,IL
61319,Reading,IL
61333,Reading,IL
61364,Reading,IL
62869,Rector,IL
62930,Rector,IL
60407,Reed,IL
60408,Reed,IL
60416,Reed,IL
60481,Reed,IL
62221,Rentchler,IL
61036,Rice,IL
61041,Rice,IL
60422,Rich,IL
60423,Rich,IL
60429,Rich,IL
60430,Rich,IL
60443,Rich,IL
60461,Rich,IL
60466,Rich,IL
60471,Rich,IL
60477,Rich,IL
60478,Rich,IL
62312,Richfield,IL
62347,Richfield,IL
62365,Richfield,IL
61332,Richland,IL
61334,Richland,IL
61364,Richland,IL
61370,Richland,IL
61375,Richland,IL
61540,Richland,IL
61570,Richland,IL
61957,Richland,IL
62465,Richland,IL
62565,Richland,IL
61262,"Richland Grove",IL
61281,"Richland Grove",IL
61465,"Richland Grove",IL
61486,"Richland Grove",IL
60051,"Richmond (township)",IL
60071,"Richmond (township)",IL
60072,"Richmond (township)",IL
60081,"Richmond (township)",IL
60097,"Richmond (township)",IL
62808,"Richview (township)",IL
62877,"Richview (township)",IL
62031,Richwood,IL
61615,Richwoods,IL
61616,Richwoods,IL
62075,Ricks,IL
62538,Ricks,IL
62546,Ricks,IL
62510,Ridge,IL
62534,Ridge,IL
62565,Ridge,IL
62571,Ridge,IL
60918,Ridgeland,IL
60938,Ridgeland,IL
60955,Ridgeland,IL
60968,Ridgeland,IL
62871,"Ridgway (township)",IL
62954,"Ridgway (township)",IL
62979,"Ridgway (township)",IL
61032,"Ridott (township)",IL
61039,"Ridott (township)",IL
61047,"Ridott (township)",IL
61063,"Ridott (township)",IL
61067,"Ridott (township)",IL
60135,Riley,IL
60152,Riley,IL
61038,Riley,IL
61467,"Rio (township)",IL
61472,"Rio (township)",IL
61490,"Rio (township)",IL
62353,Ripley,IL
62353,"Ripley (township)",IL
60305,"River Forest (township)",IL
60513,"Riverside (township)",IL
60546,"Riverside (township)",IL
60015,Riverwoods,IL
61465,Rivoli,IL
61486,Rivoli,IL
61530,"Roanoke (township)",IL
61561,"Roanoke (township)",IL
61771,"Roanoke (township)",IL
62454,"Robinson (township)",IL
62520,"Rochester (township)",IL
62563,"Rochester (township)",IL
62712,"Rochester (township)",IL
62016,"Rockbridge (township)",IL
62044,"Rockbridge (township)",IL
62081,"Rockbridge (township)",IL
62630,"Rockbridge (township)",IL
62321,"Rock Creek",IL
62330,"Rock Creek",IL
62336,"Rock Creek",IL
62341,"Rock Creek",IL
62354,"Rock Creek",IL
62358,"Rock Creek",IL
61014,"Rock Creek-lima",IL
61046,"Rock Creek-lima",IL
61051,"Rock Creek-lima",IL
61078,"Rock Creek-lima",IL
60436,Rockdale,IL
61008,"Rockford (township)",IL
61016,"Rockford (township)",IL
61020,"Rockford (township)",IL
61084,"Rockford (township)",IL
61101,"Rockford (township)",IL
61102,"Rockford (township)",IL
61103,"Rockford (township)",IL
61104,"Rockford (township)",IL
61105,"Rockford (township)",IL
61106,"Rockford (township)",IL
61107,"Rockford (township)",IL
61108,"Rockford (township)",IL
61109,"Rockford (township)",IL
61110,"Rockford (township)",IL
61111,"Rockford (township)",IL
61112,"Rockford (township)",IL
61114,"Rockford (township)",IL
61125,"Rockford (township)",IL
61126,"Rockford (township)",IL
61018,"Rock Grove",IL
61019,"Rock Grove",IL
61060,"Rock Grove",IL
61070,"Rock Grove",IL
61201,"Rock Island Arsenal",IL
61201,"Rock Island (township)",IL
61265,"Rock Island (township)",IL
61018,"Rock Run",IL
61019,"Rock Run",IL
61032,"Rock Run",IL
61063,"Rock Run",IL
61067,"Rock Run",IL
61070,"Rock Run",IL
61072,"Rockton (township)",IL
61073,"Rockton (township)",IL
61080,"Rockton (township)",IL
61010,Rockvale,IL
61047,Rockvale,IL
61054,Rockvale,IL
61061,Rockvale,IL
60901,Rockville,IL
60914,Rockville,IL
60950,Rockville,IL
62373,"Rocky Run",IL
62379,"Rocky Run",IL
60917,Rogers,IL
60919,Rogers,IL
60946,Rogers,IL
62849,Romine,IL
62851,Romine,IL
62889,Romine,IL
62082,"Roodhouse (township)",IL
61740,"Rooks Creek",IL
61743,"Rooks Creek",IL
61764,"Rooks Creek",IL
61072,"Roscoe (township)",IL
61073,"Roscoe (township)",IL
61080,"Roscoe (township)",IL
62438,Rose,IL
62565,Rose,IL
62571,Rose,IL
62031,Rosedale,IL
62037,Rosedale,IL
61517,Rosefield,IL
61528,Rosefield,IL
61529,Rosefield,IL
61536,Rosefield,IL
61569,Rosefield,IL
62432,"Rose Hill",IL
61415,"Roseville (township)",IL
61417,"Roseville (township)",IL
61462,"Roseville (township)",IL
61473,"Roseville (township)",IL
62018,"Rosewood Heights",IL
62024,"Rosewood Heights",IL
60963,Ross,IL
61865,Ross,IL
61870,Ross,IL
61924,Ross,IL
62366,Ross,IL
62370,Ross,IL
60420,"Round Grove",IL
60917,"Round Grove",IL
60919,"Round Grove",IL
60920,"Round Grove",IL
60961,"Round Grove",IL
60073,"Round Lake Heights",IL
60030,"Round Lake Park",IL
60073,"Round Lake Park",IL
62075,Rountree,IL
62094,Rountree,IL
62538,Rountree,IL
62546,Rountree,IL
62560,Rountree,IL
62685,"Royal Lakes",IL
61418,Rozetta,IL
61447,Rozetta,IL
61453,Rozetta,IL
61462,Rozetta,IL
61469,Rozetta,IL
62044,Rubicon,IL
62278,Ruma,IL
61240,Rural,IL
61264,Rural,IL
61273,Rural,IL
61281,Rural,IL
62510,Rural,IL
62557,Rural,IL
62571,Rural,IL
61001,Rush,IL
61085,Rush,IL
61087,Rush,IL
62681,"Rushville (township)",IL
62439,Russellville,IL
60557,"Rutland (township)",IL
61341,"Rutland (township)",IL
61350,"Rutland (township)",IL
61735,Rutledge,IL
61752,Rutledge,IL
61842,Rutledge,IL
62052,Ruyle,IL
62054,Ruyle,IL
62063,Ruyle,IL
61851,"Sadorus (township)",IL
61863,"Sadorus (township)",IL
61872,"Sadorus (township)",IL
62870,"Salem (township)",IL
62881,"Salem (township)",IL
60481,Salina,IL
60913,Salina,IL
60941,Salina,IL
62249,Saline,IL
62275,Saline,IL
62664,"Salt Creek",IL
60901,"Sammons Point",IL
60922,"Sammons Point",IL
62801,"Sandoval (township)",IL
62870,"Sandoval (township)",IL
62882,"Sandoval (township)",IL
61534,"Sand Prairie",IL
61734,"Sand Prairie",IL
62907,"Sand Ridge",IL
62940,"Sand Ridge",IL
62942,"Sand Ridge",IL
62966,"Sand Ridge",IL
62975,"Sand Ridge",IL
60511,"Sandwich (township)",IL
60548,"Sandwich (township)",IL
61839,Sangamon,IL
61854,Sangamon,IL
61856,Sangamon,IL
61884,Sangamon,IL
62627,"Sangamon Valley",IL
62691,"Sangamon Valley",IL
61842,"Santa Anna",IL
62218,"Santa Fe",IL
62231,"Santa Fe",IL
60447,Saratoga,IL
60450,Saratoga,IL
61421,Saratoga,IL
61424,Saratoga,IL
61479,Saratoga,IL
61491,Saratoga,IL
61537,Saratoga,IL
61565,Saratoga,IL
61917,Sargent,IL
61919,Sargent,IL
61930,Sargent,IL
61942,Sargent,IL
61943,Sargent,IL
62201,Sauget,IL
62206,Sauget,IL
60929,"Saunemin (township)",IL
61739,"Saunemin (township)",IL
61741,"Saunemin (township)",IL
61764,"Saunemin (township)",IL
61769,"Saunemin (township)",IL
61074,"Savanna (township)",IL
61285,"Savanna (township)",IL
61075,"Scales Mound (township)",IL
60007,"Schaumburg (township)",IL
60008,"Schaumburg (township)",IL
60067,"Schaumburg (township)",IL
60107,"Schaumburg (township)",IL
60133,"Schaumburg (township)",IL
60159,"Schaumburg (township)",IL
60168,"Schaumburg (township)",IL
60169,"Schaumburg (township)",IL
60172,"Schaumburg (township)",IL
60173,"Schaumburg (township)",IL
60179,"Schaumburg (township)",IL
60192,"Schaumburg (township)",IL
60193,"Schaumburg (township)",IL
60194,"Schaumburg (township)",IL
60195,"Schaumburg (township)",IL
60196,"Schaumburg (township)",IL
62049,"Schram City",IL
61420,"Sciota (township)",IL
61438,"Sciota (township)",IL
61475,"Sciota (township)",IL
61455,Scotland,IL
61020,Scott,IL
61043,Scott,IL
61052,Scott,IL
61084,Scott,IL
61815,Scott,IL
61822,Scott,IL
61875,Scott,IL
61884,Scott,IL
62221,"Scott Afb",IL
62225,"Scott Afb",IL
62638,"Scottville (township)",IL
62667,"Scottville (township)",IL
62674,"Scottville (township)",IL
62683,"Scottville (township)",IL
62080,Sefton,IL
62418,Sefton,IL
62458,Sefton,IL
62471,Sefton,IL
61322,Selby,IL
61356,Selby,IL
61359,Selby,IL
61362,Selby,IL
62253,Seminary,IL
62262,Seminary,IL
62471,Seminary,IL
62875,Seminary,IL
62885,Seminary,IL
61560,Senachwine,IL
61910,"Seven Hickory",IL
61920,"Seven Hickory",IL
61930,"Seven Hickory",IL
61931,"Seven Hickory",IL
60518,"Shabbona (township)",IL
60530,"Shabbona (township)",IL
60550,"Shabbona (township)",IL
60556,"Shabbona (township)",IL
62011,Shafter,IL
62032,Shafter,IL
62080,Shafter,IL
62262,Shafter,IL
62471,Shafter,IL
62080,Sharon,IL
62471,Sharon,IL
62984,Shawnee,IL
62560,"Shaws Point",IL
62572,"Shaws Point",IL
62626,"Shaws Point",IL
62640,"Shaws Point",IL
61957,"Shelbyville (township)",IL
62465,"Shelbyville (township)",IL
62565,"Shelbyville (township)",IL
60953,"Sheldon (township)",IL
60966,"Sheldon (township)",IL
60970,"Sheldon (township)",IL
60044,Shields,IL
60045,Shields,IL
60064,Shields,IL
60085,Shields,IL
60086,Shields,IL
60088,Shields,IL
61917,Shiloh,IL
61924,Shiloh,IL
61932,Shiloh,IL
61940,Shiloh,IL
61942,Shiloh,IL
61944,Shiloh,IL
62221,Shiloh,IL
62225,Shiloh,IL
62226,Shiloh,IL
62269,Shiloh,IL
62864,Shiloh,IL
62898,Shiloh,IL
62220,"Shiloh Valley",IL
62221,"Shiloh Valley",IL
62225,"Shiloh Valley",IL
62254,"Shiloh Valley",IL
62258,"Shiloh Valley",IL
62269,"Shiloh Valley",IL
62063,"Shipman (township)",IL
62079,"Shipman (township)",IL
62685,"Shipman (township)",IL
62019,"Shoal Creek",IL
62074,"Shoal Creek",IL
62077,"Shoal Creek",IL
62086,"Shoal Creek",IL
62246,"Shoal Creek",IL
61810,"Sidell (township)",IL
61841,"Sidell (township)",IL
61849,"Sidell (township)",IL
61876,"Sidell (township)",IL
61802,"Sidney (township)",IL
61849,"Sidney (township)",IL
61864,"Sidney (township)",IL
61873,"Sidney (township)",IL
61877,"Sidney (township)",IL
62401,"Sigel (township)",IL
62462,"Sigel (township)",IL
62463,"Sigel (township)",IL
61007,"Silver Creek",IL
61032,"Silver Creek",IL
61039,"Silver Creek",IL
62865,"Six Mile",IL
62896,"Six Mile",IL
62983,"Six Mile",IL
62999,"Six Mile",IL
60118,"Sleepy Hollow",IL
62425,Smallwood,IL
62448,Smallwood,IL
62220,"Smithton (township)",IL
62221,"Smithton (township)",IL
62226,"Smithton (township)",IL
62243,"Smithton (township)",IL
62285,"Smithton (township)",IL
61802,Somer,IL
61822,Somer,IL
61878,Somer,IL
62924,Somerset,IL
62932,Somerset,IL
62966,Somerset,IL
60548,"Somonauk (township)",IL
60552,"Somonauk (township)",IL
62899,Songer,IL
62330,Sonora,IL
62341,Sonora,IL
62354,Sonora,IL
62358,Sonora,IL
60010,"South Barrington",IL
60169,"South Barrington",IL
60192,"South Barrington",IL
60411,"South Chicago Heights",IL
60475,"South Chicago Heights",IL
62828,"South Crouch",IL
62859,"South Crouch",IL
61021,"South Dixon",IL
61324,"South Dixon",IL
62703,"Southern View",IL
62017,"South Fillmore",IL
62032,"South Fillmore",IL
62817,"South Flannigan",IL
62890,"South Flannigan",IL
62935,"South Flannigan",IL
62517,"South Fork",IL
62531,"South Fork",IL
62540,"South Fork",IL
62546,"South Fork",IL
62558,"South Fork",IL
62568,"South Fork",IL
62570,"South Fork",IL
60111,"South Grove",IL
60129,"South Grove",IL
60146,"South Grove",IL
60150,"South Grove",IL
61849,"South Homer",IL
61873,"South Homer",IL
62011,"South Hurricane",IL
62080,"South Hurricane",IL
62650,"South Jacksonville",IL
62056,"South Litchfield",IL
62091,"South Litchfield",IL
62544,"South Macon",IL
62550,"South Macon",IL
61201,"South Moline",IL
61244,"South Moline",IL
61265,"South Moline",IL
61266,"South Moline",IL
62424,"South Muddy",IL
62434,"South Muddy",IL
62448,"South Muddy",IL
62479,"South Muddy",IL
61325,"South Ottawa",IL
61350,"South Ottawa",IL
62626,"South Otter",IL
62640,"South Otter",IL
62674,"South Otter",IL
62626,"South Palmyra",IL
62649,"South Palmyra",IL
62674,"South Palmyra",IL
61201,"South Rock Island",IL
61204,"South Rock Island",IL
61299,"South Rock Island",IL
60963,"South Ross",IL
61811,"South Ross",IL
61834,"South Ross",IL
61848,"South Ross",IL
61865,"South Ross",IL
62817,"South Twigg",IL
62421,Southwest,IL
62449,Southwest,IL
62466,Southwest,IL
62521,"South Wheatland",IL
62532,"South Wheatland",IL
62544,"South Wheatland",IL
62561,Spaulding,IL
62684,Spaulding,IL
62959,Spillertown,IL
60135,Spring,IL
60145,Spring,IL
61008,Spring,IL
61038,Spring,IL
61611,"Spring Bay",IL
61548,"Spring Bay (township)",IL
61611,"Spring Bay (township)",IL
62355,"Spring Creek",IL
62361,"Spring Creek",IL
62625,"Springfield (township)",IL
62684,"Springfield (township)",IL
62702,"Springfield (township)",IL
62703,"Springfield (township)",IL
62707,"Springfield (township)",IL
62810,"Spring Garden",IL
62816,"Spring Garden",IL
62846,"Spring Garden",IL
61534,"Spring Lake",IL
61539,"Spring Lake",IL
61546,"Spring Lake",IL
61554,"Spring Lake",IL
62445,"Spring Point",IL
62447,"Spring Point",IL
62462,"Spring Point",IL
62467,"Spring Point",IL
62468,"Spring Point",IL
60115,"Squaw Grove",IL
60511,"Squaw Grove",IL
60520,"Squaw Grove",IL
60552,"Squaw Grove",IL
60556,"Squaw Grove",IL
62313,"St. Albans",IL
62349,"St. Albans",IL
62380,"St. Albans",IL
62572,"Standard City",IL
62640,"Standard City",IL
60964,"St. Anne",IL
60954,"St. Anne (township)",IL
60964,"St. Anne (township)",IL
61802,Stanton,IL
61873,Stanton,IL
61878,Stanton,IL
61474,"St. Augustine",IL
62069,"Staunton (township)",IL
62074,"Staunton (township)",IL
62088,"Staunton (township)",IL
60174,"St. Charles",IL
60175,"St. Charles",IL
60184,"St. Charles",IL
60185,"St. Charles",IL
60120,"St. Charles (township)",IL
60174,"St. Charles (township)",IL
60175,"St. Charles (township)",IL
60177,"St. Charles (township)",IL
60184,"St. Charles (township)",IL
62220,"St. Clair",IL
62221,"St. Clair",IL
62222,"St. Clair",IL
62223,"St. Clair",IL
62226,"St. Clair",IL
62269,"St. Clair",IL
61520,"St. David",IL
61563,"St. David",IL
62458,"St. Elmo",IL
62459,"Ste. Marie",IL
62448,"Ste. Marie (township)",IL
62449,"Ste. Marie (township)",IL
62459,"Ste. Marie (township)",IL
62475,"Ste. Marie (township)",IL
62480,"Ste. Marie (township)",IL
61081,"Sterling (township)",IL
61523,Steuben,IL
61565,Steuben,IL
62849,Stevenson,IL
62853,Stevenson,IL
62881,Stevenson,IL
62445,"St. Francis",IL
62467,"St. Francis",IL
62460,"St. Francisville",IL
60402,"Stickney (township)",IL
60455,"Stickney (township)",IL
60459,"Stickney (township)",IL
60499,"Stickney (township)",IL
60629,"Stickney (township)",IL
60638,"Stickney (township)",IL
60804,"Stickney (township)",IL
62059,Stites,IL
62060,Stites,IL
62201,Stites,IL
62249,"St. Jacob",IL
62281,"St. Jacob",IL
62249,"St. Jacob (township)",IL
62281,"St. Jacob (township)",IL
62293,"St. Jacob (township)",IL
62832,"St. Johns",IL
61873,"St. Joseph",IL
61802,"St. Joseph (township)",IL
61873,"St. Joseph (township)",IL
62257,"St. Libory",IL
62282,"St. Libory",IL
62321,"St. Mary",IL
62367,"St. Mary",IL
61085,"Stockton (township)",IL
62987,"Stonefort (township)",IL
62513,"Stonington (township)",IL
62567,"Stonington (township)",IL
62568,"Stonington (township)",IL
62207,Stookey,IL
62223,Stookey,IL
62260,Stookey,IL
62880,"St. Peter",IL
61944,Stratton,IL
61955,Stratton,IL
61425,"Stronghurst (township)",IL
61437,"Stronghurst (township)",IL
61480,"Stronghurst (township)",IL
62216,"St. Rose",IL
62230,"St. Rose",IL
62231,"St. Rose",IL
62249,"St. Rose",IL
62275,"St. Rose",IL
61310,"Sublette (township)",IL
61330,"Sublette (township)",IL
61342,"Sublette (township)",IL
61367,"Sublette (township)",IL
61378,"Sublette (township)",IL
61231,Suez,IL
61412,Suez,IL
61486,Suez,IL
62216,"Sugar Creek",IL
62245,"Sugar Creek",IL
62293,"Sugar Creek",IL
60506,"Sugar Grove (township)",IL
60538,"Sugar Grove (township)",IL
60542,"Sugar Grove (township)",IL
60554,"Sugar Grove (township)",IL
62236,"Sugar Loaf",IL
62239,"Sugar Loaf",IL
62240,"Sugar Loaf",IL
62260,"Sugar Loaf",IL
60936,Sullivant,IL
61731,Sullivant,IL
61773,Sullivant,IL
61914,"Sullivan (township)",IL
61951,"Sullivan (township)",IL
62534,"Sullivan (township)",IL
62428,Sumpter,IL
62436,Sumpter,IL
62468,Sumpter,IL
62469,Sumpter,IL
60460,Sunbury,IL
61313,Sunbury,IL
61319,Sunbury,IL
60964,"Sun River Terrace",IL
61415,Swan,IL
61473,Swan,IL
62208,Swansea,IL
62221,Swansea,IL
62222,Swansea,IL
62223,Swansea,IL
62226,Swansea,IL
60135,"Sycamore (township)",IL
60145,"Sycamore (township)",IL
60178,"Sycamore (township)",IL
60481,Symerton,IL
61944,Symmes,IL
62441,Symmes,IL
62615,Talkington,IL
62662,Talkington,IL
62690,Talkington,IL
62692,Talkington,IL
62246,Tamalco,IL
62253,Tamalco,IL
62284,Tamalco,IL
61243,"Tampico (township)",IL
61277,"Tampico (township)",IL
61283,"Tampico (township)",IL
62890,Tate,IL
62935,Tate,IL
61006,Taylor,IL
61021,Taylor,IL
61031,Taylor,IL
61061,Taylor,IL
62568,"Taylorville (township)",IL
61420,"Tennessee (township)",IL
62326,"Tennessee (township)",IL
62367,"Tennessee (township)",IL
62374,"Tennessee (township)",IL
61425,"Terre Haute",IL
61450,"Terre Haute",IL
61454,"Terre Haute",IL
61480,"Terre Haute",IL
62401,"Teutopolis (township)",IL
62467,"Teutopolis (township)",IL
61727,Texas,IL
61756,Texas,IL
61028,"The Galena Territory",IL
61036,"The Galena Territory",IL
60030,"Third Lake",IL
60046,"Third Lake",IL
61001,Thompson,IL
61028,Thompson,IL
61075,Thompson,IL
61085,Thompson,IL
60406,"Thornton (township)",IL
60409,"Thornton (township)",IL
60419,"Thornton (township)",IL
60425,"Thornton (township)",IL
60426,"Thornton (township)",IL
60428,"Thornton (township)",IL
60429,"Thornton (township)",IL
60430,"Thornton (township)",IL
60438,"Thornton (township)",IL
60469,"Thornton (township)",IL
60473,"Thornton (township)",IL
60476,"Thornton (township)",IL
60633,"Thornton (township)",IL
60827,"Thornton (township)",IL
61533,Timber,IL
61536,Timber,IL
61539,Timber,IL
61547,Timber,IL
61008,Timberlane,IL
61011,Timberlane,IL
61065,Timberlane,IL
62363,Time,IL
61914,"Todds Point",IL
62534,"Todds Point",IL
61822,"Tolono (township)",IL
61872,"Tolono (township)",IL
61874,"Tolono (township)",IL
61880,"Tolono (township)",IL
61447,Tompkins,IL
61462,Tompkins,IL
61478,Tompkins,IL
62807,Tonti,IL
62870,Tonti,IL
62875,Tonti,IL
62881,Tonti,IL
61421,"Toulon (township)",IL
61483,"Toulon (township)",IL
61491,"Toulon (township)",IL
61704,"Towanda (township)",IL
61705,"Towanda (township)",IL
61737,"Towanda (township)",IL
61758,"Towanda (township)",IL
61761,"Towanda (township)",IL
61776,"Towanda (township)",IL
62557,"Tower Hill (township)",IL
62565,"Tower Hill (township)",IL
62571,"Tower Hill (township)",IL
60010,"Tower Lakes",IL
61550,"Tremont (township)",IL
61568,"Tremont (township)",IL
61755,"Tremont (township)",IL
60013,"Trout Valley",IL
61342,"Troy Grove (township)",IL
61372,"Troy Grove (township)",IL
61373,"Troy Grove (township)",IL
61428,Truro,IL
61485,Truro,IL
61489,Truro,IL
61727,Tunbridge,IL
61749,Tunbridge,IL
61756,Tunbridge,IL
61953,"Tuscola (township)",IL
62817,Twigg,IL
62829,Twigg,IL
62859,Twigg,IL
61705,"Twin Grove",IL
62812,Tyrone,IL
62822,Tyrone,IL
62825,Tyrone,IL
62865,Tyrone,IL
62891,Tyrone,IL
62983,Tyrone,IL
61251,"Union Grove",IL
61270,"Union Grove",IL
61801,"Urbana (township)",IL
61802,"Urbana (township)",IL
61820,"Urbana (township)",IL
61822,"Urbana (township)",IL
62305,"Ursa (township)",IL
62376,"Ursa (township)",IL
62379,"Ursa (township)",IL
61252,Ustick,IL
61270,Ustick,IL
61479,Valley,IL
61491,Valley,IL
61559,Valley,IL
62340,"Valley City",IL
61841,Vance,IL
61844,Vance,IL
61849,Vance,IL
62418,"Vandalia (township)",IL
62471,"Vandalia (township)",IL
62885,"Vandalia (township)",IL
62214,Venedy,IL
62214,"Venedy (township)",IL
62271,"Venedy (township)",IL
60046,"Venetian Village",IL
62040,"Venice (township)",IL
62060,"Venice (township)",IL
62090,"Venice (township)",IL
62832,"Vergennes (township)",IL
62932,"Vergennes (township)",IL
62966,"Vergennes (township)",IL
62994,"Vergennes (township)",IL
61348,Vermillion,IL
61364,Vermillion,IL
61370,Vermillion,IL
61441,"Vermont (township)",IL
61482,"Vermont (township)",IL
61484,"Vermont (township)",IL
62353,"Versailles (township)",IL
62378,"Versailles (township)",IL
60531,Victor,IL
60552,Victor,IL
60556,Victor,IL
61449,"Victoria (township)",IL
61485,"Victoria (township)",IL
61489,"Victoria (township)",IL
61036,"Vinegar Hill",IL
62640,"Virden (township)",IL
62690,"Virden (township)",IL
60151,Virgil,IL
60151,"Virgil (township)",IL
62611,"Virginia (township)",IL
62691,"Virginia (township)",IL
60020,Volo,IL
60041,Volo,IL
60051,Volo,IL
60073,Volo,IL
62423,Wabash,IL
62441,Wabash,IL
61032,Waddams,IL
61048,Waddams,IL
61050,Waddams,IL
61060,Waddams,IL
61089,Waddams,IL
62218,Wade,IL
62219,Wade,IL
62230,Wade,IL
62231,Wade,IL
62448,Wade,IL
62479,Wade,IL
61740,Waldo,IL
61744,Waldo,IL
62349,Walker,IL
62351,Walker,IL
62373,Walker,IL
62379,Walker,IL
62380,Walker,IL
62016,Walkerville,IL
62027,Walkerville,IL
62050,Walkerville,IL
62092,Walkerville,IL
60948,Wall,IL
60952,Wall,IL
60957,Wall,IL
60962,Wall,IL
61350,Wallace,IL
61414,"Walnut Grove",IL
61422,"Walnut Grove",IL
61438,"Walnut Grove",IL
61467,"Walnut Grove",IL
61470,"Walnut Grove",IL
61485,"Walnut Grove",IL
61376,"Walnut (township)",IL
62056,"Walshville (township)",IL
62069,"Walshville (township)",IL
62074,"Walshville (township)",IL
62086,"Walshville (township)",IL
62091,"Walshville (township)",IL
61301,Waltham,IL
61350,Waltham,IL
61373,Waltham,IL
62801,Wamac,IL
61745,"Wapella (township)",IL
61777,"Wapella (township)",IL
61778,"Wapella (township)",IL
61044,"Wards Grove",IL
61048,"Wards Grove",IL
61085,"Wards Grove",IL
61001,"Warren (township)",IL
61087,"Warren (township)",IL
62379,"Warsaw (township)",IL
62203,"Washington Park",IL
62204,"Washington Park",IL
61530,"Washington (township)",IL
61571,"Washington (township)",IL
61542,Waterford,IL
62401,"Watson (township)",IL
62424,"Watson (township)",IL
62467,"Watson (township)",IL
62473,"Watson (township)",IL
60010,"Wauconda (township)",IL
60030,"Wauconda (township)",IL
60042,"Wauconda (township)",IL
60051,"Wauconda (township)",IL
60073,"Wauconda (township)",IL
60084,"Wauconda (township)",IL
60064,"Waukegan (township)",IL
60079,"Waukegan (township)",IL
60085,"Waukegan (township)",IL
60087,"Waukegan (township)",IL
60444,Wauponsee,IL
60450,Wauponsee,IL
61745,"Waynesville (township)",IL
61754,"Waynesville (township)",IL
61778,"Waynesville (township)",IL
60103,"Wayne (township)",IL
60133,"Wayne (township)",IL
60174,"Wayne (township)",IL
60184,"Wayne (township)",IL
60185,"Wayne (township)",IL
60188,"Wayne (township)",IL
62814,Webber,IL
62864,Webber,IL
62872,Webber,IL
61238,Weller,IL
61414,Weller,IL
61419,Weller,IL
61434,Weller,IL
61490,Weller,IL
62075,Wenonah,IL
60481,Wesley,IL
60950,Wesley,IL
61722,West,IL
61724,West,IL
61752,West,IL
61842,West,IL
62411,West,IL
62426,West,IL
62443,West,IL
62458,West,IL
62838,West,IL
62812,"West City",IL
60015,"West Deerfield",IL
60035,"West Deerfield",IL
60045,"West Deerfield",IL
61240,Western,IL
61273,Western,IL
61274,Western,IL
62044,"Western Mound",IL
62630,"Western Mound",IL
62649,"Western Mound",IL
62565,Westervelt,IL
61933,"Westfield (township)",IL
62442,"Westfield (township)",IL
62474,"Westfield (township)",IL
61036,"West Galena",IL
61449,"West Jersey",IL
61451,"West Jersey",IL
61483,"West Jersey",IL
62643,"West Lincoln",IL
62656,"West Lincoln",IL
61604,"West Peoria",IL
61604,"West Peoria (township)",IL
61607,"West Peoria (township)",IL
61434,Wethersfield,IL
61443,Wethersfield,IL
62231,Wheatfield,IL
62275,Wheatfield,IL
60490,Wheatland,IL
60503,Wheatland,IL
60543,Wheatland,IL
60544,Wheatland,IL
60564,Wheatland,IL
60565,Wheatland,IL
60585,Wheatland,IL
61368,Wheatland,IL
61421,Wheatland,IL
61537,Wheatland,IL
61560,Wheatland,IL
62418,Wheatland,IL
62458,Wheatland,IL
62838,Wheatland,IL
62880,Wheatland,IL
60004,"Wheeling (township)",IL
60005,"Wheeling (township)",IL
60006,"Wheeling (township)",IL
60016,"Wheeling (township)",IL
60056,"Wheeling (township)",IL
60062,"Wheeling (township)",IL
60070,"Wheeling (township)",IL
60089,"Wheeling (township)",IL
60090,"Wheeling (township)",IL
62959,Whiteash,IL
62069,"White City",IL
61537,Whitefield,IL
61565,Whitefield,IL
62082,"White Hall (township)",IL
62092,"White Hall (township)",IL
61725,"White Oak",IL
61015,"White Rock",IL
61020,"White Rock",IL
61043,"White Rock",IL
61049,"White Rock",IL
61068,"White Rock",IL
61928,Whitley,IL
61951,Whitley,IL
61957,Whitley,IL
61830,Whitmore,IL
62501,Whitmore,IL
62521,Whitmore,IL
62526,Whitmore,IL
62554,Whitmore,IL
62471,Wilberton,IL
62880,Wilberton,IL
62885,Wilberton,IL
62379,Wilcox,IL
60401,Will,IL
60449,Will,IL
60468,Will,IL
60940,Will,IL
62515,Williams,IL
62561,Williams,IL
62684,Williams,IL
62693,Williams,IL
62088,Williamson,IL
61813,"Willow Branch",IL
61818,"Willow Branch",IL
61830,"Willow Branch",IL
61855,"Willow Branch",IL
61856,"Willow Branch",IL
60530,"Willow Creek",IL
60553,"Willow Creek",IL
61318,"Willow Creek",IL
61353,"Willow Creek",IL
62448,"Willow Hill (township)",IL
62449,"Willow Hill (township)",IL
62480,"Willow Hill (township)",IL
60416,"Wilmington (township)",IL
60481,"Wilmington (township)",IL
61735,Wilson,IL
61745,Wilson,IL
61752,Wilson,IL
61777,Wilson,IL
60442,Wilton,IL
60468,Wilton,IL
60481,Wilton,IL
60950,Wilton,IL
61957,"Windsor (township)",IL
60185,"Winfield (township)",IL
60186,"Winfield (township)",IL
60189,"Winfield (township)",IL
60190,"Winfield (township)",IL
60502,"Winfield (township)",IL
60510,"Winfield (township)",IL
60555,"Winfield (township)",IL
60563,"Winfield (township)",IL
61088,"Winnebago (township)",IL
61101,"Winnebago (township)",IL
61102,"Winnebago (township)",IL
61087,"Winslow (township)",IL
61089,"Winslow (township)",IL
62032,"Witt (township)",IL
62051,"Witt (township)",IL
62075,"Witt (township)",IL
62094,"Witt (township)",IL
61028,Woodbine,IL
61085,Woodbine,IL
62436,Woodbury,IL
62445,Woodbury,IL
62468,Woodbury,IL
62002,"Wood River (township)",IL
62010,"Wood River (township)",IL
62018,"Wood River (township)",IL
62024,"Wood River (township)",IL
62048,"Wood River (township)",IL
62084,"Wood River (township)",IL
62095,"Wood River (township)",IL
62629,Woodside,IL
62703,Woodside,IL
62704,Woodside,IL
62711,Woodside,IL
62712,Woodside,IL
62016,Woodville,IL
62027,Woodville,IL
60406,"Worth (township)",IL
60415,"Worth (township)",IL
60445,"Worth (township)",IL
60453,"Worth (township)",IL
60454,"Worth (township)",IL
60455,"Worth (township)",IL
60456,"Worth (township)",IL
60463,"Worth (township)",IL
60472,"Worth (township)",IL
60482,"Worth (township)",IL
60620,"Worth (township)",IL
60655,"Worth (township)",IL
60803,"Worth (township)",IL
60805,"Worth (township)",IL
61356,"Wyanet (township)",IL
61379,"Wyanet (township)",IL
61014,Wysox,IL
61046,Wysox,IL
61051,Wysox,IL
62313,Wythe,IL
62341,Wythe,IL
62379,Wythe,IL
62899,"Xenia (township)",IL
61726,Yates,IL
61753,Yates,IL
60401,Yellowhead,IL
60940,Yellowhead,IL
60954,Yellowhead,IL
60126,York,IL
60137,York,IL
60148,York,IL
60181,York,IL
60515,York,IL
60521,York,IL
60523,York,IL
60559,York,IL
61053,York,IL
61074,York,IL
61252,York,IL
61285,York,IL
62477,York,IL
61234,Yorktown,IL
61258,Yorktown,IL
61277,Yorktown,IL
61810,"Young America",IL
61876,"Young America",IL
61917,"Young America",IL
61924,"Young America",IL
61932,"Young America",IL
61940,"Young America",IL
61942,"Young America",IL
61431,"Young Hickory",IL
61544,"Young Hickory",IL
62056,Zanesville,IL
62560,Zanesville,IL
62572,Zanesville,IL
62446,Zif,IL
62823,Zif,IL
62824,Zif,IL
60083,"Zion (township)",IL
60099,"Zion (township)",IL
61244,Zuma,IL
61257,Zuma,IL
61275,Zuma,IL
