zipcode,city,state
95220,Acampo,CA
91390,Acton,CA
93510,Acton,CA
93550,Acton,CA
93551,Acton,CA
92301,Adelanto,CA
92368,Adelanto,CA
92371,Adelanto,CA
92394,Adelanto,CA
96006,Adin,CA
91301,"Agoura Hills",CA
91376,"Agoura Hills",CA
92536,Aguanga,CA
93601,Ahwahnee,CA
93644,Ahwahnee,CA
94501,Alameda,CA
94502,Alameda,CA
94606,Alameda,CA
94621,Alameda,CA
94507,Alamo,CA
94706,Albany,CA
94710,Albany,CA
95410,Albion,CA
95456,Albion,CA
95511,Alderpoint,CA
91801,Alhambra,CA
91802,Alhambra,CA
91803,Alhambra,CA
91841,Alhambra,CA
91896,Alhambra,CA
91899,Alhambra,CA
92651,"Aliso Viejo",CA
92653,"Aliso Viejo",CA
92656,"Aliso Viejo",CA
92677,"Aliso Viejo",CA
95910,Alleghany,CA
93201,Alpaugh,CA
91901,Alpine,CA
91903,Alpine,CA
92019,Alpine,CA
95701,Alta,CA
95714,Alta,CA
91001,Altadena,CA
91003,Altadena,CA
91104,Altadena,CA
91107,Altadena,CA
95221,Altaville,CA
96101,Alturas,CA
95002,Alviso,CA
95601,"Amador City",CA
95685,"Amador City",CA
92304,Amboy,CA
94503,"American Canyon",CA
94589,"American Canyon",CA
92801,Anaheim,CA
92802,Anaheim,CA
92803,Anaheim,CA
92804,Anaheim,CA
92805,Anaheim,CA
92806,Anaheim,CA
92807,Anaheim,CA
92808,Anaheim,CA
92811,Anaheim,CA
92812,Anaheim,CA
92814,Anaheim,CA
92815,Anaheim,CA
92816,Anaheim,CA
92817,Anaheim,CA
92825,Anaheim,CA
92850,Anaheim,CA
92887,Anaheim,CA
96007,Anderson,CA
95221,"Angels Camp",CA
92305,"Angelus Oaks",CA
94508,Angwin,CA
95412,Annapolis,CA
95621,Antelope,CA
95843,Antelope,CA
94509,Antioch,CA
94513,Antioch,CA
94531,Antioch,CA
94561,Antioch,CA
94565,Antioch,CA
92539,Anza,CA
92561,Anza,CA
92307,"Apple Valley",CA
92308,"Apple Valley",CA
92345,"Apple Valley",CA
92395,"Apple Valley",CA
95703,Applegate,CA
95003,Aptos,CA
95912,Arbuckle,CA
91006,Arcadia,CA
91007,Arcadia,CA
91077,Arcadia,CA
91732,Arcadia,CA
95518,Arcata,CA
95521,Arcata,CA
95524,Arcata,CA
95549,Arcata,CA
93202,Armona,CA
93230,Armona,CA
95223,Arnold,CA
95224,Arnold,CA
95004,Aromas,CA
93420,"Arroyo Grande",CA
93421,"Arroyo Grande",CA
90701,Artesia,CA
90702,Artesia,CA
95913,Artois,CA
95963,Artois,CA
95988,Artois,CA
93203,Arvin,CA
93422,Atascadero,CA
93423,Atascadero,CA
94026,Atherton,CA
94027,Atherton,CA
95301,Atwater,CA
92811,Atwood,CA
93602,Auberry,CA
93651,Auberry,CA
95602,Auburn,CA
95603,Auburn,CA
95604,Auburn,CA
90704,Avalon,CA
93204,Avenal,CA
93239,Avenal,CA
95224,Avery,CA
95233,Avery,CA
93405,"Avila Beach",CA
93424,"Avila Beach",CA
93449,"Avila Beach",CA
91010,Azusa,CA
91702,Azusa,CA
93603,Badger,CA
92309,Baker,CA
93203,Bakersfield,CA
93220,Bakersfield,CA
93301,Bakersfield,CA
93302,Bakersfield,CA
93303,Bakersfield,CA
93304,Bakersfield,CA
93305,Bakersfield,CA
93306,Bakersfield,CA
93307,Bakersfield,CA
93308,Bakersfield,CA
93309,Bakersfield,CA
93311,Bakersfield,CA
93312,Bakersfield,CA
93313,Bakersfield,CA
93314,Bakersfield,CA
93380,Bakersfield,CA
93383,Bakersfield,CA
93384,Bakersfield,CA
93385,Bakersfield,CA
93386,Bakersfield,CA
93387,Bakersfield,CA
93389,Bakersfield,CA
93390,Bakersfield,CA
91706,"Baldwin Park",CA
91746,"Baldwin Park",CA
91797,"Baldwin Park",CA
95303,Ballico,CA
95901,Bangor,CA
95914,Bangor,CA
95966,Bangor,CA
92220,Banning,CA
92223,Banning,CA
92222,Bard,CA
92311,Barstow,CA
92312,Barstow,CA
92327,Barstow,CA
93604,"Bass Lake",CA
95524,Bayside,CA
95903,"Beale Afb",CA
92223,Beaumont,CA
92583,Beaumont,CA
96122,Beckwourth,CA
96129,Beckwourth,CA
95915,Belden,CA
90040,Bell,CA
90058,Bell,CA
90201,Bell,CA
90270,Bell,CA
90201,"Bell Gardens",CA
90202,"Bell Gardens",CA
96003,"Bella Vista",CA
96008,"Bella Vista",CA
90706,Bellflower,CA
90707,Bellflower,CA
94002,Belmont,CA
94920,"Belvedere Tiburon",CA
95005,"Ben Lomond",CA
95018,"Ben Lomond",CA
94510,Benicia,CA
94591,Benicia,CA
93512,Benton,CA
93514,Benton,CA
94701,Berkeley,CA
94702,Berkeley,CA
94703,Berkeley,CA
94704,Berkeley,CA
94705,Berkeley,CA
94706,Berkeley,CA
94707,Berkeley,CA
94708,Berkeley,CA
94709,Berkeley,CA
94710,Berkeley,CA
94712,Berkeley,CA
94720,Berkeley,CA
95916,"Berry Creek",CA
95966,"Berry Creek",CA
94511,"Bethel Island",CA
90209,"Beverly Hills",CA
90210,"Beverly Hills",CA
90211,"Beverly Hills",CA
90212,"Beverly Hills",CA
96009,Bieber,CA
96010,"Big Bar",CA
92314,"Big Bear City",CA
92386,"Big Bear City",CA
92315,"Big Bear Lake",CA
96011,"Big Bend",CA
93605,"Big Creek",CA
93634,"Big Creek",CA
95305,"Big Oak Flat",CA
93513,"Big Pine",CA
93514,"Big Pine",CA
93920,"Big Sur",CA
95917,Biggs,CA
93606,Biola,CA
93630,Biola,CA
93723,Biola,CA
94512,"Birds Landing",CA
93514,Bishop,CA
93515,Bishop,CA
96103,Blairsden-Graeagle,CA
95514,Blocksburg,CA
92316,Bloomington,CA
92335,Bloomington,CA
92317,"Blue Jay",CA
95525,"Blue Lake",CA
92225,Blythe,CA
92226,Blythe,CA
94922,Bodega,CA
95465,Bodega,CA
94923,"Bodega Bay",CA
93205,Bodfish,CA
94924,Bolinas,CA
91902,Bonita,CA
91910,Bonita,CA
92139,Bonita,CA
92003,Bonsall,CA
92026,Bonsall,CA
92084,Bonsall,CA
95415,Boonville,CA
93516,Boron,CA
93596,Boron,CA
92004,"Borrego Springs",CA
95006,"Boulder Creek",CA
91905,Boulevard,CA
95416,"Boyes Hot Springs",CA
95476,"Boyes Hot Springs",CA
93426,Bradley,CA
93064,Brandeis,CA
95417,Branscomb,CA
92227,Brawley,CA
92821,Brea,CA
92822,Brea,CA
92823,Brea,CA
92835,Brea,CA
92886,Brea,CA
94513,Brentwood,CA
93517,Bridgeport,CA
95526,Bridgeville,CA
94005,Brisbane,CA
95005,Brookdale,CA
95006,Brookdale,CA
95007,Brookdale,CA
95606,Brooks,CA
95918,"Browns Valley",CA
95919,Brownsville,CA
92318,"Bryn Mawr",CA
93427,Buellton,CA
90620,"Buena Park",CA
90621,"Buena Park",CA
90622,"Buena Park",CA
90624,"Buena Park",CA
91501,Burbank,CA
91502,Burbank,CA
91503,Burbank,CA
91504,Burbank,CA
91505,Burbank,CA
91506,Burbank,CA
91507,Burbank,CA
91508,Burbank,CA
91510,Burbank,CA
91523,Burbank,CA
91526,Burbank,CA
95128,Burbank,CA
94010,Burlingame,CA
96013,Burney,CA
95527,"Burnt Ranch",CA
93607,Burrel,CA
95225,Burson,CA
95920,"Butte City",CA
93206,Buttonwillow,CA
94513,Byron,CA
94514,Byron,CA
92230,Cabazon,CA
90290,Calabasas,CA
91301,Calabasas,CA
91302,Calabasas,CA
91372,Calabasas,CA
92231,Calexico,CA
92232,Calexico,CA
92249,Calexico,CA
93518,Caliente,CA
93501,"California City",CA
93504,"California City",CA
93505,"California City",CA
93207,"California Hot Springs",CA
92223,Calimesa,CA
92320,Calimesa,CA
92373,Calimesa,CA
92233,Calipatria,CA
94515,Calistoga,CA
96014,Callahan,CA
95470,Calpella,CA
95482,Calpella,CA
96124,Calpine,CA
93010,Camarillo,CA
93011,Camarillo,CA
93012,Camarillo,CA
93428,Cambria,CA
95667,Camino,CA
95709,Camino,CA
95419,"Camp Meeker",CA
93208,"Camp Nelson",CA
93265,"Camp Nelson",CA
92054,"Camp Pendleton",CA
95008,Campbell,CA
95009,Campbell,CA
95011,Campbell,CA
95032,Campbell,CA
95125,Campbell,CA
95128,Campbell,CA
91906,Campo,CA
95226,"Campo Seco",CA
95922,Camptonville,CA
95960,Camptonville,CA
96015,Canby,CA
91303,"Canoga Park",CA
93519,Cantil,CA
93608,"Cantua Creek",CA
94516,Canyon,CA
91351,"Canyon Country",CA
95923,Canyondam,CA
96137,Canyondam,CA
95607,Capay,CA
92624,"Capistrano Beach",CA
95003,Capitola,CA
95010,Capitola,CA
95062,Capitola,CA
92007,"Cardiff By The Sea",CA
95528,Carlotta,CA
92008,Carlsbad,CA
92009,Carlsbad,CA
92010,Carlsbad,CA
92011,Carlsbad,CA
92013,Carlsbad,CA
92018,Carlsbad,CA
92024,Carlsbad,CA
92056,Carlsbad,CA
92081,Carlsbad,CA
93921,Carmel,CA
93924,"Carmel Valley",CA
95608,Carmichael,CA
95609,Carmichael,CA
95628,Carmichael,CA
95841,Carmichael,CA
95604,"Carnelian Bay",CA
96140,"Carnelian Bay",CA
93013,Carpinteria,CA
93014,Carpinteria,CA
90224,Carson,CA
90248,Carson,CA
90745,Carson,CA
90746,Carson,CA
90747,Carson,CA
90749,Carson,CA
90810,Carson,CA
93609,Caruthers,CA
93429,Casmalia,CA
95420,Caspar,CA
95460,Caspar,CA
96016,Cassel,CA
91310,Castaic,CA
91384,Castaic,CA
96017,Castella,CA
94546,"Castro Valley",CA
94552,"Castro Valley",CA
94577,"Castro Valley",CA
94578,"Castro Valley",CA
95012,Castroville,CA
92234,"Cathedral City",CA
92241,"Cathedral City",CA
92264,"Cathedral City",CA
92270,"Cathedral City",CA
92276,"Cathedral City",CA
95306,"Catheys Valley",CA
93430,Cayucos,CA
95421,Cazadero,CA
92321,"Cedar Glen",CA
95370,"Cedar Ridge",CA
95383,"Cedar Ridge",CA
92322,"Cedarpines Park",CA
96104,Cedarville,CA
95307,Ceres,CA
95326,Ceres,CA
95351,Ceres,CA
95358,Ceres,CA
90703,Cerritos,CA
95925,Challenge,CA
91311,Chatsworth,CA
96020,Chester,CA
95712,"Chicago Park",CA
95926,Chico,CA
95927,Chico,CA
95928,Chico,CA
95929,Chico,CA
95973,Chico,CA
95976,Chico,CA
96105,Chilcoot,CA
95309,"Chinese Camp",CA
95327,"Chinese Camp",CA
91708,Chino,CA
91710,Chino,CA
92880,Chino,CA
91709,"Chino Hills",CA
91710,"Chino Hills",CA
93610,Chowchilla,CA
93925,Chualar,CA
91902,"Chula Vista",CA
91908,"Chula Vista",CA
91909,"Chula Vista",CA
91910,"Chula Vista",CA
91911,"Chula Vista",CA
91912,"Chula Vista",CA
91913,"Chula Vista",CA
91914,"Chula Vista",CA
91915,"Chula Vista",CA
91921,"Chula Vista",CA
91950,"Chula Vista",CA
92154,"Chula Vista",CA
92323,Cima,CA
95610,"Citrus Heights",CA
95611,"Citrus Heights",CA
95621,"Citrus Heights",CA
95841,"Citrus Heights",CA
90601,"City of Industry",CA
91711,Claremont,CA
91750,Claremont,CA
95612,Clarksburg,CA
94517,Clayton,CA
95422,Clearlake,CA
95424,Clearlake,CA
95423,"Clearlake Oaks",CA
95424,"Clearlake Park",CA
95227,Clements,CA
96106,Clio,CA
95930,"Clipper Mills",CA
95941,"Clipper Mills",CA
95425,Cloverdale,CA
93611,Clovis,CA
93612,Clovis,CA
93613,Clovis,CA
93619,Clovis,CA
93626,Clovis,CA
93747,Clovis,CA
92236,Coachella,CA
92274,Coachella,CA
93210,Coalinga,CA
93614,Coarsegold,CA
95426,Cobb,CA
96107,Coleville,CA
96133,Coleville,CA
95713,Colfax,CA
95613,Coloma,CA
95633,Coloma,CA
95651,Coloma,CA
95667,Coloma,CA
92313,Colton,CA
92316,Colton,CA
92324,Colton,CA
95310,Columbia,CA
95370,Columbia,CA
95932,Colusa,CA
95427,Comptche,CA
90059,Compton,CA
90220,Compton,CA
90221,Compton,CA
90222,Compton,CA
90223,Compton,CA
94517,Concord,CA
94518,Concord,CA
94519,Concord,CA
94520,Concord,CA
94521,Concord,CA
94522,Concord,CA
94523,Concord,CA
94524,Concord,CA
94527,Concord,CA
94598,Concord,CA
95614,Cool,CA
95228,Copperopolis,CA
93212,Corcoran,CA
96021,Corning,CA
92503,Corona,CA
92860,Corona,CA
92877,Corona,CA
92878,Corona,CA
92879,Corona,CA
92880,Corona,CA
92881,Corona,CA
92882,Corona,CA
92883,Corona,CA
92625,"Corona Del Mar",CA
92118,Coronado,CA
92135,Coronado,CA
92147,Coronado,CA
92155,Coronado,CA
92178,Coronado,CA
94925,"Corte Madera",CA
94976,"Corte Madera",CA
92626,"Costa Mesa",CA
92627,"Costa Mesa",CA
92628,"Costa Mesa",CA
94926,Cotati,CA
94931,Cotati,CA
96022,Cottonwood,CA
95311,Coulterville,CA
95615,Courtland,CA
95428,Covelo,CA
91722,Covina,CA
91723,Covina,CA
91724,Covina,CA
95013,Coyote,CA
95531,"Crescent City",CA
95532,"Crescent City",CA
95934,"Crescent Mills",CA
95983,"Crescent Mills",CA
95303,Cressey,CA
95312,Cressey,CA
95334,Cressey,CA
95388,Cressey,CA
92326,"Crest Park",CA
92322,Crestline,CA
92325,Crestline,CA
92391,Crestline,CA
92404,Crestline,CA
93432,Creston,CA
94525,Crockett,CA
95313,"Crows Landing",CA
95360,"Crows Landing",CA
90016,"Culver City",CA
90066,"Culver City",CA
90230,"Culver City",CA
90231,"Culver City",CA
90232,"Culver City",CA
94024,Cupertino,CA
95014,Cupertino,CA
95015,Cupertino,CA
95051,Cupertino,CA
95070,Cupertino,CA
95108,Cupertino,CA
93615,Cutler,CA
93647,Cutler,CA
95503,Cutten,CA
90630,Cypress,CA
90720,Cypress,CA
92327,Daggett,CA
94013,"Daly City",CA
94014,"Daly City",CA
94015,"Daly City",CA
94016,"Daly City",CA
94017,"Daly City",CA
92624,"Dana Point",CA
92629,"Dana Point",CA
92651,"Dana Point",CA
92675,"Dana Point",CA
94506,Danville,CA
94507,Danville,CA
94526,Danville,CA
94528,Danville,CA
94582,Danville,CA
94583,Danville,CA
95364,Dardanelle,CA
93522,Darwin,CA
95017,Davenport,CA
95616,Davis,CA
95617,Davis,CA
95618,Davis,CA
96108,"Davis Creek",CA
92328,"Death Valley",CA
94508,"Deer Park",CA
94574,"Deer Park",CA
94576,"Deer Park",CA
92014,"Del Mar",CA
93616,"Del Rey",CA
93215,Delano,CA
93216,Delano,CA
93250,Delano,CA
93280,Delano,CA
95315,Delhi,CA
95380,Delhi,CA
95316,Denair,CA
91901,Descanso,CA
91916,Descanso,CA
92239,"Desert Center",CA
92240,"Desert Hot Springs",CA
92241,"Desert Hot Springs",CA
92258,"Desert Hot Springs",CA
92282,"Desert Hot Springs",CA
94506,Diablo,CA
94528,Diablo,CA
91765,"Diamond Bar",CA
91789,"Diamond Bar",CA
95619,"Diamond Springs",CA
95623,"Diamond Springs",CA
95667,"Diamond Springs",CA
95682,"Diamond Springs",CA
94929,"Dillon Beach",CA
94971,"Dillon Beach",CA
93618,Dinuba,CA
95620,Dixon,CA
95935,Dobbins,CA
95962,Dobbins,CA
96023,Dorris,CA
96058,Dorris,CA
93620,"Dos Palos",CA
95429,"Dos Rios",CA
96024,"Douglas City",CA
96093,"Douglas City",CA
95229,"Douglas Flat",CA
90239,Downey,CA
90240,Downey,CA
90241,Downey,CA
90242,Downey,CA
95936,Downieville,CA
96109,Doyle,CA
95601,Drytown,CA
95685,Drytown,CA
95699,Drytown,CA
91010,Duarte,CA
91017,Duarte,CA
94551,Dublin,CA
94568,Dublin,CA
93218,Ducor,CA
91917,Dulzura,CA
95430,"Duncans Mills",CA
93621,Dunlap,CA
95912,Dunnigan,CA
95937,Dunnigan,CA
96025,Dunsmuir,CA
96067,Dunsmuir,CA
95928,Durham,CA
95938,Durham,CA
95958,Durham,CA
95965,Durham,CA
95714,"Dutch Flat",CA
96110,Eagleville,CA
93219,Earlimart,CA
92242,Earp,CA
92650,"East Irvine",CA
95721,"Echo Lake",CA
93220,Edison,CA
93523,Edwards,CA
92019,"El Cajon",CA
92020,"El Cajon",CA
92021,"El Cajon",CA
92071,"El Cajon",CA
92090,"El Cajon",CA
92243,"El Centro",CA
92244,"El Centro",CA
92881,"El Cerrito",CA
94530,"El Cerrito",CA
95623,"El Dorado",CA
95672,"El Dorado Hills",CA
95682,"El Dorado Hills",CA
95762,"El Dorado Hills",CA
94019,"El Granada",CA
95618,"El Macero",CA
91731,"El Monte",CA
91732,"El Monte",CA
91733,"El Monte",CA
91734,"El Monte",CA
91735,"El Monte",CA
91780,"El Monte",CA
95317,"El Nido",CA
95318,"El Portal",CA
90245,"El Segundo",CA
92503,"El Sobrante",CA
94803,"El Sobrante",CA
92609,"El Toro",CA
95433,"El Verano",CA
95476,"El Verano",CA
95431,Eldridge,CA
95442,Eldridge,CA
95476,Eldridge,CA
95432,Elk,CA
95939,"Elk Creek",CA
95624,"Elk Grove",CA
95757,"Elk Grove",CA
95758,"Elk Grove",CA
95759,"Elk Grove",CA
95829,"Elk Grove",CA
95830,"Elk Grove",CA
95625,Elmira,CA
95687,Elmira,CA
95626,Elverta,CA
95673,Elverta,CA
94608,Emeryville,CA
94662,Emeryville,CA
95715,"Emigrant Gap",CA
95319,Empire,CA
95357,Empire,CA
92007,Encinitas,CA
92023,Encinitas,CA
92024,Encinitas,CA
92067,Encinitas,CA
92075,Encinitas,CA
91316,Encino,CA
95320,Escalon,CA
92025,Escondido,CA
92026,Escondido,CA
92027,Escondido,CA
92029,Escondido,CA
92030,Escondido,CA
92033,Escondido,CA
92046,Escondido,CA
92082,Escondido,CA
95607,Esparto,CA
95627,Esparto,CA
95653,Esparto,CA
92332,Essex,CA
96027,Etna,CA
95501,Eureka,CA
95503,Eureka,CA
95521,Eureka,CA
95524,Eureka,CA
95534,Eureka,CA
93221,Exeter,CA
95628,"Fair Oaks",CA
94930,Fairfax,CA
94533,Fairfield,CA
94534,Fairfield,CA
94535,Fairfield,CA
94585,Fairfield,CA
94591,Fairfield,CA
95687,Fairfield,CA
96028,"Fall River Mills",CA
92028,Fallbrook,CA
92088,Fallbrook,CA
93223,Farmersville,CA
93292,Farmersville,CA
95230,Farmington,CA
92333,Fawnskin,CA
95940,"Feather Falls",CA
93224,Fellows,CA
95018,Felton,CA
95060,Felton,CA
95536,Ferndale,CA
95629,Fiddletown,CA
95685,Fiddletown,CA
95503,"Fields Landing",CA
95537,"Fields Landing",CA
93015,Fillmore,CA
93016,Fillmore,CA
95435,Finley,CA
93622,Firebaugh,CA
93623,"Fish Camp",CA
93624,"Five Points",CA
96111,Floriston,CA
96021,Flournoy,CA
96029,Flournoy,CA
95630,Folsom,CA
95671,Folsom,CA
95742,Folsom,CA
95763,Folsom,CA
92316,Fontana,CA
92331,Fontana,CA
92334,Fontana,CA
92335,Fontana,CA
92336,Fontana,CA
92337,Fontana,CA
92377,Fontana,CA
92402,Fontana,CA
92610,"Foothill Ranch",CA
95941,Forbestown,CA
92339,"Forest Falls",CA
94933,"Forest Knolls",CA
95942,"Forest Ranch",CA
95631,Foresthill,CA
95436,Forestville,CA
96031,"Forks of Salmon",CA
96112,"Fort Bidwell",CA
95437,"Fort Bragg",CA
95531,"Fort Dick",CA
95538,"Fort Dick",CA
92310,"Fort Irwin",CA
96032,"Fort Jones",CA
95540,Fortuna,CA
92708,"Fountain Valley",CA
93625,Fowler,CA
93225,"Frazier Park",CA
95019,Freedom,CA
95076,Freedom,CA
94536,Fremont,CA
94537,Fremont,CA
94538,Fremont,CA
94539,Fremont,CA
94555,Fremont,CA
95206,"French Camp",CA
95231,"French Camp",CA
96033,"French Gulch",CA
93611,Fresno,CA
93619,Fresno,CA
93650,Fresno,CA
93701,Fresno,CA
93702,Fresno,CA
93703,Fresno,CA
93704,Fresno,CA
93705,Fresno,CA
93706,Fresno,CA
93707,Fresno,CA
93708,Fresno,CA
93709,Fresno,CA
93710,Fresno,CA
93711,Fresno,CA
93714,Fresno,CA
93715,Fresno,CA
93716,Fresno,CA
93717,Fresno,CA
93718,Fresno,CA
93720,Fresno,CA
93721,Fresno,CA
93722,Fresno,CA
93723,Fresno,CA
93724,Fresno,CA
93725,Fresno,CA
93726,Fresno,CA
93727,Fresno,CA
93728,Fresno,CA
93729,Fresno,CA
93730,Fresno,CA
93740,Fresno,CA
93741,Fresno,CA
93744,Fresno,CA
93745,Fresno,CA
93750,Fresno,CA
93755,Fresno,CA
93760,Fresno,CA
93761,Fresno,CA
93764,Fresno,CA
93765,Fresno,CA
93771,Fresno,CA
93772,Fresno,CA
93774,Fresno,CA
93775,Fresno,CA
93776,Fresno,CA
93777,Fresno,CA
93778,Fresno,CA
93779,Fresno,CA
93780,Fresno,CA
93784,Fresno,CA
93786,Fresno,CA
93790,Fresno,CA
93791,Fresno,CA
93792,Fresno,CA
93793,Fresno,CA
93794,Fresno,CA
93844,Fresno,CA
93888,Fresno,CA
93626,Friant,CA
90631,Fullerton,CA
92801,Fullerton,CA
92806,Fullerton,CA
92821,Fullerton,CA
92831,Fullerton,CA
92832,Fullerton,CA
92833,Fullerton,CA
92834,Fullerton,CA
92835,Fullerton,CA
92836,Fullerton,CA
92837,Fullerton,CA
92838,Fullerton,CA
95403,Fulton,CA
95439,Fulton,CA
95220,Galt,CA
95632,Galt,CA
95542,Garberville,CA
90680,"Garden Grove",CA
92683,"Garden Grove",CA
92703,"Garden Grove",CA
92804,"Garden Grove",CA
92840,"Garden Grove",CA
92841,"Garden Grove",CA
92842,"Garden Grove",CA
92843,"Garden Grove",CA
92844,"Garden Grove",CA
92845,"Garden Grove",CA
92846,"Garden Grove",CA
95633,"Garden Valley",CA
90247,Gardena,CA
90248,Gardena,CA
90249,Gardena,CA
95543,Gasquet,CA
96034,Gazelle,CA
95633,Georgetown,CA
95634,Georgetown,CA
95635,Georgetown,CA
96035,Gerber,CA
95441,Geyserville,CA
95020,Gilroy,CA
95021,Gilroy,CA
95442,"Glen Ellen",CA
95232,Glencoe,CA
91020,Glendale,CA
91021,Glendale,CA
91046,Glendale,CA
91201,Glendale,CA
91202,Glendale,CA
91203,Glendale,CA
91204,Glendale,CA
91205,Glendale,CA
91206,Glendale,CA
91207,Glendale,CA
91208,Glendale,CA
91209,Glendale,CA
91210,Glendale,CA
91214,Glendale,CA
91221,Glendale,CA
91222,Glendale,CA
91224,Glendale,CA
91226,Glendale,CA
91702,Glendora,CA
91740,Glendora,CA
91741,Glendora,CA
95443,Glenhaven,CA
95943,Glenn,CA
93226,Glennville,CA
95717,"Gold Run",CA
93106,Goleta,CA
93111,Goleta,CA
93116,Goleta,CA
93117,Goleta,CA
93118,Goleta,CA
93199,Goleta,CA
93926,Gonzales,CA
95936,"Goodyears Bar",CA
95944,"Goodyears Bar",CA
93291,Goshen,CA
91344,"Granada Hills",CA
92313,"Grand Terrace",CA
92324,"Grand Terrace",CA
95650,"Granite Bay",CA
95746,"Granite Bay",CA
95945,"Grass Valley",CA
95949,"Grass Valley",CA
95444,Graton,CA
95472,Graton,CA
92341,"Green Valley Lake",CA
94904,Greenbrae,CA
93307,Greenfield,CA
93927,Greenfield,CA
96037,Greenview,CA
95947,Greenville,CA
95635,Greenwood,CA
96038,Grenada,CA
96064,Grenada,CA
95948,Gridley,CA
95950,Grimes,CA
95636,"Grizzly Flats",CA
95305,Groveland,CA
95321,Groveland,CA
93433,"Grover Beach",CA
93445,"Grover Beach",CA
93483,"Grover Beach",CA
93434,Guadalupe,CA
93455,Guadalupe,CA
95445,Gualala,CA
91743,Guasti,CA
91931,Guatay,CA
95446,Guerneville,CA
95471,Guerneville,CA
95637,Guinda,CA
95322,Gustine,CA
91715,"Hacienda Heights",CA
91716,"Hacienda Heights",CA
91745,"Hacienda Heights",CA
91748,"Hacienda Heights",CA
94018,"Half Moon Bay",CA
94019,"Half Moon Bay",CA
95951,"Hamilton City",CA
93230,Hanford,CA
93232,Hanford,CA
96039,"Happy Camp",CA
96049,"Happy Camp",CA
90710,"Harbor City",CA
93435,Harmony,CA
96016,"Hat Creek",CA
96040,"Hat Creek",CA
95233,"Hathaway Pines",CA
90716,"Hawaiian Gardens",CA
90250,Hawthorne,CA
90251,Hawthorne,CA
90260,Hawthorne,CA
90303,Hawthorne,CA
90304,Hawthorne,CA
90310,Hawthorne,CA
96041,Hayfork,CA
94540,Hayward,CA
94541,Hayward,CA
94542,Hayward,CA
94543,Hayward,CA
94544,Hayward,CA
94545,Hayward,CA
94546,Hayward,CA
94552,Hayward,CA
94557,Hayward,CA
94580,Hayward,CA
94586,Hayward,CA
94587,Hayward,CA
94588,Hayward,CA
95448,Healdsburg,CA
92249,Heber,CA
92342,Helendale,CA
93627,Helm,CA
92543,Hemet,CA
92544,Hemet,CA
92545,Hemet,CA
92546,Hemet,CA
92582,Hemet,CA
95632,Herald,CA
95638,Herald,CA
94547,Hercules,CA
94553,Hercules,CA
94564,Hercules,CA
94572,Hercules,CA
96113,Herlong,CA
90254,"Hermosa Beach",CA
90267,"Hermosa Beach",CA
92308,Hesperia,CA
92340,Hesperia,CA
92344,Hesperia,CA
92345,Hesperia,CA
92392,Hesperia,CA
95323,Hickman,CA
95461,"Hidden Valley Lake",CA
95467,"Hidden Valley Lake",CA
92346,Highland,CA
92359,Highland,CA
92404,Highland,CA
92410,Highland,CA
95324,Hilmar,CA
92347,Hinkley,CA
95023,Hollister,CA
95024,Hollister,CA
95234,Holt,CA
92250,Holtville,CA
95026,"Holy City",CA
92545,Homeland,CA
92548,Homeland,CA
96141,Homewood,CA
95545,Honeydew,CA
95639,Hood,CA
95546,Hoopa,CA
95449,Hopland,CA
96044,Hornbrook,CA
95325,Hornitos,CA
95338,Hornitos,CA
95326,Hughson,CA
93628,Hume,CA
90742,"Huntington Beach",CA
92605,"Huntington Beach",CA
92615,"Huntington Beach",CA
92646,"Huntington Beach",CA
92647,"Huntington Beach",CA
92648,"Huntington Beach",CA
92649,"Huntington Beach",CA
90001,"Huntington Park",CA
90058,"Huntington Park",CA
90255,"Huntington Park",CA
93234,Huron,CA
96046,Hyampom,CA
95540,Hydesville,CA
95547,Hydesville,CA
92549,Idyllwild,CA
96047,Igo,CA
92243,Imperial,CA
92251,Imperial,CA
91932,"Imperial Beach",CA
91933,"Imperial Beach",CA
92154,"Imperial Beach",CA
93526,Independence,CA
92210,"Indian Wells",CA
92211,"Indian Wells",CA
92201,Indio,CA
92203,Indio,CA
92211,Indio,CA
92236,Indio,CA
92241,Indio,CA
92253,Indio,CA
90301,Inglewood,CA
90302,Inglewood,CA
90303,Inglewood,CA
90304,Inglewood,CA
90305,Inglewood,CA
90306,Inglewood,CA
90307,Inglewood,CA
90308,Inglewood,CA
90309,Inglewood,CA
90312,Inglewood,CA
90313,Inglewood,CA
90397,Inglewood,CA
90398,Inglewood,CA
94937,Inverness,CA
94956,Inverness,CA
93527,Inyokern,CA
95640,Ione,CA
92602,Irvine,CA
92603,Irvine,CA
92604,Irvine,CA
92606,Irvine,CA
92610,Irvine,CA
92612,Irvine,CA
92614,Irvine,CA
92616,Irvine,CA
92617,Irvine,CA
92618,Irvine,CA
92619,Irvine,CA
92620,Irvine,CA
92623,Irvine,CA
92637,Irvine,CA
92650,Irvine,CA
92660,Irvine,CA
92676,Irvine,CA
92697,Irvine,CA
92698,Irvine,CA
92709,Irvine,CA
95641,Isleton,CA
93235,Ivanhoe,CA
95642,Jackson,CA
91934,Jacumba,CA
95327,Jamestown,CA
95370,Jamestown,CA
91935,Jamul,CA
91978,Jamul,CA
92019,Jamul,CA
92022,Jamul,CA
96114,Janesville,CA
95450,Jenner,CA
95465,Jenner,CA
93528,Johannesburg,CA
93928,Jolon,CA
92252,"Joshua Tree",CA
92036,Julian,CA
96048,"Junction City",CA
96093,"Junction City",CA
93529,"June Lake",CA
93237,Kaweah,CA
93530,Keeler,CA
93545,Keeler,CA
93518,Keene,CA
93531,Keene,CA
95451,Kelseyville,CA
94904,Kentfield,CA
94957,Kentfield,CA
95442,Kenwood,CA
95452,Kenwood,CA
93630,Kerman,CA
93238,Kernville,CA
93285,Kernville,CA
93239,"Kettleman City",CA
95307,Keyes,CA
95326,Keyes,CA
95328,Keyes,CA
95382,Keyes,CA
93930,"King City",CA
96143,"Kings Beach",CA
93633,"Kings Canyon National Pk",CA
93631,Kingsburg,CA
95646,Kirkwood,CA
95666,Kirkwood,CA
96120,Kirkwood,CA
95644,"Kit Carson",CA
95548,Klamath,CA
96050,"Klamath River",CA
95549,Kneeland,CA
95645,"Knights Landing",CA
94513,Knightsen,CA
94548,Knightsen,CA
94561,Knightsen,CA
95550,Korbel,CA
95720,Kyburz,CA
91011,"La Canada Flintridge",CA
91214,"La Crescenta",CA
95329,"La Grange",CA
90631,"La Habra",CA
90632,"La Habra",CA
90633,"La Habra",CA
94020,"La Honda",CA
92037,"La Jolla",CA
91941,"La Mesa",CA
91942,"La Mesa",CA
91943,"La Mesa",CA
91944,"La Mesa",CA
90637,"La Mirada",CA
90638,"La Mirada",CA
90639,"La Mirada",CA
90623,"La Palma",CA
91744,"La Puente",CA
91746,"La Puente",CA
91747,"La Puente",CA
91749,"La Puente",CA
92202,"La Quinta",CA
92247,"La Quinta",CA
92248,"La Quinta",CA
92253,"La Quinta",CA
92274,"La Quinta",CA
91750,"La Verne",CA
92675,"Ladera Ranch",CA
92688,"Ladera Ranch",CA
92692,"Ladera Ranch",CA
92694,"Ladera Ranch",CA
94549,Lafayette,CA
94556,Lafayette,CA
94563,Lafayette,CA
94595,Lafayette,CA
92637,"Laguna Beach",CA
92651,"Laguna Beach",CA
92652,"Laguna Beach",CA
92677,"Laguna Beach",CA
92609,"Laguna Hills",CA
92653,"Laguna Hills",CA
92656,"Laguna Hills",CA
92607,"Laguna Niguel",CA
92653,"Laguna Niguel",CA
92656,"Laguna Niguel",CA
92677,"Laguna Niguel",CA
94938,Lagunitas,CA
92317,"Lake Arrowhead",CA
92321,"Lake Arrowhead",CA
92326,"Lake Arrowhead",CA
92352,"Lake Arrowhead",CA
92378,"Lake Arrowhead",CA
92385,"Lake Arrowhead",CA
92391,"Lake Arrowhead",CA
96115,"Lake City",CA
92530,"Lake Elsinore",CA
92531,"Lake Elsinore",CA
92532,"Lake Elsinore",CA
92570,"Lake Elsinore",CA
92584,"Lake Elsinore",CA
92587,"Lake Elsinore",CA
92595,"Lake Elsinore",CA
92883,"Lake Elsinore",CA
92610,"Lake Forest",CA
92618,"Lake Forest",CA
92630,"Lake Forest",CA
92676,"Lake Forest",CA
92679,"Lake Forest",CA
92691,"Lake Forest",CA
93532,"Lake Hughes",CA
93536,"Lake Hughes",CA
93205,"Lake Isabella",CA
93240,"Lake Isabella",CA
93285,"Lake Isabella",CA
96051,Lakehead,CA
95453,Lakeport,CA
93634,Lakeshore,CA
92021,Lakeside,CA
92040,Lakeside,CA
90712,Lakewood,CA
90713,Lakewood,CA
90714,Lakewood,CA
90715,Lakewood,CA
93241,Lamont,CA
93307,Lamont,CA
93534,Lancaster,CA
93535,Lancaster,CA
93536,Lancaster,CA
93539,Lancaster,CA
93551,Lancaster,CA
93584,Lancaster,CA
93586,Lancaster,CA
92285,Landers,CA
94901,Larkspur,CA
94904,Larkspur,CA
94914,Larkspur,CA
94939,Larkspur,CA
94941,Larkspur,CA
94977,Larkspur,CA
95231,Lathrop,CA
95304,Lathrop,CA
95330,Lathrop,CA
93242,Laton,CA
90250,Lawndale,CA
90260,Lawndale,CA
95454,Laytonville,CA
95333,"Le Grand",CA
93225,Lebec,CA
93243,Lebec,CA
93541,"Lee Vining",CA
95585,Leggett,CA
93244,"Lemon Cove",CA
93286,"Lemon Cove",CA
91945,"Lemon Grove",CA
91946,"Lemon Grove",CA
92195,"Lemon Grove",CA
93245,Lemoore,CA
93246,Lemoore,CA
96024,Lewiston,CA
96052,Lewiston,CA
96116,Likely,CA
95648,Lincoln,CA
95650,Lincoln,CA
91947,"Lincoln Acres",CA
95236,Linden,CA
93247,Lindsay,CA
96117,Litchfield,CA
93542,"Little Lake",CA
95456,Littleriver,CA
93543,Littlerock,CA
95062,"Live Oak",CA
95065,"Live Oak",CA
95953,"Live Oak",CA
94550,Livermore,CA
94551,Livermore,CA
94588,Livermore,CA
95334,Livingston,CA
93544,Llano,CA
95237,Lockeford,CA
95240,Lockeford,CA
93426,Lockwood,CA
93932,Lockwood,CA
95240,Lodi,CA
95241,Lodi,CA
95242,Lodi,CA
95551,Loleta,CA
92318,"Loma Linda",CA
92324,"Loma Linda",CA
92350,"Loma Linda",CA
92354,"Loma Linda",CA
92357,"Loma Linda",CA
92373,"Loma Linda",CA
92374,"Loma Linda",CA
94021,"Loma Mar",CA
94060,"Loma Mar",CA
90717,Lomita,CA
93436,Lompoc,CA
93438,Lompoc,CA
93545,"Lone Pine",CA
95335,"Long Barn",CA
90711,"Long Beach",CA
90731,"Long Beach",CA
90740,"Long Beach",CA
90755,"Long Beach",CA
90801,"Long Beach",CA
90802,"Long Beach",CA
90803,"Long Beach",CA
90804,"Long Beach",CA
90805,"Long Beach",CA
90806,"Long Beach",CA
90807,"Long Beach",CA
90808,"Long Beach",CA
90809,"Long Beach",CA
90810,"Long Beach",CA
90813,"Long Beach",CA
90814,"Long Beach",CA
90815,"Long Beach",CA
90822,"Long Beach",CA
90831,"Long Beach",CA
90832,"Long Beach",CA
90840,"Long Beach",CA
90842,"Long Beach",CA
90844,"Long Beach",CA
90845,"Long Beach",CA
90846,"Long Beach",CA
90847,"Long Beach",CA
90848,"Long Beach",CA
90853,"Long Beach",CA
90888,"Long Beach",CA
90895,"Long Beach",CA
90899,"Long Beach",CA
96054,Lookout,CA
95650,Loomis,CA
95677,Loomis,CA
90720,"Los Alamitos",CA
90721,"Los Alamitos",CA
93440,"Los Alamos",CA
93455,"Los Alamos",CA
94022,"Los Altos",CA
94023,"Los Altos",CA
94024,"Los Altos",CA
90001,"Los Angeles",CA
90002,"Los Angeles",CA
90003,"Los Angeles",CA
90004,"Los Angeles",CA
90005,"Los Angeles",CA
90006,"Los Angeles",CA
90007,"Los Angeles",CA
90008,"Los Angeles",CA
90009,"Los Angeles",CA
90010,"Los Angeles",CA
90011,"Los Angeles",CA
90012,"Los Angeles",CA
90013,"Los Angeles",CA
90014,"Los Angeles",CA
90015,"Los Angeles",CA
90016,"Los Angeles",CA
90017,"Los Angeles",CA
90018,"Los Angeles",CA
90019,"Los Angeles",CA
90020,"Los Angeles",CA
90021,"Los Angeles",CA
90023,"Los Angeles",CA
90024,"Los Angeles",CA
90025,"Los Angeles",CA
90026,"Los Angeles",CA
90027,"Los Angeles",CA
90028,"Los Angeles",CA
90029,"Los Angeles",CA
90030,"Los Angeles",CA
90031,"Los Angeles",CA
90032,"Los Angeles",CA
90033,"Los Angeles",CA
90034,"Los Angeles",CA
90035,"Los Angeles",CA
90036,"Los Angeles",CA
90037,"Los Angeles",CA
90038,"Los Angeles",CA
90039,"Los Angeles",CA
90041,"Los Angeles",CA
90042,"Los Angeles",CA
90043,"Los Angeles",CA
90044,"Los Angeles",CA
90045,"Los Angeles",CA
90046,"Los Angeles",CA
90047,"Los Angeles",CA
90048,"Los Angeles",CA
90049,"Los Angeles",CA
90050,"Los Angeles",CA
90051,"Los Angeles",CA
90053,"Los Angeles",CA
90054,"Los Angeles",CA
90055,"Los Angeles",CA
90056,"Los Angeles",CA
90057,"Los Angeles",CA
90058,"Los Angeles",CA
90059,"Los Angeles",CA
90060,"Los Angeles",CA
90061,"Los Angeles",CA
90062,"Los Angeles",CA
90063,"Los Angeles",CA
90064,"Los Angeles",CA
90065,"Los Angeles",CA
90066,"Los Angeles",CA
90067,"Los Angeles",CA
90068,"Los Angeles",CA
90069,"Los Angeles",CA
90070,"Los Angeles",CA
90071,"Los Angeles",CA
90072,"Los Angeles",CA
90073,"Los Angeles",CA
90074,"Los Angeles",CA
90075,"Los Angeles",CA
90076,"Los Angeles",CA
90077,"Los Angeles",CA
90078,"Los Angeles",CA
90080,"Los Angeles",CA
90081,"Los Angeles",CA
90082,"Los Angeles",CA
90083,"Los Angeles",CA
90084,"Los Angeles",CA
90086,"Los Angeles",CA
90087,"Los Angeles",CA
90088,"Los Angeles",CA
90089,"Los Angeles",CA
90090,"Los Angeles",CA
90093,"Los Angeles",CA
90094,"Los Angeles",CA
90095,"Los Angeles",CA
90189,"Los Angeles",CA
90210,"Los Angeles",CA
90213,"Los Angeles",CA
90230,"Los Angeles",CA
90232,"Los Angeles",CA
90247,"Los Angeles",CA
90248,"Los Angeles",CA
90272,"Los Angeles",CA
90290,"Los Angeles",CA
90291,"Los Angeles",CA
90292,"Los Angeles",CA
90293,"Los Angeles",CA
90294,"Los Angeles",CA
90295,"Los Angeles",CA
90296,"Los Angeles",CA
90402,"Los Angeles",CA
90501,"Los Angeles",CA
90502,"Los Angeles",CA
90710,"Los Angeles",CA
90717,"Los Angeles",CA
90731,"Los Angeles",CA
90732,"Los Angeles",CA
90734,"Los Angeles",CA
90744,"Los Angeles",CA
90748,"Los Angeles",CA
90810,"Los Angeles",CA
90813,"Los Angeles",CA
91040,"Los Angeles",CA
91041,"Los Angeles",CA
91042,"Los Angeles",CA
91043,"Los Angeles",CA
91214,"Los Angeles",CA
91225,"Los Angeles",CA
91303,"Los Angeles",CA
91304,"Los Angeles",CA
91305,"Los Angeles",CA
91306,"Los Angeles",CA
91307,"Los Angeles",CA
91308,"Los Angeles",CA
91309,"Los Angeles",CA
91311,"Los Angeles",CA
91313,"Los Angeles",CA
91316,"Los Angeles",CA
91324,"Los Angeles",CA
91325,"Los Angeles",CA
91326,"Los Angeles",CA
91327,"Los Angeles",CA
91328,"Los Angeles",CA
91329,"Los Angeles",CA
91330,"Los Angeles",CA
91331,"Los Angeles",CA
91333,"Los Angeles",CA
91334,"Los Angeles",CA
91335,"Los Angeles",CA
91337,"Los Angeles",CA
91340,"Los Angeles",CA
91342,"Los Angeles",CA
91343,"Los Angeles",CA
91344,"Los Angeles",CA
91345,"Los Angeles",CA
91346,"Los Angeles",CA
91352,"Los Angeles",CA
91353,"Los Angeles",CA
91356,"Los Angeles",CA
91357,"Los Angeles",CA
91364,"Los Angeles",CA
91365,"Los Angeles",CA
91367,"Los Angeles",CA
91371,"Los Angeles",CA
91388,"Los Angeles",CA
91393,"Los Angeles",CA
91394,"Los Angeles",CA
91395,"Los Angeles",CA
91396,"Los Angeles",CA
91399,"Los Angeles",CA
91401,"Los Angeles",CA
91402,"Los Angeles",CA
91403,"Los Angeles",CA
91404,"Los Angeles",CA
91405,"Los Angeles",CA
91406,"Los Angeles",CA
91407,"Los Angeles",CA
91408,"Los Angeles",CA
91409,"Los Angeles",CA
91410,"Los Angeles",CA
91411,"Los Angeles",CA
91412,"Los Angeles",CA
91413,"Los Angeles",CA
91416,"Los Angeles",CA
91423,"Los Angeles",CA
91426,"Los Angeles",CA
91436,"Los Angeles",CA
91470,"Los Angeles",CA
91482,"Los Angeles",CA
91495,"Los Angeles",CA
91496,"Los Angeles",CA
91497,"Los Angeles",CA
91499,"Los Angeles",CA
91504,"Los Angeles",CA
91521,"Los Angeles",CA
91522,"Los Angeles",CA
91601,"Los Angeles",CA
91602,"Los Angeles",CA
91603,"Los Angeles",CA
91604,"Los Angeles",CA
91605,"Los Angeles",CA
91606,"Los Angeles",CA
91607,"Los Angeles",CA
91608,"Los Angeles",CA
91609,"Los Angeles",CA
91610,"Los Angeles",CA
91611,"Los Angeles",CA
91612,"Los Angeles",CA
91614,"Los Angeles",CA
91615,"Los Angeles",CA
91616,"Los Angeles",CA
91617,"Los Angeles",CA
91618,"Los Angeles",CA
93635,"Los Banos",CA
95030,"Los Gatos",CA
95032,"Los Gatos",CA
95036,"Los Gatos",CA
96055,"Los Molinos",CA
93441,"Los Olivos",CA
93463,"Los Olivos",CA
93402,"Los Osos",CA
93412,"Los Osos",CA
93249,"Lost Hills",CA
95651,Lotus,CA
95457,"Lower Lake",CA
96118,Loyalton,CA
95458,Lucerne,CA
92308,"Lucerne Valley",CA
92356,"Lucerne Valley",CA
92338,Ludlow,CA
90002,Lynwood,CA
90262,Lynwood,CA
95296,Lyoth,CA
92358,"Lytle Creek",CA
96058,Macdoel,CA
95552,"Mad River",CA
96119,Madeline,CA
93637,Madera,CA
93638,Madera,CA
93639,Madera,CA
95627,Madison,CA
95653,Madison,CA
95954,Magalia,CA
90264,Malibu,CA
90265,Malibu,CA
90290,Malibu,CA
93546,"Mammoth Lakes",CA
95459,Manchester,CA
90266,"Manhattan Beach",CA
95330,Manteca,CA
95336,Manteca,CA
95337,Manteca,CA
95366,Manteca,CA
96059,Manton,CA
92508,"March Air Force Base",CA
93252,Maricopa,CA
93933,Marina,CA
93955,Marina,CA
90292,"Marina Del Rey",CA
95338,Mariposa,CA
96120,Markleeville,CA
94940,Marshall,CA
95642,Martell,CA
95654,Martell,CA
95685,Martell,CA
94553,Martinez,CA
95901,Marysville,CA
95655,Mather,CA
95827,Mather,CA
95955,Maxwell,CA
90270,Maywood,CA
93250,"Mc Farland",CA
93251,"Mc Kittrick",CA
96028,Mcarthur,CA
96056,Mcarthur,CA
95652,Mcclellan,CA
96057,Mccloud,CA
95519,Mckinleyville,CA
95570,Mckinleyville,CA
95956,"Meadow Valley",CA
95971,"Meadow Valley",CA
95722,"Meadow Vista",CA
92254,Mecca,CA
92274,Mecca,CA
95460,Mendocino,CA
93640,Mendota,CA
92532,Menifee,CA
92564,Menifee,CA
92584,Menifee,CA
92585,Menifee,CA
92586,Menifee,CA
92587,Menifee,CA
92596,Menifee,CA
94025,"Menlo Park",CA
92359,Mentone,CA
92374,Mentone,CA
95340,Merced,CA
95341,Merced,CA
95348,Merced,CA
95957,Meridian,CA
95346,"Mi Wuk Village",CA
95461,Middletown,CA
95338,Midpines,CA
95345,Midpines,CA
92655,"Midway City",CA
96121,Milford,CA
96061,"Mill Creek",CA
94941,"Mill Valley",CA
94942,"Mill Valley",CA
94030,Millbrae,CA
96062,Millville,CA
96073,Millville,CA
95035,Milpitas,CA
96061,Mineral,CA
96063,Mineral,CA
91752,"Mira Loma",CA
93603,Miramonte,CA
95553,Miranda,CA
93436,"Mission Hills",CA
92653,"Mission Viejo",CA
92675,"Mission Viejo",CA
92677,"Mission Viejo",CA
92679,"Mission Viejo",CA
92690,"Mission Viejo",CA
92691,"Mission Viejo",CA
92692,"Mission Viejo",CA
92694,"Mission Viejo",CA
95347,Moccasin,CA
95313,Modesto,CA
95350,Modesto,CA
95351,Modesto,CA
95352,Modesto,CA
95353,Modesto,CA
95354,Modesto,CA
95355,Modesto,CA
95356,Modesto,CA
95357,Modesto,CA
95358,Modesto,CA
95368,Modesto,CA
95397,Modesto,CA
93501,Mojave,CA
93502,Mojave,CA
95245,"Mokelumne Hill",CA
93642,"Mono Hot Springs",CA
91016,Monrovia,CA
91066,Monrovia,CA
91185,Monrovia,CA
96064,Montague,CA
94037,Montara,CA
91762,Montclair,CA
91763,Montclair,CA
95462,"Monte Rio",CA
90640,Montebello,CA
93940,Monterey,CA
93942,Monterey,CA
93943,Monterey,CA
93944,Monterey,CA
93955,Monterey,CA
91754,"Monterey Park",CA
91755,"Monterey Park",CA
91756,"Monterey Park",CA
96065,"Montgomery Creek",CA
96084,"Montgomery Creek",CA
91020,Montrose,CA
93020,Moorpark,CA
93021,Moorpark,CA
94549,Moraga,CA
94556,Moraga,CA
94563,Moraga,CA
94575,Moraga,CA
92551,"Moreno Valley",CA
92552,"Moreno Valley",CA
92553,"Moreno Valley",CA
92555,"Moreno Valley",CA
92556,"Moreno Valley",CA
92557,"Moreno Valley",CA
92571,"Moreno Valley",CA
95037,"Morgan Hill",CA
95046,"Morgan Hill",CA
92256,"Morongo Valley",CA
93405,"Morro Bay",CA
93442,"Morro Bay",CA
93443,"Morro Bay",CA
94019,"Moss Beach",CA
94038,"Moss Beach",CA
95039,"Moss Landing",CA
95656,"Mount Aukum",CA
95140,"Mount Hamilton",CA
95018,"Mount Hermon",CA
95041,"Mount Hermon",CA
95066,"Mount Hermon",CA
91948,"Mount Laguna",CA
96067,"Mount Shasta",CA
91023,"Mount Wilson",CA
92561,"Mountain Center",CA
92366,"Mountain Pass",CA
95245,"Mountain Ranch",CA
95246,"Mountain Ranch",CA
94035,"Mountain View",CA
94039,"Mountain View",CA
94040,"Mountain View",CA
94041,"Mountain View",CA
94042,"Mountain View",CA
94043,"Mountain View",CA
94087,"Mountain View",CA
94303,"Mountain View",CA
94553,"Mountain View",CA
91759,"Mt Baldy",CA
95247,Murphys,CA
92562,Murrieta,CA
92563,Murrieta,CA
92584,Murrieta,CA
95554,"Myers Flat",CA
94558,Napa,CA
94559,Napa,CA
94581,Napa,CA
91902,"National City",CA
91947,"National City",CA
91950,"National City",CA
91951,"National City",CA
92136,"National City",CA
95463,Navarro,CA
92363,Needles,CA
95958,Nelson,CA
95959,"Nevada City",CA
95042,"New Almaden",CA
93254,"New Cuyama",CA
94560,Newark,CA
92338,"Newberry Springs",CA
91319,"Newbury Park",CA
95658,Newcastle,CA
91321,Newhall,CA
95360,Newman,CA
92625,"Newport Beach",CA
92651,"Newport Beach",CA
92657,"Newport Beach",CA
92658,"Newport Beach",CA
92659,"Newport Beach",CA
92660,"Newport Beach",CA
92661,"Newport Beach",CA
92662,"Newport Beach",CA
92663,"Newport Beach",CA
92657,"Newport Coast",CA
94946,Nicasio,CA
95464,Nice,CA
95485,Nice,CA
95659,Nicolaus,CA
92257,Niland,CA
93420,Nipomo,CA
93444,Nipomo,CA
92364,Nipton,CA
91752,Norco,CA
92860,Norco,CA
92880,Norco,CA
95724,Norden,CA
93643,"North Fork",CA
95660,"North Highlands",CA
95821,"North Highlands",CA
95841,"North Highlands",CA
95842,"North Highlands",CA
91343,"North Hills",CA
91601,"North Hollywood",CA
92258,"North Palm Springs",CA
95960,"North San Juan",CA
91324,Northridge,CA
90650,Norwalk,CA
90651,Norwalk,CA
90652,Norwalk,CA
90659,Norwalk,CA
94945,Novato,CA
94947,Novato,CA
94948,Novato,CA
94949,Novato,CA
94998,Novato,CA
96068,Nubieber,CA
92567,Nuevo,CA
92585,Nuevo,CA
93645,"O Neals",CA
91377,"Oak Park",CA
96069,"Oak Run",CA
93022,"Oak View",CA
93023,"Oak View",CA
95361,Oakdale,CA
93644,Oakhurst,CA
94502,Oakland,CA
94601,Oakland,CA
94602,Oakland,CA
94603,Oakland,CA
94604,Oakland,CA
94605,Oakland,CA
94606,Oakland,CA
94607,Oakland,CA
94608,Oakland,CA
94609,Oakland,CA
94610,Oakland,CA
94611,Oakland,CA
94612,Oakland,CA
94613,Oakland,CA
94614,Oakland,CA
94618,Oakland,CA
94619,Oakland,CA
94620,Oakland,CA
94621,Oakland,CA
94622,Oakland,CA
94623,Oakland,CA
94624,Oakland,CA
94625,Oakland,CA
94649,Oakland,CA
94659,Oakland,CA
94660,Oakland,CA
94661,Oakland,CA
94666,Oakland,CA
94704,Oakland,CA
94705,Oakland,CA
94561,Oakley,CA
94558,Oakville,CA
94562,Oakville,CA
96070,Obrien,CA
95419,Occidental,CA
95465,Occidental,CA
95472,Occidental,CA
93420,Oceano,CA
93445,Oceano,CA
93475,Oceano,CA
92003,Oceanside,CA
92028,Oceanside,CA
92049,Oceanside,CA
92051,Oceanside,CA
92052,Oceanside,CA
92054,Oceanside,CA
92056,Oceanside,CA
92057,Oceanside,CA
92058,Oceanside,CA
92068,Oceanside,CA
92259,Ocotillo,CA
93023,Ojai,CA
93024,Ojai,CA
93549,Olancha,CA
96040,"Old Station",CA
96071,"Old Station",CA
94950,Olema,CA
95901,Olivehurst,CA
95961,Olivehurst,CA
96146,"Olympic Valley",CA
91743,Ontario,CA
91761,Ontario,CA
91762,Ontario,CA
91764,Ontario,CA
91798,Ontario,CA
93255,Onyx,CA
93283,Onyx,CA
92602,Orange,CA
92676,Orange,CA
92705,Orange,CA
92782,Orange,CA
92806,Orange,CA
92807,Orange,CA
92856,Orange,CA
92857,Orange,CA
92859,Orange,CA
92865,Orange,CA
92866,Orange,CA
92867,Orange,CA
92868,Orange,CA
92869,Orange,CA
93646,"Orange Cove",CA
95610,Orangevale,CA
95628,Orangevale,CA
95662,Orangevale,CA
95962,"Oregon House",CA
95555,Orick,CA
94549,Orinda,CA
94563,Orinda,CA
95963,Orland,CA
95556,Orleans,CA
92368,"Oro Grande",CA
93615,Orosi,CA
93647,Orosi,CA
95940,Oroville,CA
95965,Oroville,CA
95966,Oroville,CA
95968,Oroville,CA
93001,Oxnard,CA
93030,Oxnard,CA
93031,Oxnard,CA
93032,Oxnard,CA
93033,Oxnard,CA
93034,Oxnard,CA
93035,Oxnard,CA
93036,Oxnard,CA
93041,Oxnard,CA
93950,"Pacific Grove",CA
90272,"Pacific Palisades",CA
94044,Pacifica,CA
91331,Pacoima,CA
95043,Paicines,CA
92059,Pala,CA
92082,Pala,CA
95965,Palermo,CA
95966,Palermo,CA
95968,Palermo,CA
92211,"Palm Desert",CA
92255,"Palm Desert",CA
92260,"Palm Desert",CA
92261,"Palm Desert",CA
92234,"Palm Springs",CA
92240,"Palm Springs",CA
92241,"Palm Springs",CA
92258,"Palm Springs",CA
92262,"Palm Springs",CA
92263,"Palm Springs",CA
92264,"Palm Springs",CA
92282,"Palm Springs",CA
91390,Palmdale,CA
93535,Palmdale,CA
93543,Palmdale,CA
93550,Palmdale,CA
93551,Palmdale,CA
93552,Palmdale,CA
93590,Palmdale,CA
93591,Palmdale,CA
93599,Palmdale,CA
94022,"Palo Alto",CA
94301,"Palo Alto",CA
94302,"Palo Alto",CA
94303,"Palo Alto",CA
94304,"Palo Alto",CA
94306,"Palo Alto",CA
95014,"Palo Alto",CA
95033,"Palo Alto",CA
96003,"Palo Cedro",CA
96073,"Palo Cedro",CA
92266,"Palo Verde",CA
92060,"Palomar Mountain",CA
90274,"Palos Verdes Peninsula",CA
91402,"Panorama City",CA
93514,Paradise,CA
95965,Paradise,CA
95967,Paradise,CA
95969,Paradise,CA
90262,Paramount,CA
90723,Paramount,CA
92267,"Parker Dam",CA
93648,Parlier,CA
93662,Parlier,CA
91001,Pasadena,CA
91101,Pasadena,CA
91102,Pasadena,CA
91103,Pasadena,CA
91104,Pasadena,CA
91105,Pasadena,CA
91106,Pasadena,CA
91107,Pasadena,CA
91108,Pasadena,CA
91109,Pasadena,CA
91110,Pasadena,CA
91114,Pasadena,CA
91115,Pasadena,CA
91116,Pasadena,CA
91117,Pasadena,CA
91121,Pasadena,CA
91123,Pasadena,CA
91124,Pasadena,CA
91129,Pasadena,CA
91131,Pasadena,CA
91182,Pasadena,CA
91184,Pasadena,CA
91188,Pasadena,CA
91191,Pasadena,CA
91199,Pasadena,CA
96029,Paskenta,CA
96074,Paskenta,CA
93446,"Paso Robles",CA
95363,Patterson,CA
92369,Patton,CA
92061,"Pauma Valley",CA
96075,"Paynes Creek",CA
96080,"Paynes Creek",CA
93553,Pearblossom,CA
93953,"Pebble Beach",CA
95946,"Penn Valley",CA
94931,Penngrove,CA
94951,Penngrove,CA
95650,Penryn,CA
95663,Penryn,CA
92570,Perris,CA
92571,Perris,CA
92572,Perris,CA
92585,Perris,CA
92586,Perris,CA
92587,Perris,CA
92599,Perris,CA
94060,Pescadero,CA
94952,Petaluma,CA
94953,Petaluma,CA
94954,Petaluma,CA
94955,Petaluma,CA
94975,Petaluma,CA
95558,Petrolia,CA
92329,Phelan,CA
92344,Phelan,CA
92371,Phelan,CA
92392,Phelan,CA
95559,Phillipsville,CA
95415,Philo,CA
95466,Philo,CA
90601,"Pico Rivera",CA
90606,"Pico Rivera",CA
90640,"Pico Rivera",CA
90660,"Pico Rivera",CA
90661,"Pico Rivera",CA
90662,"Pico Rivera",CA
94610,Piedmont,CA
94611,Piedmont,CA
94618,Piedmont,CA
93649,Piedra,CA
95587,Piercy,CA
95664,"Pilot Hill",CA
95642,"Pine Grove",CA
95665,"Pine Grove",CA
91962,"Pine Valley",CA
95364,Pinecrest,CA
94547,Pinole,CA
94564,Pinole,CA
94801,Pinole,CA
94803,Pinole,CA
94806,Pinole,CA
92372,"Pinon Hills",CA
95666,Pioneer,CA
95689,Pioneer,CA
92268,Pioneertown,CA
93015,Piru,CA
93040,Piru,CA
93448,"Pismo Beach",CA
93449,"Pismo Beach",CA
94509,Pittsburg,CA
94565,Pittsburg,CA
93256,Pixley,CA
92870,Placentia,CA
92871,Placentia,CA
95667,Placerville,CA
95333,Planada,CA
95365,Planada,CA
96076,Platina,CA
90291,"Playa Del Rey",CA
95668,"Pleasant Grove",CA
94523,"Pleasant Hill",CA
94566,Pleasanton,CA
94568,Pleasanton,CA
94588,Pleasanton,CA
95669,Plymouth,CA
95468,"Point Arena",CA
93041,"Point Mugu Nawc",CA
94956,"Point Reyes Station",CA
95709,"Pollock Pines",CA
95726,"Pollock Pines",CA
91750,Pomona,CA
91765,Pomona,CA
91766,Pomona,CA
91767,Pomona,CA
91768,Pomona,CA
91769,Pomona,CA
91789,Pomona,CA
91799,Pomona,CA
94567,"Pope Valley",CA
94569,"Port Costa",CA
93041,"Port Hueneme",CA
93043,"Port Hueneme",CA
93044,"Port Hueneme",CA
93043,"Port Hueneme Cbc Base",CA
93257,Porterville,CA
96122,Portola,CA
94028,"Portola Valley",CA
93260,Posey,CA
91963,Potrero,CA
91990,Potrero,CA
95469,"Potter Valley",CA
92025,Poway,CA
92064,Poway,CA
92065,Poway,CA
92074,Poway,CA
93651,Prather,CA
95970,Princeton,CA
96035,Proberta,CA
96078,Proberta,CA
96080,Proberta,CA
95971,Quincy,CA
95914,Rackerby,CA
95966,Rackerby,CA
95245,"Rail Road Flat",CA
95246,"Rail Road Flat",CA
95248,"Rail Road Flat",CA
93652,Raisin,CA
92065,Ramona,CA
92066,Ranchita,CA
95655,"Rancho Cordova",CA
95670,"Rancho Cordova",CA
95683,"Rancho Cordova",CA
95741,"Rancho Cordova",CA
95742,"Rancho Cordova",CA
95827,"Rancho Cordova",CA
91701,"Rancho Cucamonga",CA
91729,"Rancho Cucamonga",CA
91730,"Rancho Cucamonga",CA
91737,"Rancho Cucamonga",CA
91739,"Rancho Cucamonga",CA
91784,"Rancho Cucamonga",CA
92336,"Rancho Cucamonga",CA
92235,"Rancho Mirage",CA
92270,"Rancho Mirage",CA
90275,"Rancho Palos Verdes",CA
92067,"Rancho Santa Fe",CA
92678,"Rancho Santa Margarita",CA
92679,"Rancho Santa Margarita",CA
92688,"Rancho Santa Margarita",CA
92692,"Rancho Santa Margarita",CA
93554,Randsburg,CA
96123,Ravendale,CA
93653,Raymond,CA
96080,"Red Bluff",CA
93558,"Red Mountain",CA
95569,Redcrest,CA
96001,Redding,CA
96002,Redding,CA
96003,Redding,CA
96007,Redding,CA
96019,Redding,CA
96049,Redding,CA
96099,Redding,CA
92346,Redlands,CA
92359,Redlands,CA
92373,Redlands,CA
92374,Redlands,CA
92375,Redlands,CA
92399,Redlands,CA
90277,"Redondo Beach",CA
90278,"Redondo Beach",CA
95560,Redway,CA
94061,"Redwood City",CA
94062,"Redwood City",CA
94063,"Redwood City",CA
94064,"Redwood City",CA
94065,"Redwood City",CA
95026,"Redwood Estates",CA
95470,"Redwood Valley",CA
93654,Reedley,CA
95671,Represa,CA
95672,Rescue,CA
91335,Reseda,CA
92316,Rialto,CA
92336,Rialto,CA
92376,Rialto,CA
92377,Rialto,CA
92410,Rialto,CA
92509,Rialto,CA
93261,Richgrove,CA
94530,Richmond,CA
94801,Richmond,CA
94802,Richmond,CA
94803,Richmond,CA
94804,Richmond,CA
94805,Richmond,CA
94806,Richmond,CA
94807,Richmond,CA
94808,Richmond,CA
94820,Richmond,CA
94850,Richmond,CA
95965,Richvale,CA
95974,Richvale,CA
93555,Ridgecrest,CA
93556,Ridgecrest,CA
92378,Rimforest,CA
95540,"Rio Dell",CA
95562,"Rio Dell",CA
95673,"Rio Linda",CA
95471,"Rio Nido",CA
95674,"Rio Oso",CA
94571,"Rio Vista",CA
95366,Ripon,CA
95675,"River Pines",CA
95357,Riverbank,CA
95361,Riverbank,CA
95367,Riverbank,CA
93656,Riverdale,CA
92501,Riverside,CA
92502,Riverside,CA
92503,Riverside,CA
92504,Riverside,CA
92505,Riverside,CA
92506,Riverside,CA
92507,Riverside,CA
92508,Riverside,CA
92509,Riverside,CA
92513,Riverside,CA
92514,Riverside,CA
92515,Riverside,CA
92516,Riverside,CA
92517,Riverside,CA
92521,Riverside,CA
92522,Riverside,CA
92557,Riverside,CA
95645,Robbins,CA
95676,Robbins,CA
95650,Rocklin,CA
95677,Rocklin,CA
95765,Rocklin,CA
94525,Rodeo,CA
94572,Rodeo,CA
94927,"Rohnert Park",CA
94928,"Rohnert Park",CA
95407,"Rohnert Park",CA
93501,Rosamond,CA
93560,Rosamond,CA
90640,Rosemead,CA
91770,Rosemead,CA
91771,Rosemead,CA
91772,Rosemead,CA
91776,Rosemead,CA
95661,Roseville,CA
95668,Roseville,CA
95677,Roseville,CA
95678,Roseville,CA
95746,Roseville,CA
95747,Roseville,CA
95765,Roseville,CA
94904,Ross,CA
94957,Ross,CA
94960,Ross,CA
94979,Ross,CA
95959,"Rough And Ready",CA
95975,"Rough And Ready",CA
96084,"Round Mountain",CA
91748,"Rowland Heights",CA
91789,"Rowland Heights",CA
95679,Rumsey,CA
92382,"Running Springs",CA
94558,Rutherford,CA
94573,Rutherford,CA
94574,Rutherford,CA
95680,Ryde,CA
94203,Sacramento,CA
94204,Sacramento,CA
94205,Sacramento,CA
94207,Sacramento,CA
94208,Sacramento,CA
94209,Sacramento,CA
94211,Sacramento,CA
94229,Sacramento,CA
94230,Sacramento,CA
94232,Sacramento,CA
94234,Sacramento,CA
94235,Sacramento,CA
94236,Sacramento,CA
94237,Sacramento,CA
94239,Sacramento,CA
94240,Sacramento,CA
94244,Sacramento,CA
94245,Sacramento,CA
94246,Sacramento,CA
94247,Sacramento,CA
94248,Sacramento,CA
94249,Sacramento,CA
94250,Sacramento,CA
94252,Sacramento,CA
94254,Sacramento,CA
94256,Sacramento,CA
94257,Sacramento,CA
94258,Sacramento,CA
94259,Sacramento,CA
94261,Sacramento,CA
94262,Sacramento,CA
94263,Sacramento,CA
94267,Sacramento,CA
94268,Sacramento,CA
94269,Sacramento,CA
94271,Sacramento,CA
94273,Sacramento,CA
94274,Sacramento,CA
94277,Sacramento,CA
94278,Sacramento,CA
94279,Sacramento,CA
94280,Sacramento,CA
94282,Sacramento,CA
94283,Sacramento,CA
94284,Sacramento,CA
94285,Sacramento,CA
94286,Sacramento,CA
94287,Sacramento,CA
94288,Sacramento,CA
94289,Sacramento,CA
94290,Sacramento,CA
94291,Sacramento,CA
94293,Sacramento,CA
94294,Sacramento,CA
94295,Sacramento,CA
94296,Sacramento,CA
94297,Sacramento,CA
94298,Sacramento,CA
94299,Sacramento,CA
95660,Sacramento,CA
95673,Sacramento,CA
95758,Sacramento,CA
95811,Sacramento,CA
95812,Sacramento,CA
95813,Sacramento,CA
95814,Sacramento,CA
95815,Sacramento,CA
95816,Sacramento,CA
95817,Sacramento,CA
95818,Sacramento,CA
95819,Sacramento,CA
95820,Sacramento,CA
95821,Sacramento,CA
95822,Sacramento,CA
95823,Sacramento,CA
95824,Sacramento,CA
95825,Sacramento,CA
95826,Sacramento,CA
95828,Sacramento,CA
95829,Sacramento,CA
95831,Sacramento,CA
95832,Sacramento,CA
95833,Sacramento,CA
95834,Sacramento,CA
95835,Sacramento,CA
95838,Sacramento,CA
95840,Sacramento,CA
95841,Sacramento,CA
95851,Sacramento,CA
95852,Sacramento,CA
95853,Sacramento,CA
95864,Sacramento,CA
95867,Sacramento,CA
95894,Sacramento,CA
94574,"Saint Helena",CA
95356,Salida,CA
95358,Salida,CA
95368,Salida,CA
93901,Salinas,CA
93902,Salinas,CA
93905,Salinas,CA
93906,Salinas,CA
93907,Salinas,CA
93908,Salinas,CA
93912,Salinas,CA
93915,Salinas,CA
92274,"Salton City",CA
92275,"Salton City",CA
95563,Salyer,CA
95564,Samoa,CA
95249,"San Andreas",CA
94960,"San Anselmo",CA
94978,"San Anselmo",CA
93450,"San Ardo",CA
92324,"San Bernardino",CA
92346,"San Bernardino",CA
92354,"San Bernardino",CA
92369,"San Bernardino",CA
92376,"San Bernardino",CA
92401,"San Bernardino",CA
92404,"San Bernardino",CA
92405,"San Bernardino",CA
92406,"San Bernardino",CA
92407,"San Bernardino",CA
92408,"San Bernardino",CA
92410,"San Bernardino",CA
92411,"San Bernardino",CA
92412,"San Bernardino",CA
92413,"San Bernardino",CA
92414,"San Bernardino",CA
92415,"San Bernardino",CA
92418,"San Bernardino",CA
92423,"San Bernardino",CA
92424,"San Bernardino",CA
92427,"San Bernardino",CA
94030,"San Bruno",CA
94066,"San Bruno",CA
94070,"San Carlos",CA
92624,"San Clemente",CA
92672,"San Clemente",CA
92673,"San Clemente",CA
92674,"San Clemente",CA
91911,"San Diego",CA
91915,"San Diego",CA
91942,"San Diego",CA
92014,"San Diego",CA
92025,"San Diego",CA
92027,"San Diego",CA
92029,"San Diego",CA
92037,"San Diego",CA
92038,"San Diego",CA
92039,"San Diego",CA
92064,"San Diego",CA
92065,"San Diego",CA
92067,"San Diego",CA
92071,"San Diego",CA
92092,"San Diego",CA
92093,"San Diego",CA
92101,"San Diego",CA
92102,"San Diego",CA
92103,"San Diego",CA
92104,"San Diego",CA
92105,"San Diego",CA
92106,"San Diego",CA
92107,"San Diego",CA
92108,"San Diego",CA
92109,"San Diego",CA
92110,"San Diego",CA
92111,"San Diego",CA
92112,"San Diego",CA
92113,"San Diego",CA
92114,"San Diego",CA
92115,"San Diego",CA
92116,"San Diego",CA
92117,"San Diego",CA
92118,"San Diego",CA
92119,"San Diego",CA
92120,"San Diego",CA
92121,"San Diego",CA
92122,"San Diego",CA
92123,"San Diego",CA
92124,"San Diego",CA
92126,"San Diego",CA
92127,"San Diego",CA
92128,"San Diego",CA
92129,"San Diego",CA
92130,"San Diego",CA
92131,"San Diego",CA
92132,"San Diego",CA
92134,"San Diego",CA
92137,"San Diego",CA
92138,"San Diego",CA
92139,"San Diego",CA
92140,"San Diego",CA
92142,"San Diego",CA
92143,"San Diego",CA
92145,"San Diego",CA
92147,"San Diego",CA
92149,"San Diego",CA
92150,"San Diego",CA
92152,"San Diego",CA
92153,"San Diego",CA
92154,"San Diego",CA
92158,"San Diego",CA
92159,"San Diego",CA
92160,"San Diego",CA
92161,"San Diego",CA
92162,"San Diego",CA
92163,"San Diego",CA
92164,"San Diego",CA
92165,"San Diego",CA
92166,"San Diego",CA
92167,"San Diego",CA
92168,"San Diego",CA
92169,"San Diego",CA
92170,"San Diego",CA
92171,"San Diego",CA
92172,"San Diego",CA
92173,"San Diego",CA
92174,"San Diego",CA
92175,"San Diego",CA
92176,"San Diego",CA
92177,"San Diego",CA
92179,"San Diego",CA
92182,"San Diego",CA
92184,"San Diego",CA
92186,"San Diego",CA
92187,"San Diego",CA
92190,"San Diego",CA
92191,"San Diego",CA
92192,"San Diego",CA
92193,"San Diego",CA
92196,"San Diego",CA
92198,"San Diego",CA
91724,"San Dimas",CA
91750,"San Dimas",CA
91768,"San Dimas",CA
91773,"San Dimas",CA
91340,"San Fernando",CA
91341,"San Fernando",CA
91342,"San Fernando",CA
91392,"San Fernando",CA
94102,"San Francisco",CA
94103,"San Francisco",CA
94104,"San Francisco",CA
94105,"San Francisco",CA
94106,"San Francisco",CA
94107,"San Francisco",CA
94108,"San Francisco",CA
94109,"San Francisco",CA
94110,"San Francisco",CA
94111,"San Francisco",CA
94112,"San Francisco",CA
94114,"San Francisco",CA
94115,"San Francisco",CA
94116,"San Francisco",CA
94117,"San Francisco",CA
94118,"San Francisco",CA
94119,"San Francisco",CA
94120,"San Francisco",CA
94121,"San Francisco",CA
94122,"San Francisco",CA
94123,"San Francisco",CA
94124,"San Francisco",CA
94125,"San Francisco",CA
94126,"San Francisco",CA
94127,"San Francisco",CA
94129,"San Francisco",CA
94130,"San Francisco",CA
94131,"San Francisco",CA
94132,"San Francisco",CA
94133,"San Francisco",CA
94134,"San Francisco",CA
94135,"San Francisco",CA
94136,"San Francisco",CA
94137,"San Francisco",CA
94138,"San Francisco",CA
94139,"San Francisco",CA
94140,"San Francisco",CA
94141,"San Francisco",CA
94142,"San Francisco",CA
94143,"San Francisco",CA
94144,"San Francisco",CA
94145,"San Francisco",CA
94146,"San Francisco",CA
94147,"San Francisco",CA
94150,"San Francisco",CA
94151,"San Francisco",CA
94152,"San Francisco",CA
94153,"San Francisco",CA
94154,"San Francisco",CA
94155,"San Francisco",CA
94156,"San Francisco",CA
94158,"San Francisco",CA
94159,"San Francisco",CA
94160,"San Francisco",CA
94161,"San Francisco",CA
94162,"San Francisco",CA
94163,"San Francisco",CA
94164,"San Francisco",CA
94171,"San Francisco",CA
94172,"San Francisco",CA
94175,"San Francisco",CA
94177,"San Francisco",CA
94188,"San Francisco",CA
94199,"San Francisco",CA
91775,"San Gabriel",CA
91776,"San Gabriel",CA
91778,"San Gabriel",CA
94963,"San Geronimo",CA
94973,"San Geronimo",CA
94074,"San Gregorio",CA
92544,"San Jacinto",CA
92567,"San Jacinto",CA
92581,"San Jacinto",CA
92582,"San Jacinto",CA
92583,"San Jacinto",CA
93660,"San Joaquin",CA
95002,"San Jose",CA
95008,"San Jose",CA
95013,"San Jose",CA
95014,"San Jose",CA
95032,"San Jose",CA
95037,"San Jose",CA
95050,"San Jose",CA
95053,"San Jose",CA
95070,"San Jose",CA
95103,"San Jose",CA
95106,"San Jose",CA
95109,"San Jose",CA
95110,"San Jose",CA
95111,"San Jose",CA
95112,"San Jose",CA
95113,"San Jose",CA
95115,"San Jose",CA
95116,"San Jose",CA
95117,"San Jose",CA
95118,"San Jose",CA
95119,"San Jose",CA
95120,"San Jose",CA
95121,"San Jose",CA
95122,"San Jose",CA
95123,"San Jose",CA
95124,"San Jose",CA
95125,"San Jose",CA
95126,"San Jose",CA
95127,"San Jose",CA
95128,"San Jose",CA
95129,"San Jose",CA
95130,"San Jose",CA
95131,"San Jose",CA
95132,"San Jose",CA
95133,"San Jose",CA
95134,"San Jose",CA
95135,"San Jose",CA
95136,"San Jose",CA
95138,"San Jose",CA
95139,"San Jose",CA
95140,"San Jose",CA
95148,"San Jose",CA
95150,"San Jose",CA
95151,"San Jose",CA
95152,"San Jose",CA
95153,"San Jose",CA
95154,"San Jose",CA
95155,"San Jose",CA
95156,"San Jose",CA
95157,"San Jose",CA
95158,"San Jose",CA
95159,"San Jose",CA
95160,"San Jose",CA
95161,"San Jose",CA
95164,"San Jose",CA
95170,"San Jose",CA
95172,"San Jose",CA
95173,"San Jose",CA
95190,"San Jose",CA
95191,"San Jose",CA
95192,"San Jose",CA
95193,"San Jose",CA
95194,"San Jose",CA
95196,"San Jose",CA
95045,"San Juan Bautista",CA
92673,"San Juan Capistrano",CA
92675,"San Juan Capistrano",CA
92677,"San Juan Capistrano",CA
92693,"San Juan Capistrano",CA
94577,"San Leandro",CA
94578,"San Leandro",CA
94579,"San Leandro",CA
94541,"San Lorenzo",CA
94580,"San Lorenzo",CA
93954,"San Lucas",CA
93401,"San Luis Obispo",CA
93403,"San Luis Obispo",CA
93405,"San Luis Obispo",CA
93406,"San Luis Obispo",CA
92068,"San Luis Rey",CA
92009,"San Marcos",CA
92029,"San Marcos",CA
92069,"San Marcos",CA
92078,"San Marcos",CA
92079,"San Marcos",CA
92084,"San Marcos",CA
92096,"San Marcos",CA
91108,"San Marino",CA
91125,"San Marino",CA
91126,"San Marino",CA
95020,"San Martin",CA
95038,"San Martin",CA
95046,"San Martin",CA
94011,"San Mateo",CA
94401,"San Mateo",CA
94402,"San Mateo",CA
94403,"San Mateo",CA
94404,"San Mateo",CA
94497,"San Mateo",CA
93451,"San Miguel",CA
94596,"San Miguel",CA
94803,"San Pablo",CA
94805,"San Pablo",CA
94806,"San Pablo",CA
90731,"San Pedro",CA
94964,"San Quentin",CA
94901,"San Rafael",CA
94903,"San Rafael",CA
94912,"San Rafael",CA
94913,"San Rafael",CA
94915,"San Rafael",CA
94506,"San Ramon",CA
94582,"San Ramon",CA
94583,"San Ramon",CA
93452,"San Simeon",CA
92143,"San Ysidro",CA
93648,Sanger,CA
93657,Sanger,CA
92701,"Santa Ana",CA
92702,"Santa Ana",CA
92703,"Santa Ana",CA
92704,"Santa Ana",CA
92705,"Santa Ana",CA
92706,"Santa Ana",CA
92707,"Santa Ana",CA
92712,"Santa Ana",CA
92725,"Santa Ana",CA
92728,"Santa Ana",CA
92735,"Santa Ana",CA
93101,"Santa Barbara",CA
93102,"Santa Barbara",CA
93103,"Santa Barbara",CA
93105,"Santa Barbara",CA
93108,"Santa Barbara",CA
93109,"Santa Barbara",CA
93110,"Santa Barbara",CA
93117,"Santa Barbara",CA
93120,"Santa Barbara",CA
93121,"Santa Barbara",CA
93130,"Santa Barbara",CA
93140,"Santa Barbara",CA
93160,"Santa Barbara",CA
93190,"Santa Barbara",CA
95050,"Santa Clara",CA
95051,"Santa Clara",CA
95052,"Santa Clara",CA
95053,"Santa Clara",CA
95054,"Santa Clara",CA
95055,"Santa Clara",CA
95056,"Santa Clara",CA
95110,"Santa Clara",CA
95117,"Santa Clara",CA
91321,"Santa Clarita",CA
91322,"Santa Clarita",CA
91350,"Santa Clarita",CA
91351,"Santa Clarita",CA
91354,"Santa Clarita",CA
91355,"Santa Clarita",CA
91380,"Santa Clarita",CA
91381,"Santa Clarita",CA
91385,"Santa Clarita",CA
91387,"Santa Clarita",CA
91390,"Santa Clarita",CA
95060,"Santa Cruz",CA
95061,"Santa Cruz",CA
95062,"Santa Cruz",CA
95063,"Santa Cruz",CA
95064,"Santa Cruz",CA
95065,"Santa Cruz",CA
95067,"Santa Cruz",CA
90605,"Santa Fe Springs",CA
90606,"Santa Fe Springs",CA
90610,"Santa Fe Springs",CA
90650,"Santa Fe Springs",CA
90670,"Santa Fe Springs",CA
90671,"Santa Fe Springs",CA
93453,"Santa Margarita",CA
93454,"Santa Maria",CA
93455,"Santa Maria",CA
93456,"Santa Maria",CA
93458,"Santa Maria",CA
90401,"Santa Monica",CA
90402,"Santa Monica",CA
90403,"Santa Monica",CA
90404,"Santa Monica",CA
90405,"Santa Monica",CA
90406,"Santa Monica",CA
90407,"Santa Monica",CA
90408,"Santa Monica",CA
90409,"Santa Monica",CA
90410,"Santa Monica",CA
90411,"Santa Monica",CA
93060,"Santa Paula",CA
93061,"Santa Paula",CA
93661,"Santa Rita Park",CA
95401,"Santa Rosa",CA
95402,"Santa Rosa",CA
95403,"Santa Rosa",CA
95404,"Santa Rosa",CA
95405,"Santa Rosa",CA
95406,"Santa Rosa",CA
95407,"Santa Rosa",CA
95409,"Santa Rosa",CA
95472,"Santa Rosa",CA
93460,"Santa Ynez",CA
93463,"Santa Ynez",CA
92070,"Santa Ysabel",CA
92071,Santee,CA
92072,Santee,CA
95030,Saratoga,CA
95070,Saratoga,CA
95071,Saratoga,CA
94965,Sausalito,CA
94966,Sausalito,CA
95565,Scotia,CA
96085,"Scott Bar",CA
95066,"Scotts Valley",CA
90720,"Seal Beach",CA
90740,"Seal Beach",CA
90743,"Seal Beach",CA
92649,"Seal Beach",CA
93940,Seaside,CA
93955,Seaside,CA
95472,Sebastopol,CA
95473,Sebastopol,CA
92243,Seeley,CA
92273,Seeley,CA
96086,"Seiad Valley",CA
93662,Selma,CA
93262,"Sequoia National Park",CA
93206,Shafter,CA
93263,Shafter,CA
93308,Shafter,CA
93314,Shafter,CA
93461,Shandon,CA
96001,Shasta,CA
96087,Shasta,CA
96003,"Shasta Lake",CA
96019,"Shasta Lake",CA
96079,"Shasta Lake",CA
96089,"Shasta Lake",CA
93602,"Shaver Lake",CA
93664,"Shaver Lake",CA
95246,"Sheep Ranch",CA
95648,Sheridan,CA
95681,Sheridan,CA
91401,"Sherman Oaks",CA
95682,"Shingle Springs",CA
96088,Shingletown,CA
92384,Shoshone,CA
92389,Shoshone,CA
96125,"Sierra City",CA
91024,"Sierra Madre",CA
91025,"Sierra Madre",CA
96126,Sierraville,CA
90755,"Signal Hill",CA
92676,Silverado,CA
91362,"Simi Valley",CA
93021,"Simi Valley",CA
93062,"Simi Valley",CA
93063,"Simi Valley",CA
93064,"Simi Valley",CA
93065,"Simi Valley",CA
93094,"Simi Valley",CA
93099,"Simi Valley",CA
92385,Skyforest,CA
95683,Sloughhouse,CA
95977,Smartville,CA
95567,"Smith River",CA
95369,Snelling,CA
95728,"Soda Springs",CA
92014,"Solana Beach",CA
92075,"Solana Beach",CA
93960,Soledad,CA
93463,Solvang,CA
93464,Solvang,CA
95684,Somerset,CA
95568,"Somes Bar",CA
93066,Somis,CA
95476,Sonoma,CA
95370,Sonora,CA
95003,Soquel,CA
95073,Soquel,CA
95370,Soulsbyville,CA
95372,Soulsbyville,CA
95379,Soulsbyville,CA
95383,Soulsbyville,CA
93620,"South Dos Palos",CA
93665,"South Dos Palos",CA
91733,"South El Monte",CA
90280,"South Gate",CA
96150,"South Lake Tahoe",CA
96151,"South Lake Tahoe",CA
96152,"South Lake Tahoe",CA
96154,"South Lake Tahoe",CA
96155,"South Lake Tahoe",CA
96156,"South Lake Tahoe",CA
96157,"South Lake Tahoe",CA
96158,"South Lake Tahoe",CA
91030,"South Pasadena",CA
91031,"South Pasadena",CA
91189,"South Pasadena",CA
94080,"South San Francisco",CA
94083,"South San Francisco",CA
94128,"South San Francisco",CA
93962,Spreckels,CA
91941,"Spring Valley",CA
91945,"Spring Valley",CA
91976,"Spring Valley",CA
91977,"Spring Valley",CA
91978,"Spring Valley",CA
91979,"Spring Valley",CA
95423,"Spring Valley",CA
93265,Springville,CA
93641,"Squaw Valley",CA
93646,"Squaw Valley",CA
93675,"Squaw Valley",CA
95373,Standard,CA
96128,Standish,CA
94305,Stanford,CA
94309,Stanford,CA
90680,Stanton,CA
92804,Stanton,CA
92841,Stanton,CA
91381,"Stevenson Ranch",CA
95374,Stevinson,CA
95480,"Stewarts Point",CA
94970,"Stinson Beach",CA
95954,"Stirling City",CA
95978,"Stirling City",CA
95201,Stockton,CA
95202,Stockton,CA
95203,Stockton,CA
95204,Stockton,CA
95205,Stockton,CA
95206,Stockton,CA
95207,Stockton,CA
95208,Stockton,CA
95209,Stockton,CA
95210,Stockton,CA
95211,Stockton,CA
95212,Stockton,CA
95213,Stockton,CA
95215,Stockton,CA
95219,Stockton,CA
95231,Stockton,CA
95267,Stockton,CA
95269,Stockton,CA
95296,Stockton,CA
95297,Stockton,CA
95336,Stockton,CA
95979,Stonyford,CA
95915,Storrie,CA
95980,Storrie,CA
93266,Stratford,CA
93267,Strathmore,CA
94920,Strawberry,CA
94941,Strawberry,CA
95375,Strawberry,CA
95981,"Strawberry Valley",CA
91602,"Studio City",CA
92386,Sugarloaf,CA
94533,"Suisun City",CA
94534,"Suisun City",CA
94585,"Suisun City",CA
93618,Sultana,CA
93666,Sultana,CA
93013,Summerland,CA
93067,Summerland,CA
93108,Summerland,CA
92584,"Sun City",CA
91352,"Sun Valley",CA
91040,Sunland,CA
94043,Sunnyvale,CA
94085,Sunnyvale,CA
94086,Sunnyvale,CA
94087,Sunnyvale,CA
94088,Sunnyvale,CA
94089,Sunnyvale,CA
95002,Sunnyvale,CA
95014,Sunnyvale,CA
94539,Sunol,CA
94552,Sunol,CA
94566,Sunol,CA
94586,Sunol,CA
94588,Sunol,CA
90742,"Sunset Beach",CA
90743,Surfside,CA
96127,Susanville,CA
96130,Susanville,CA
95982,Sutter,CA
95685,"Sutter Creek",CA
91342,Sylmar,CA
93252,Taft,CA
93268,Taft,CA
96145,"Tahoe City",CA
96143,"Tahoe Vista",CA
96148,"Tahoe Vista",CA
96141,Tahoma,CA
96142,Tahoma,CA
95481,Talmage,CA
95482,Talmage,CA
91335,Tarzana,CA
95983,Taylorsville,CA
91980,Tecate,CA
92389,Tecopa,CA
93561,Tehachapi,CA
93581,Tehachapi,CA
96090,Tehama,CA
92028,Temecula,CA
92563,Temecula,CA
92589,Temecula,CA
92590,Temecula,CA
92591,Temecula,CA
92592,Temecula,CA
92593,Temecula,CA
92596,Temecula,CA
91007,"Temple City",CA
91775,"Temple City",CA
91776,"Temple City",CA
91780,"Temple City",CA
93422,Templeton,CA
93446,Templeton,CA
93465,Templeton,CA
96132,Termo,CA
93270,"Terra Bella",CA
95497,"The Sea Ranch",CA
92274,Thermal,CA
95632,Thornton,CA
95686,Thornton,CA
91319,"Thousand Oaks",CA
91320,"Thousand Oaks",CA
91358,"Thousand Oaks",CA
91359,"Thousand Oaks",CA
91360,"Thousand Oaks",CA
91361,"Thousand Oaks",CA
91362,"Thousand Oaks",CA
93012,"Thousand Oaks",CA
93021,"Thousand Oaks",CA
93065,"Thousand Oaks",CA
92211,"Thousand Palms",CA
92276,"Thousand Palms",CA
93237,"Three Rivers",CA
93271,"Three Rivers",CA
93272,Tipton,CA
93667,Tollhouse,CA
91602,"Toluca Lake",CA
94971,Tomales,CA
90265,Topanga,CA
90290,Topanga,CA
91302,Topanga,CA
91364,Topanga,CA
96133,Topaz,CA
90277,Torrance,CA
90278,Torrance,CA
90501,Torrance,CA
90503,Torrance,CA
90504,Torrance,CA
90505,Torrance,CA
90507,Torrance,CA
90508,Torrance,CA
90509,Torrance,CA
90510,Torrance,CA
92678,"Trabuco Canyon",CA
95304,Tracy,CA
95376,Tracy,CA
95377,Tracy,CA
95378,Tracy,CA
93668,Tranquillity,CA
93673,Traver,CA
94535,"Travis Afb",CA
95023,"Tres Pinos",CA
95075,"Tres Pinos",CA
95570,Trinidad,CA
96091,"Trinity Center",CA
93592,Trona,CA
96160,Truckee,CA
96161,Truckee,CA
96162,Truckee,CA
91042,Tujunga,CA
93274,Tulare,CA
93275,Tulare,CA
96134,Tulelake,CA
95379,Tuolumne,CA
93276,Tupman,CA
95316,Turlock,CA
95380,Turlock,CA
95381,Turlock,CA
95382,Turlock,CA
92602,Tustin,CA
92606,Tustin,CA
92705,Tustin,CA
92710,Tustin,CA
92780,Tustin,CA
92781,Tustin,CA
92782,Tustin,CA
95984,Twain,CA
95370,"Twain Harte",CA
95383,"Twain Harte",CA
92277,"Twentynine Palms",CA
92278,"Twentynine Palms",CA
95721,"Twin Bridges",CA
92391,"Twin Peaks",CA
95418,Ukiah,CA
95482,Ukiah,CA
94544,"Union City",CA
94587,"Union City",CA
91608,"Universal City",CA
91784,Upland,CA
91785,Upland,CA
91786,Upland,CA
95485,"Upper Lake",CA
94533,Vacaville,CA
95687,Vacaville,CA
95688,Vacaville,CA
95696,Vacaville,CA
91354,Valencia,CA
95222,Vallecito,CA
95251,Vallecito,CA
94534,Vallejo,CA
94589,Vallejo,CA
94590,Vallejo,CA
94591,Vallejo,CA
94592,Vallejo,CA
92027,"Valley Center",CA
92082,"Valley Center",CA
94922,"Valley Ford",CA
94952,"Valley Ford",CA
95252,"Valley Springs",CA
91601,"Valley Village",CA
93563,Valyermo,CA
91316,"Van Nuys",CA
90291,Venice,CA
93001,Ventura,CA
91046,"Verdugo City",CA
95385,Vernalis,CA
95240,Victor,CA
95253,Victor,CA
92301,Victorville,CA
92368,Victorville,CA
92392,Victorville,CA
92393,Victorville,CA
92394,Victorville,CA
92395,Victorville,CA
92280,Vidal,CA
95486,"Villa Grande",CA
92861,"Villa Park",CA
92863,"Villa Park",CA
92864,"Villa Park",CA
96092,Vina,CA
95487,Vineburg,CA
96135,Vinton,CA
93227,Visalia,CA
93277,Visalia,CA
93278,Visalia,CA
93279,Visalia,CA
93290,Visalia,CA
93291,Visalia,CA
93292,Visalia,CA
92056,Vista,CA
92081,Vista,CA
92083,Vista,CA
92084,Vista,CA
92085,Vista,CA
95665,Volcano,CA
95689,Volcano,CA
95252,Wallace,CA
95254,Wallace,CA
91724,Walnut,CA
91768,Walnut,CA
91788,Walnut,CA
91789,Walnut,CA
91795,Walnut,CA
94507,"Walnut Creek",CA
94518,"Walnut Creek",CA
94521,"Walnut Creek",CA
94529,"Walnut Creek",CA
94595,"Walnut Creek",CA
94596,"Walnut Creek",CA
94597,"Walnut Creek",CA
94598,"Walnut Creek",CA
95680,"Walnut Grove",CA
95690,"Walnut Grove",CA
92066,"Warner Springs",CA
93280,Wasco,CA
95959,Washington,CA
95986,Washington,CA
95386,Waterford,CA
95019,Watsonville,CA
95076,Watsonville,CA
95077,Watsonville,CA
93274,Waukena,CA
93282,Waukena,CA
96093,Weaverville,CA
96094,Weed,CA
95736,Weimar,CA
93240,Weldon,CA
93283,Weldon,CA
96136,Wendel,CA
95554,Weott,CA
95571,Weott,CA
91790,"West Covina",CA
91791,"West Covina",CA
91792,"West Covina",CA
91793,"West Covina",CA
91304,"West Hills",CA
90046,"West Hollywood",CA
90048,"West Hollywood",CA
90069,"West Hollywood",CA
95255,"West Point",CA
95605,"West Sacramento",CA
95618,"West Sacramento",CA
95620,"West Sacramento",CA
95691,"West Sacramento",CA
95798,"West Sacramento",CA
95799,"West Sacramento",CA
95899,"West Sacramento",CA
91361,"Westlake Village",CA
91362,"Westlake Village",CA
91363,"Westlake Village",CA
95363,Westley,CA
95387,Westley,CA
92683,Westminster,CA
92684,Westminster,CA
92685,Westminster,CA
92281,Westmorland,CA
95488,Westport,CA
96137,Westwood,CA
95681,Wheatland,CA
95692,Wheatland,CA
96095,Whiskeytown,CA
92282,"White Water",CA
95589,Whitethorn,CA
96096,Whitmore,CA
90601,Whittier,CA
90602,Whittier,CA
90603,Whittier,CA
90604,Whittier,CA
90605,Whittier,CA
90606,Whittier,CA
90607,Whittier,CA
90608,Whittier,CA
90609,Whittier,CA
90612,Whittier,CA
91733,Whittier,CA
91745,Whittier,CA
92530,Wildomar,CA
92562,Wildomar,CA
92584,Wildomar,CA
92595,Wildomar,CA
95987,Williams,CA
95490,Willits,CA
95573,"Willow Creek",CA
95988,Willows,CA
90744,Wilmington,CA
95257,Wilseyville,CA
95693,Wilton,CA
92545,Winchester,CA
92596,Winchester,CA
95403,Windsor,CA
95436,Windsor,CA
95448,Windsor,CA
95492,Windsor,CA
91306,Winnetka,CA
92283,Winterhaven,CA
95694,Winters,CA
95312,Winton,CA
95388,Winton,CA
93669,Wishon,CA
95493,"Witter Springs",CA
93285,"Wofford Heights",CA
94973,Woodacre,CA
95258,Woodbridge,CA
93286,Woodlake,CA
95695,Woodland,CA
95776,Woodland,CA
91302,"Woodland Hills",CA
93287,Woody,CA
92371,Wrightwood,CA
92397,Wrightwood,CA
92398,Yermo,CA
93292,Yettem,CA
93615,Yettem,CA
93670,Yettem,CA
95695,Yolo,CA
95697,Yolo,CA
92807,"Yorba Linda",CA
92808,"Yorba Linda",CA
92885,"Yorba Linda",CA
92886,"Yorba Linda",CA
92887,"Yorba Linda",CA
95494,Yorkville,CA
95389,"Yosemite National Park",CA
94599,Yountville,CA
96097,Yreka,CA
95991,"Yuba City",CA
95992,"Yuba City",CA
95993,"Yuba City",CA
92359,Yucaipa,CA
92373,Yucaipa,CA
92374,Yucaipa,CA
92399,Yucaipa,CA
92252,"Yucca Valley",CA
92284,"Yucca Valley",CA
92286,"Yucca Valley",CA
95698,Zamora,CA
95595,Zenia,CA
94549,"Acalanes Ridge",CA
94597,"Acalanes Ridge",CA
91390,"Agua Dulce",CA
95354,Airport,CA
94553,"Alhambra Valley",CA
95688,Allendale,CA
93219,Allensworth,CA
95923,Almanor,CA
90249,"Alondra Park",CA
90250,"Alondra Park",CA
90260,"Alondra Park",CA
90506,"Alondra Park",CA
96120,"Alpine Village",CA
95949,"Alta Sierra",CA
94941,Alto,CA
95127,"Alum Rock",CA
95019,Amesti,CA
95076,Amesti,CA
95445,"Anchor Bay",CA
95221,Angels,CA
95222,Angels,CA
95003,"Aptos Hills-larkin Valley",CA
95076,"Aptos Hills-larkin Valley",CA
95608,Arden-arcade,CA
95821,Arden-arcade,CA
95825,Arden-arcade,CA
95841,Arden-arcade,CA
95860,Arden-arcade,CA
95864,Arden-arcade,CA
95865,Arden-arcade,CA
95866,Arden-arcade,CA
95887,Arden-arcade,CA
94541,Ashland,CA
94578,Ashland,CA
94580,Ashland,CA
93546,"Aspen Springs",CA
95614,"Auburn Lake Trails",CA
95205,August,CA
90601,"Avocado Heights",CA
91746,"Avocado Heights",CA
93463,Ballard,CA
94520,"Bay Point",CA
94565,"Bay Point",CA
94806,Bayview,CA
95503,Bayview,CA
95340,"Bear Creek",CA
95223,"Bear Valley",CA
95338,"Bear Valley",CA
93531,"Bear Valley Springs",CA
93561,"Bear Valley Springs",CA
91307,"Bell Canyon",CA
94920,Belvedere,CA
94965,Belvedere,CA
95542,Benbow,CA
96080,Bend,CA
92203,"Bermuda Dunes",CA
95531,Bertsch-oceanview,CA
95570,"Big Lagoon",CA
92242,"Big River",CA
94506,Blackhawk,CA
93444,Blacklake,CA
94945,"Black Point-green Point",CA
96103,Blairsden,CA
94952,Bloomfield,CA
92242,Bluewater,CA
92257,"Bombay Beach",CA
93636,"Bonadelle Ranchos-madera Ranchos",CA
95060,"Bonny Doon",CA
95338,Bootjack,CA
93907,Boronda,CA
92020,Bostonia,CA
92021,Bostonia,CA
93725,Bowles,CA
91008,Bradbury,CA
95358,"Bret Harte",CA
94015,Broadmoor,CA
95490,Brooktrails,CA
95644,Buckhorn,CA
95666,Buckhorn,CA
95321,"Buck Meadows",CA
95956,"Bucks Lake",CA
95640,"Buena Vista",CA
95928,"Butte Creek Canyon",CA
95954,"Butte Creek Canyon",CA
95969,"Butte Creek Canyon",CA
95942,"Butte Meadows",CA
95965,"Butte Valley",CA
95969,"Butte Valley",CA
95351,Bystrom,CA
96101,"California Pines",CA
93420,Callender,CA
93725,Calwa,CA
95640,"Camanche North Shore",CA
95640,"Camanche Village",CA
95124,"Cambrian Park",CA
95672,"Cameron Park",CA
95682,"Cameron Park",CA
94506,"Camino Tassajara",CA
92055,"Camp Pendleton North",CA
92058,"Camp Pendleton North",CA
92058,"Camp Pendleton South",CA
92532,"Canyon Lake",CA
92587,"Canyon Lake",CA
95984,Caribou,CA
93921,Carmel-by-the-sea,CA
93923,Carmel-by-the-sea,CA
93922,"Carmel Valley Village",CA
93923,"Carmel Valley Village",CA
93924,"Carmel Valley Village",CA
94923,Carmet,CA
96094,Carrick,CA
93549,Cartago,CA
91320,"Casa Conejo",CA
91941,"Casa De Oro-mount Helix",CA
91977,"Casa De Oro-mount Helix",CA
92019,"Casa De Oro-mount Helix",CA
92020,"Casa De Oro-mount Helix",CA
94507,"Castle Hill",CA
94595,"Castle Hill",CA
93208,"Cedar Slope",CA
93657,Centerville,CA
93514,Chalfant,CA
95919,Challenge-brownsville,CA
95925,Challenge-brownsville,CA
95966,Challenge-brownsville,CA
93035,"Channel Islands Beach",CA
91722,"Charter Oak",CA
91724,"Charter Oak",CA
95965,Cherokee,CA
93263,"Cherokee Strip",CA
94541,Cherryland,CA
92223,"Cherry Valley",CA
92399,"Cherry Valley",CA
96105,Chilcoot-vinton,CA
96135,Chilcoot-vinton,CA
93555,"China Lake Acres",CA
91702,Citrus,CA
91722,Citrus,CA
91740,Citrus,CA
95638,Clay,CA
96137,"Clear Creek",CA
95451,"Clearlake Riviera",CA
95457,"Clearlake Riviera",CA
95437,Cleone,CA
94520,Clyde,CA
96091,"Coffee Creek",CA
95973,Cohasset,CA
95335,"Cold Springs",CA
95667,"Cold Springs",CA
95912,"College City",CA
95220,Collierville,CA
95632,Collierville,CA
94014,Colma,CA
94080,Colma,CA
90022,Commerce,CA
90023,Commerce,CA
90040,Commerce,CA
90091,Commerce,CA
90102,Commerce,CA
90103,Commerce,CA
95965,Concow,CA
94597,"Contra Costa Centre",CA
94598,"Contra Costa Centre",CA
92882,Coronita,CA
95003,Corralitos,CA
95076,Corralitos,CA
92679,"Coto De Caza",CA
95204,"Country Club",CA
95358,Cowan,CA
92019,Crest,CA
92021,Crest,CA
96103,C-road,CA
96106,C-road,CA
96103,Cromberg,CA
93546,"Crowley Lake",CA
90096,Cudahy,CA
90201,Cudahy,CA
93254,Cuyama,CA
96101,"Daphnedale Park",CA
95003,"Day Valley",CA
95076,"Day Valley",CA
90045,"Del Aire",CA
90250,"Del Aire",CA
90304,"Del Aire",CA
93618,"Delft Colony",CA
96122,Delleker,CA
93953,"Del Monte Forest",CA
93940,"Del Rey Oaks",CA
95356,"Del Rio",CA
93224,"Derby Acres",CA
92241,"Desert Edge",CA
92211,"Desert Palms",CA
92274,"Desert Shores",CA
93551,"Desert View Highlands",CA
95363,"Diablo Grande",CA
94505,"Discovery Bay",CA
94513,"Discovery Bay",CA
93514,"Dixon Lane-meadow Creek",CA
95220,Dogtown,CA
95632,Dogtown,CA
96145,"Dollar Point",CA
95223,Dorrington,CA
93620,"Dos Palos Y",CA
93268,"Dustin Acres",CA
95127,"East Foothills",CA
92543,"East Hemet",CA
92544,"East Hemet",CA
90022,"East Los Angeles",CA
90023,"East Los Angeles",CA
90063,"East Los Angeles",CA
95659,"East Nicolaus",CA
95674,"East Nicolaus",CA
95361,"East Oakdale",CA
93706,Easton,CA
93725,Easton,CA
93647,"East Orosi",CA
94303,"East Palo Alto",CA
91107,"East Pasadena",CA
93257,"East Porterville",CA
95971,"East Quincy",CA
90221,"East Rancho Dominguez",CA
94805,"East Richmond Heights",CA
91118,"East San Gabriel",CA
91775,"East San Gabriel",CA
96137,"East Shore",CA
95370,"East Sonora",CA
93274,"East Tulare Villa",CA
91752,Eastvale,CA
92860,Eastvale,CA
92880,Eastvale,CA
90604,"East Whittier",CA
96094,Edgewood,CA
93203,"Edmundson Acres",CA
93401,Edna,CA
93523,"Edwards Afb",CA
93524,"Edwards Afb",CA
93532,"Elizabeth Lake",CA
93551,"Elizabeth Lake",CA
93907,Elkhorn,CA
95012,Elkhorn,CA
95039,Elkhorn,CA
95076,Elkhorn,CA
93446,"El Paso De Robles (paso Robles)",CA
93447,"El Paso De Robles (paso Robles)",CA
93247,"El Rancho",CA
93036,"El Rio",CA
94062,"Emerald Lake Hills",CA
92040,"Eucalyptus Hills",CA
92067,"Fairbanks Ranch",CA
92127,"Fairbanks Ranch",CA
95564,Fairhaven,CA
93610,Fairmead,CA
93637,Fairmead,CA
93638,Fairmead,CA
94541,Fairview,CA
94542,Fairview,CA
95476,"Fetters Hot Springs-agua Caliente",CA
95519,Fieldbrook,CA
90001,Florence-graham,CA
90002,Florence-graham,CA
90052,Florence-graham,CA
90255,Florence-graham,CA
95624,Florin,CA
95823,Florin,CA
95828,Florin,CA
95660,"Foothill Farms",CA
95841,"Foothill Farms",CA
95842,"Foothill Farms",CA
93268,"Ford City",CA
95247,"Forest Meadows",CA
93720,"Fort Washington",CA
94404,"Foster City",CA
95348,Franklin,CA
95757,Franklin,CA
95832,Freeport,CA
92563,"French Valley",CA
92596,"French Valley",CA
95128,Fruitdale,CA
95820,"Fruitridge Pocket",CA
93307,"Fuller Acres",CA
92328,"Furnace Creek",CA
95215,"Garden Acres",CA
93422,"Garden Farms",CA
93454,Garey,CA
92240,Garnet,CA
92241,Garnet,CA
93561,"Golden Hills",CA
96106,"Gold Mountain",CA
96122,"Gold Mountain",CA
95670,"Gold River",CA
92570,"Good Hope",CA
96103,Graeagle,CA
93230,Grangeville,CA
92019,"Granite Hills",CA
92021,"Granite Hills",CA
95959,Graniteville,CA
95363,Grayson,CA
95311,"Greeley Hill",CA
95321,"Greeley Hill",CA
93312,Greenacres,CA
92545,"Green Acres",CA
92596,"Green Acres",CA
95971,Greenhorn,CA
91390,"Green Valley",CA
94534,"Green Valley",CA
96137,"Hamilton Branch",CA
91901,"Harbison Canyon",CA
92019,"Harbison Canyon",CA
92021,"Harbison Canyon",CA
93230,Hardwick,CA
93603,Hartland,CA
95688,Hartley,CA
91384,"Hasley Canyon",CA
91302,"Hidden Hills",CA
92026,"Hidden Meadows",CA
92324,Highgrove,CA
92507,Highgrove,CA
92557,Highgrove,CA
94402,"Highlands-baywood Park",CA
94010,Hillsborough,CA
95324,Hilmar-irwin,CA
95531,Hiouchi,CA
93230,"Home Garden",CA
92503,"Home Gardens",CA
92879,"Home Gardens",CA
92284,"Homestead Valley",CA
92285,"Homestead Valley",CA
93592,"Homewood Canyon",CA
95966,Honcut,CA
95503,"Humboldt Hill",CA
95537,"Humboldt Hill",CA
93260,Idlewild,CA
92549,"Idyllwild-pine Cove",CA
92561,"Idyllwild-pine Cove",CA
95934,"Indian Falls",CA
95502,Indianola,CA
95503,Indianola,CA
95524,Indianola,CA
92241,"Indio Hills",CA
90601,Industry,CA
91714,Industry,CA
91732,Industry,CA
91744,Industry,CA
91745,Industry,CA
91746,Industry,CA
91748,Industry,CA
91765,Industry,CA
91789,Industry,CA
95076,Interlaken,CA
96122,"Iron Horse",CA
91009,Irwindale,CA
91010,Irwindale,CA
91702,Irwindale,CA
91706,Irwindale,CA
93107,"Isla Vista",CA
93117,"Isla Vista",CA
96130,Johnstonville,CA
96103,Johnsville,CA
91752,"Jurupa Valley",CA
92501,"Jurupa Valley",CA
92505,"Jurupa Valley",CA
92509,"Jurupa Valley",CA
92519,"Jurupa Valley",CA
92860,"Jurupa Valley",CA
95971,Keddie,CA
95966,"Kelly Ridge",CA
95205,Kennedy,CA
95206,Kennedy,CA
93527,"Kennedy Meadows",CA
94707,Kensington,CA
94708,Kensington,CA
96001,Keswick,CA
95728,Kingvale,CA
96161,Kingvale,CA
91020,"La Crescenta-montrose",CA
91214,"La Crescenta-montrose",CA
94028,Ladera,CA
90008,"Ladera Heights",CA
90056,"Ladera Heights",CA
90230,"Ladera Heights",CA
90233,"Ladera Heights",CA
92637,"Laguna Woods",CA
92654,"Laguna Woods",CA
92656,"Laguna Woods",CA
94933,"Lagunitas-forest Knolls",CA
94938,"Lagunitas-forest Knolls",CA
94963,"Lagunitas-forest Knolls",CA
90631,"La Habra Heights",CA
91745,"La Habra Heights",CA
96137,"Lake Almanor Country Club",CA
96137,"Lake Almanor Peninsula",CA
96020,"Lake Almanor West",CA
96022,"Lake California",CA
96122,"Lake Davis",CA
95329,"Lake Don Pedro",CA
95369,"Lake Don Pedro",CA
92530,"Lakeland Village",CA
93535,"Lake Los Angeles",CA
93591,"Lake Los Angeles",CA
92504,"Lake Mathews",CA
92508,"Lake Mathews",CA
92570,"Lake Mathews",CA
93446,"Lake Nacimiento",CA
95602,"Lake Of The Pines",CA
93225,"Lake Of The Woods",CA
92536,"Lake Riverside",CA
92078,"Lake San Marcos",CA
91361,"Lake Sherwood",CA
92567,Lakeview,CA
95946,"Lake Wildwood",CA
93656,Lanare,CA
95981,"La Porte",CA
91902,"La Presa",CA
91977,"La Presa",CA
95826,"La Riviera",CA
95827,"La Riviera",CA
95403,Larkfield-wikiup,CA
95404,Larkfield-wikiup,CA
95492,Larkfield-wikiup,CA
95076,"La Selva Beach",CA
92688,"Las Flores",CA
96035,"Las Flores",CA
95076,"Las Lomas",CA
93637,"La Vina",CA
95824,"Lemon Hill",CA
93245,"Lemoore Station",CA
90304,Lennox,CA
92311,Lenwood,CA
91390,"Leona Valley",CA
93551,"Leona Valley",CA
95026,"Lexington Hills",CA
95033,"Lexington Hills",CA
95044,"Lexington Hills",CA
95207,"Lincoln Village",CA
95901,Linda,CA
95961,Linda,CA
93221,Lindcove,CA
93292,"Linnell Camp",CA
95981,"Little Grass Valley",CA
95456,"Little River",CA
95460,"Little River",CA
96056,"Little Valley",CA
95979,Lodoga,CA
95901,"Loma Rica",CA
95918,"Loma Rica",CA
95005,Lompico,CA
95018,Lompico,CA
95033,Lompico,CA
93618,London,CA
94022,"Los Altos Hills",CA
94024,"Los Altos Hills",CA
94304,"Los Altos Hills",CA
93420,"Los Berros",CA
93401,"Los Ranchos",CA
93408,"Los Ranchos",CA
93409,"Los Ranchos",CA
94024,Loyola,CA
94903,"Lucas Valley-marinwood",CA
96103,Mabie,CA
96122,Mabie,CA
93638,"Madera Acres",CA
93725,Malaga,CA
95521,Manila,CA
92518,"March Arb",CA
92553,"March Arb",CA
92554,"March Arb",CA
94965,"Marin City",CA
93274,Matheny,CA
93703,Mayfair,CA
91006,"Mayflower Village",CA
91016,"Mayflower Village",CA
95652,"Mcclellan Park",CA
95660,"Mcclellan Park",CA
95838,"Mcclellan Park",CA
93260,"Mcclenney Tract",CA
93250,Mcfarland,CA
93546,"Mcgee Creek",CA
93251,Mckittrick,CA
95301,Mcswain,CA
95341,Mcswain,CA
92570,Meadowbrook,CA
92508,"Mead Valley",CA
92570,"Mead Valley",CA
92571,"Mead Valley",CA
93023,"Meiners Oaks",CA
93514,Mesa,CA
92225,"Mesa Verde",CA
96120,"Mesa Vista",CA
93313,Mettler,CA
93263,"Mexican Colony",CA
93657,Minkler,CA
93022,"Mira Monte",CA
93023,"Mira Monte",CA
93105,"Mission Canyon",CA
95346,"Mi-wuk Village",CA
95383,"Mi-wuk Village",CA
96103,"Mohawk Vista",CA
93725,Monmouth,CA
93541,"Mono City",CA
95370,"Mono Vista",CA
93615,Monson,CA
93618,Monson,CA
94806,"Montalvin Manor",CA
93103,Montecito,CA
93108,Montecito,CA
93150,Montecito,CA
95307,"Monterey Park Tract",CA
95030,"Monte Sereno",CA
95695,"Monument Hills",CA
95212,Morada,CA
94558,"Moskowite Corner",CA
96003,"Mountain Gate",CA
95304,"Mountain House",CA
95391,"Mountain House",CA
93240,"Mountain Mesa",CA
92392,"Mountain View Acres",CA
96058,"Mount Hebron",CA
94965,"Muir Beach",CA
92407,Muscoy,CA
95501,Myrtletown,CA
95503,Myrtletown,CA
96134,Newell,CA
97635,"New Pine Creek",CA
93601,Nipinnawasee,CA
95973,Nord,CA
94583,"Norris Canyon",CA
95602,"North Auburn",CA
95603,"North Auburn",CA
93523,"North Edwards",CA
91006,"North El Monte",CA
91780,"North El Monte",CA
94025,"North Fair Oaks",CA
94063,"North Fair Oaks",CA
94598,"North Gate",CA
95453,"North Lakeport",CA
94801,"North Richmond",CA
92254,"North Shore",CA
92705,"North Tustin",CA
92711,"North Tustin",CA
92780,"North Tustin",CA
92399,"Oak Glen",CA
92344,"Oak Hills",CA
93426,"Oak Shores",CA
92274,Oasis,CA
93308,Oildale,CA
93388,Oildale,CA
93704,"Old Fig Garden",CA
93705,"Old Fig Garden",CA
93455,Orcutt,CA
93457,Orcutt,CA
95965,"Oroville East",CA
95966,"Oroville East",CA
94553,Pacheco,CA
95076,Pajaro,CA
95076,"Pajaro Dunes",CA
90274,"Palos Verdes Estates",CA
93260,"Panorama Heights",CA
95060,"Paradise Park",CA
95358,Parklawn,CA
93638,Parksdale,CA
94206,Parkway,CA
95823,Parkway,CA
95824,Parkway,CA
93637,Parkwood,CA
95060,Pasatiempo,CA
93291,"Patterson Tract",CA
96113,"Patton Village",CA
95971,Paxton,CA
93527,Pearsonville,CA
95236,Peters,CA
95370,"Phoenix Lake",CA
93208,Pierpoint,CA
93265,Pierpoint,CA
95960,Pike,CA
93930,"Pine Canyon",CA
93207,"Pine Flat",CA
95503,"Pine Hills",CA
93222,"Pine Mountain Club",CA
93225,"Pine Mountain Club",CA
95321,"Pine Mountain Lake",CA
93267,Plainview,CA
95062,"Pleasure Point",CA
96103,"Plumas Eureka",CA
95961,"Plumas Lake",CA
93265,Ponderosa,CA
93257,"Poplar-cotton Center",CA
93258,"Poplar-cotton Center",CA
93260,"Poso Park",CA
95923,Prattville,CA
93907,Prunedale,CA
93908,Prunedale,CA
95004,Prunedale,CA
95012,Prunedale,CA
95076,Prunedale,CA
93536,"Quartz Hill",CA
92028,Rainbow,CA
93652,"Raisin City",CA
93706,"Raisin City",CA
95252,"Rancho Calaveras",CA
95683,"Rancho Murieta",CA
91941,"Rancho San Diego",CA
92019,"Rancho San Diego",CA
92020,"Rancho San Diego",CA
96021,"Rancho Tehama Reserve",CA
95665,"Red Corral",CA
95666,"Red Corral",CA
94523,"Reliez Valley",CA
94549,"Reliez Valley",CA
96021,Richfield,CA
95023,Ridgemark,CA
95001,"Rio Del Mar",CA
95003,"Rio Del Mar",CA
95076,"Rio Del Mar",CA
92225,Ripley,CA
95358,"Riverdale Park",CA
95966,"Robinson Mill",CA
93261,"Rodriguez Camp",CA
90274,"Rolling Hills",CA
93636,"Rolling Hills",CA
90274,"Rolling Hills Estates",CA
90275,"Rolling Hills Estates",CA
94806,Rollingwood,CA
92548,Romoland,CA
92585,Romoland,CA
93312,Rosedale,CA
93314,Rosedale,CA
90601,"Rose Hills",CA
95407,Roseland,CA
95826,Rosemont,CA
95827,Rosemont,CA
90720,Rossmoor,CA
93514,"Round Valley",CA
95351,Rouse,CA
95552,Ruth,CA
94923,"Salmon Creek",CA
92274,"Salton Sea Beach",CA
91784,"San Antonio Heights",CA
93001,"San Buenaventura (ventura)",CA
93002,"San Buenaventura (ventura)",CA
93003,"San Buenaventura (ventura)",CA
93004,"San Buenaventura (ventura)",CA
93005,"San Buenaventura (ventura)",CA
93006,"San Buenaventura (ventura)",CA
93007,"San Buenaventura (ventura)",CA
93009,"San Buenaventura (ventura)",CA
93955,"Sand City",CA
92065,"San Diego Country Estates",CA
91107,"San Pasqual",CA
95322,"Santa Nella",CA
93012,"Santa Rosa Valley",CA
93063,"Santa Susana",CA
94901,"Santa Venetia",CA
94903,"Santa Venetia",CA
94595,Saranap,CA
93004,Saticoy,CA
96124,Sattley,CA
95003,Seacliff,CA
95497,"Sea Ranch",CA
93562,"Searles Valley",CA
93265,"Sequoia Crest",CA
94923,"Sereno Del Mar",CA
93292,Seville,CA
94598,"Shell Ridge",CA
95589,"Shelter Cove",CA
96118,"Sierra Brooks",CA
95335,"Sierra Village",CA
95346,"Sierra Village",CA
94558,"Silverado Resort",CA
93271,"Silver City",CA
92342,"Silver Lakes",CA
93454,Sisquoc,CA
92241,"Sky Valley",CA
94903,"Sleepy Hollow",CA
94960,"Sleepy Hollow",CA
95977,Smartsville,CA
93263,"Smith Corner",CA
95451,"Soda Bay",CA
91010,"South Monrovia Island",CA
91016,"South Monrovia Island",CA
95966,"South Oroville",CA
91770,"South San Gabriel",CA
91744,"South San Jose Hills",CA
91792,"South San Jose Hills",CA
93268,"South Taft",CA
90604,"South Whittier",CA
90605,"South Whittier",CA
96130,Spaulding,CA
95971,"Spring Garden",CA
92395,"Spring Valley Lake",CA
93240,"Squirrel Mountain Valley",CA
93561,"Stallion Springs",CA
94574,"St. Helena",CA
93260,"Sugarloaf Mountain Park",CA
93260,"Sugarloaf Saw Mill",CA
93260,"Sugarloaf Village",CA
93727,Sunnyside,CA
96145,"Sunnyside-tahoe City",CA
93546,"Sunny Slopes",CA
93543,"Sun Village",CA
93552,"Sun Village",CA
93591,"Sun Village",CA
93514,"Swall Meadows",CA
93268,"Taft Heights",CA
95206,"Taft Mosswood",CA
94941,"Tamalpais-homestead Valley",CA
94806,"Tara Hills",CA
93727,"Tarpey Village",CA
95476,Temelec,CA
92881,"Temescal Valley",CA
92883,"Temescal Valley",CA
96058,Tennant,CA
95242,Terminous,CA
93219,Teviston,CA
93256,Teviston,CA
95965,Thermalito,CA
93608,"Three Rocks",CA
94920,Tiburon,CA
95421,"Timber Cove",CA
95450,"Timber Cove",CA
95915,Tobin,CA
93247,Tonyville,CA
93221,Tooleville,CA
93013,"Toro Canyon",CA
93108,"Toro Canyon",CA
95527,"Trinity Village",CA
95563,"Trinity Village",CA
95659,Trowbridge,CA
95674,Trowbridge,CA
95379,"Tuolumne City",CA
95340,Tuttle,CA
95341,Tuttle,CA
95370,Tuttletown,CA
95062,"Twin Lakes",CA
95616,"University Of California-davis",CA
95340,"University Of California-merced",CA
91744,Valinda,CA
92544,"Valle Vista",CA
93268,"Valley Acres",CA
95361,"Valley Home",CA
96106,"Valley Ranch",CA
93592,"Valley Wells",CA
91384,"Val Verde",CA
93437,"Vandenberg Afb",CA
93436,"Vandenberg Village",CA
89439,Verdi,CA
96111,Verdi,CA
90058,Vernon,CA
90008,"View Park-windsor Hills",CA
90043,"View Park-windsor Hills",CA
90056,"View Park-windsor Hills",CA
91702,Vincent,CA
91722,Vincent,CA
94553,"Vine Hill",CA
95829,Vineyard,CA
95830,Vineyard,CA
92236,"Vista Santa Rosa",CA
92253,"Vista Santa Rosa",CA
92274,"Vista Santa Rosa",CA
93635,Volta,CA
96107,Walker,CA
90255,"Walnut Park",CA
92532,"Warm Springs",CA
92570,"Warm Springs",CA
96020,"Warner Valley",CA
95215,Waterloo,CA
95389,Wawona,CA
93241,Weedpatch,CA
93307,Weedpatch,CA
90044,"West Athens",CA
90047,"West Athens",CA
93514,"West Bishop",CA
90502,"West Carson",CA
90710,"West Carson",CA
93291,"West Goshen",CA
95570,Westhaven-moonstone,CA
94025,"West Menlo Park",CA
95351,"West Modesto",CA
95358,"West Modesto",CA
90044,Westmont,CA
90047,Westmont,CA
93706,"West Park",CA
93773,"West Park",CA
91744,"West Puente Valley",CA
91746,"West Puente Valley",CA
90059,"West Rancho Dominguez",CA
90061,"West Rancho Dominguez",CA
90220,"West Rancho Dominguez",CA
90222,"West Rancho Dominguez",CA
90248,"West Rancho Dominguez",CA
93624,Westside,CA
90606,"West Whittier-los Nietos",CA
96106,Whitehawk,CA
92230,Whitewater,CA
92282,Whitewater,CA
93446,"Whitley Gardens",CA
93514,Wilkerson,CA
90059,Willowbrook,CA
90222,Willowbrook,CA
93633,Wilsonia,CA
92021,"Winter Gardens",CA
92040,"Winter Gardens",CA
92503,Woodcrest,CA
92504,Woodcrest,CA
92506,Woodcrest,CA
92508,Woodcrest,CA
93444,Woodlands,CA
94027,Woodside,CA
94061,Woodside,CA
94062,Woodside,CA
93257,Woodville,CA
93274,Woodville,CA
95965,"Yankee Hill",CA
93614,"Yosemite Lakes",CA
95389,"Yosemite Valley",CA
95018,Zayante,CA
