zipcode,city,state
85320,Aguila,AZ
85321,Ajo,AZ
85920,Alpine,AZ
85645,Amado,AZ
85646,Amado,AZ
85119,"Apache Junction",AZ
85120,"Apache Junction",AZ
85601,Arivaca,AZ
85123,"Arizona City",AZ
85193,"Arizona City",AZ
85322,Arlington,AZ
86320,"Ash Fork",AZ
85323,Avondale,AZ
85329,Avondale,AZ
85338,Avondale,AZ
85340,Avondale,AZ
85353,Avondale,AZ
85392,Avondale,AZ
86321,Bagdad,AZ
85121,Bapchule,AZ
86015,Bellemont,AZ
85602,Benson,AZ
85630,Benson,AZ
85603,Bisbee,AZ
85324,"Black Canyon City",AZ
85922,Blue,AZ
86520,"Blue Gap",AZ
85325,Bouse,AZ
85348,Bouse,AZ
85605,Bowie,AZ
85326,Buckeye,AZ
85337,Buckeye,AZ
85340,Buckeye,AZ
85342,Buckeye,AZ
85343,Buckeye,AZ
85361,Buckeye,AZ
85390,Buckeye,AZ
85396,Buckeye,AZ
86429,"Bullhead City",AZ
86430,"Bullhead City",AZ
86439,"Bullhead City",AZ
86442,"Bullhead City",AZ
85530,Bylas,AZ
86020,Cameron,AZ
86322,"Camp Verde",AZ
86326,"Camp Verde",AZ
86327,"Camp Verde",AZ
85266,Carefree,AZ
85331,Carefree,AZ
85377,Carefree,AZ
85122,"Casa Grande",AZ
85131,"Casa Grande",AZ
85172,"Casa Grande",AZ
85193,"Casa Grande",AZ
85194,"Casa Grande",AZ
85329,Cashion,AZ
85737,Catalina,AZ
85739,Catalina,AZ
85086,"Cave Creek",AZ
85087,"Cave Creek",AZ
85327,"Cave Creek",AZ
85331,"Cave Creek",AZ
85377,"Cave Creek",AZ
85531,Central,AZ
85543,Central,AZ
86502,Chambers,AZ
85224,Chandler,AZ
85225,Chandler,AZ
85226,Chandler,AZ
85233,Chandler,AZ
85244,Chandler,AZ
85246,Chandler,AZ
85248,Chandler,AZ
85249,Chandler,AZ
85284,Chandler,AZ
85286,Chandler,AZ
85127,"Chandler Heights",AZ
86503,Chinle,AZ
86314,"Chino Valley",AZ
86315,"Chino Valley",AZ
86323,"Chino Valley",AZ
86334,"Chino Valley",AZ
86431,Chloride,AZ
85911,Cibecue,AZ
85328,Cibola,AZ
85334,Cibola,AZ
86324,Clarkdale,AZ
86326,Clarkdale,AZ
85923,"Clay Springs",AZ
85532,Claypool,AZ
85539,Claypool,AZ
85533,Clifton,AZ
85540,Clifton,AZ
85606,Cochise,AZ
84784,"Colorado City",AZ
86021,"Colorado City",AZ
85924,Concho,AZ
85332,Congress,AZ
85128,Coolidge,AZ
85132,Coolidge,AZ
85194,Coolidge,AZ
86325,Cornville,AZ
85652,Cortaro,AZ
86324,Cottonwood,AZ
86325,Cottonwood,AZ
86326,Cottonwood,AZ
86503,Cottonwood,AZ
86343,"Crown King",AZ
85333,Dateland,AZ
85347,Dateland,AZ
86535,Dennehotso,AZ
86327,Dewey,AZ
86441,"Dolan Springs",AZ
85607,Douglas,AZ
85608,Douglas,AZ
85626,Douglas,AZ
85655,Douglas,AZ
85609,Dragoon,AZ
85534,Duncan,AZ
85925,Eagar,AZ
85938,Eagar,AZ
85535,Eden,AZ
85334,Ehrenberg,AZ
85346,Ehrenberg,AZ
85307,"El Mirage",AZ
85335,"El Mirage",AZ
85610,Elfrida,AZ
85611,Elgin,AZ
85123,Eloy,AZ
85131,Eloy,AZ
85141,Eloy,AZ
85193,Eloy,AZ
85194,Eloy,AZ
86001,Flagstaff,AZ
86003,Flagstaff,AZ
86004,Flagstaff,AZ
86011,Flagstaff,AZ
85128,Florence,AZ
85132,Florence,AZ
85143,Florence,AZ
85931,"Forest Lakes",AZ
85926,"Fort Apache",AZ
86504,"Fort Defiance",AZ
85613,"Fort Huachuca",AZ
85264,"Fort Mcdowell",AZ
86426,"Fort Mohave",AZ
86427,"Fort Mohave",AZ
86440,"Fort Mohave",AZ
86442,"Fort Mohave",AZ
85536,"Fort Thomas",AZ
85259,"Fountain Hills",AZ
85268,"Fountain Hills",AZ
85269,"Fountain Hills",AZ
86022,Fredonia,AZ
85336,Gadsden,AZ
85350,Gadsden,AZ
86505,Ganado,AZ
85322,"Gila Bend",AZ
85326,"Gila Bend",AZ
85337,"Gila Bend",AZ
85142,Gilbert,AZ
85206,Gilbert,AZ
85209,Gilbert,AZ
85212,Gilbert,AZ
85233,Gilbert,AZ
85234,Gilbert,AZ
85295,Gilbert,AZ
85296,Gilbert,AZ
85297,Gilbert,AZ
85298,Gilbert,AZ
85299,Gilbert,AZ
85301,Glendale,AZ
85302,Glendale,AZ
85303,Glendale,AZ
85304,Glendale,AZ
85305,Glendale,AZ
85306,Glendale,AZ
85307,Glendale,AZ
85308,Glendale,AZ
85309,Glendale,AZ
85310,Glendale,AZ
85311,Glendale,AZ
85312,Glendale,AZ
85318,Glendale,AZ
85340,Glendale,AZ
85345,Glendale,AZ
85355,Glendale,AZ
85381,Glendale,AZ
85382,Glendale,AZ
85501,Globe,AZ
85502,Globe,AZ
85539,Globe,AZ
86413,"Golden Valley",AZ
85139,Goodyear,AZ
85323,Goodyear,AZ
85326,Goodyear,AZ
85338,Goodyear,AZ
85340,Goodyear,AZ
85395,Goodyear,AZ
86023,"Grand Canyon",AZ
86016,"Gray Mountain",AZ
85614,"Green Valley",AZ
85622,"Green Valley",AZ
85927,Greer,AZ
86401,Hackberry,AZ
86411,Hackberry,AZ
86437,Hackberry,AZ
86024,"Happy Jack",AZ
85135,Hayden,AZ
85192,Hayden,AZ
85235,Hayden,AZ
85928,Heber,AZ
85615,Hereford,AZ
85236,Higley,AZ
86025,Holbrook,AZ
86032,Holbrook,AZ
86030,Hotevilla,AZ
86506,Houck,AZ
86512,Houck,AZ
85616,"Huachuca City",AZ
86409,Hualapai,AZ
86329,Humboldt,AZ
86031,"Indian Wells",AZ
86305,"Iron Springs",AZ
86331,Jerome,AZ
86032,"Joseph City",AZ
86053,Kaibito,AZ
86033,Kayenta,AZ
86034,"Keams Canyon",AZ
85137,Kearny,AZ
86401,Kingman,AZ
86409,Kingman,AZ
86332,Kirkland,AZ
86030,"Kykotsmovi Village",AZ
86039,"Kykotsmovi Village",AZ
86403,"Lake Havasu City",AZ
86404,"Lake Havasu City",AZ
86405,"Lake Havasu City",AZ
86406,"Lake Havasu City",AZ
86335,"Lake Montezuma",AZ
86342,"Lake Montezuma",AZ
85929,Lakeside,AZ
85339,Laveen,AZ
86004,Leupp,AZ
86035,Leupp,AZ
85340,"Litchfield Park",AZ
85392,"Litchfield Park",AZ
86432,Littlefield,AZ
86507,Lukachukai,AZ
85307,"Luke Afb",AZ
85341,Lukeville,AZ
86508,Lupton,AZ
85618,Mammoth,AZ
86503,"Many Farms",AZ
86538,"Many Farms",AZ
85652,Marana,AZ
85653,Marana,AZ
85658,Marana,AZ
85740,Marana,AZ
85741,Marana,AZ
85742,Marana,AZ
85743,Marana,AZ
86036,"Marble Canyon",AZ
85138,Maricopa,AZ
85139,Maricopa,AZ
86333,Mayer,AZ
85930,"Mc Nary",AZ
85617,"Mc Neal",AZ
86444,Meadview,AZ
85120,Mesa,AZ
85142,Mesa,AZ
85201,Mesa,AZ
85202,Mesa,AZ
85203,Mesa,AZ
85204,Mesa,AZ
85205,Mesa,AZ
85206,Mesa,AZ
85207,Mesa,AZ
85208,Mesa,AZ
85209,Mesa,AZ
85210,Mesa,AZ
85211,Mesa,AZ
85212,Mesa,AZ
85213,Mesa,AZ
85214,Mesa,AZ
85215,Mesa,AZ
85216,Mesa,AZ
85256,Mesa,AZ
85274,Mesa,AZ
85275,Mesa,AZ
85277,Mesa,AZ
85539,Miami,AZ
86440,"Mohave Valley",AZ
86446,"Mohave Valley",AZ
85540,Morenci,AZ
86038,"Mormon Lake",AZ
85342,Morristown,AZ
85619,"Mount Lemmon",AZ
86017,"Munds Park",AZ
86336,"Munds Park",AZ
85603,Naco,AZ
85620,Naco,AZ
86540,Nazlini,AZ
85086,"New River",AZ
85087,"New River",AZ
85331,"New River",AZ
85621,Nogales,AZ
85628,Nogales,AZ
85662,Nogales,AZ
86052,"North Rim",AZ
85932,Nutrioso,AZ
86413,Oatman,AZ
86433,Oatman,AZ
85623,Oracle,AZ
85631,Oracle,AZ
85704,"Oro Valley",AZ
85737,"Oro Valley",AZ
85739,"Oro Valley",AZ
85742,"Oro Valley",AZ
85755,"Oro Valley",AZ
85933,Overgaard,AZ
86036,Page,AZ
86040,Page,AZ
85343,"Palo Verde",AZ
85250,"Paradise Valley",AZ
85253,"Paradise Valley",AZ
85325,Parker,AZ
85344,Parker,AZ
85346,Parker,AZ
86001,Parks,AZ
86018,Parks,AZ
86046,Parks,AZ
85624,Patagonia,AZ
86305,Paulden,AZ
86323,Paulden,AZ
86334,Paulden,AZ
85541,Payson,AZ
85547,Payson,AZ
86434,"Peach Springs",AZ
85625,Pearce,AZ
85310,Peoria,AZ
85342,Peoria,AZ
85345,Peoria,AZ
85361,Peoria,AZ
85373,Peoria,AZ
85380,Peoria,AZ
85381,Peoria,AZ
85382,Peoria,AZ
85383,Peoria,AZ
85385,Peoria,AZ
85387,Peoria,AZ
85542,Peridot,AZ
85550,Peridot,AZ
86028,"Petrified Forest Natl Pk",AZ
85001,Phoenix,AZ
85002,Phoenix,AZ
85003,Phoenix,AZ
85004,Phoenix,AZ
85005,Phoenix,AZ
85006,Phoenix,AZ
85007,Phoenix,AZ
85008,Phoenix,AZ
85009,Phoenix,AZ
85010,Phoenix,AZ
85011,Phoenix,AZ
85012,Phoenix,AZ
85013,Phoenix,AZ
85014,Phoenix,AZ
85015,Phoenix,AZ
85016,Phoenix,AZ
85017,Phoenix,AZ
85018,Phoenix,AZ
85019,Phoenix,AZ
85020,Phoenix,AZ
85021,Phoenix,AZ
85022,Phoenix,AZ
85023,Phoenix,AZ
85024,Phoenix,AZ
85027,Phoenix,AZ
85028,Phoenix,AZ
85029,Phoenix,AZ
85030,Phoenix,AZ
85031,Phoenix,AZ
85032,Phoenix,AZ
85033,Phoenix,AZ
85034,Phoenix,AZ
85035,Phoenix,AZ
85036,Phoenix,AZ
85037,Phoenix,AZ
85038,Phoenix,AZ
85040,Phoenix,AZ
85041,Phoenix,AZ
85042,Phoenix,AZ
85043,Phoenix,AZ
85044,Phoenix,AZ
85045,Phoenix,AZ
85046,Phoenix,AZ
85048,Phoenix,AZ
85050,Phoenix,AZ
85051,Phoenix,AZ
85053,Phoenix,AZ
85054,Phoenix,AZ
85060,Phoenix,AZ
85061,Phoenix,AZ
85062,Phoenix,AZ
85063,Phoenix,AZ
85064,Phoenix,AZ
85066,Phoenix,AZ
85067,Phoenix,AZ
85068,Phoenix,AZ
85069,Phoenix,AZ
85070,Phoenix,AZ
85071,Phoenix,AZ
85072,Phoenix,AZ
85074,Phoenix,AZ
85075,Phoenix,AZ
85076,Phoenix,AZ
85077,Phoenix,AZ
85078,Phoenix,AZ
85079,Phoenix,AZ
85080,Phoenix,AZ
85082,Phoenix,AZ
85083,Phoenix,AZ
85085,Phoenix,AZ
85086,Phoenix,AZ
85087,Phoenix,AZ
85098,Phoenix,AZ
85099,Phoenix,AZ
85226,Phoenix,AZ
85251,Phoenix,AZ
85253,Phoenix,AZ
85254,Phoenix,AZ
85255,Phoenix,AZ
85281,Phoenix,AZ
85304,Phoenix,AZ
85306,Phoenix,AZ
85307,Phoenix,AZ
85308,Phoenix,AZ
85310,Phoenix,AZ
85313,Phoenix,AZ
85331,Phoenix,AZ
85339,Phoenix,AZ
85353,Phoenix,AZ
85383,Phoenix,AZ
85141,Picacho,AZ
85241,Picacho,AZ
85543,Pima,AZ
85544,Pine,AZ
85934,Pinedale,AZ
85935,Pinetop,AZ
86510,Pinon,AZ
85607,Pirtleville,AZ
85626,Pirtleville,AZ
86042,Polacca,AZ
85627,Pomerene,AZ
85371,Poston,AZ
86301,Prescott,AZ
86302,Prescott,AZ
86303,Prescott,AZ
86304,Prescott,AZ
86305,Prescott,AZ
86313,Prescott,AZ
86314,Prescott,AZ
86323,Prescott,AZ
86303,"Prescott Valley",AZ
86312,"Prescott Valley",AZ
86314,"Prescott Valley",AZ
86315,"Prescott Valley",AZ
86327,"Prescott Valley",AZ
85346,Quartzsite,AZ
85359,Quartzsite,AZ
85140,"Queen Creek",AZ
85142,"Queen Creek",AZ
85298,"Queen Creek",AZ
85131,"Red Rock",AZ
85145,"Red Rock",AZ
85245,"Red Rock",AZ
85658,"Red Rock",AZ
86544,"Red Rock",AZ
86544,"Red Valley",AZ
85654,Rillito,AZ
86335,Rimrock,AZ
85621,"Rio Rico",AZ
85640,"Rio Rico",AZ
85646,"Rio Rico",AZ
85648,"Rio Rico",AZ
85255,"Rio Verde",AZ
85263,"Rio Verde",AZ
86545,"Rock Point",AZ
85347,Roll,AZ
85545,Roosevelt,AZ
86547,"Round Rock",AZ
85147,Sacaton,AZ
85247,Sacaton,AZ
85546,Safford,AZ
85552,Safford,AZ
85614,Sahuarita,AZ
85629,Sahuarita,AZ
85630,"Saint David",AZ
85936,"Saint Johns",AZ
86511,"Saint Michaels",AZ
85348,Salome,AZ
85357,Salome,AZ
85550,"San Carlos",AZ
85349,"San Luis",AZ
85350,"San Luis",AZ
85631,"San Manuel",AZ
85632,"San Simon",AZ
86512,Sanders,AZ
85633,Sasabe,AZ
85250,Scottsdale,AZ
85251,Scottsdale,AZ
85252,Scottsdale,AZ
85253,Scottsdale,AZ
85254,Scottsdale,AZ
85255,Scottsdale,AZ
85257,Scottsdale,AZ
85258,Scottsdale,AZ
85259,Scottsdale,AZ
85260,Scottsdale,AZ
85261,Scottsdale,AZ
85262,Scottsdale,AZ
85266,Scottsdale,AZ
85267,Scottsdale,AZ
85268,Scottsdale,AZ
85271,Scottsdale,AZ
85331,Scottsdale,AZ
86039,"Second Mesa",AZ
86042,"Second Mesa",AZ
86043,"Second Mesa",AZ
86336,Sedona,AZ
86339,Sedona,AZ
86340,Sedona,AZ
86337,Seligman,AZ
85634,Sells,AZ
86054,Shonto,AZ
85901,"Show Low",AZ
85902,"Show Low",AZ
85912,"Show Low",AZ
85929,"Show Low",AZ
85613,"Sierra Vista",AZ
85616,"Sierra Vista",AZ
85635,"Sierra Vista",AZ
85650,"Sierra Vista",AZ
85670,"Sierra Vista",AZ
85671,"Sierra Vista",AZ
86338,"Skull Valley",AZ
85937,Snowflake,AZ
85546,Solomon,AZ
85551,Solomon,AZ
85350,Somerton,AZ
85365,Somerton,AZ
85637,Sonoita,AZ
85938,Springerville,AZ
85172,Stanfield,AZ
85345,"Sun City",AZ
85351,"Sun City",AZ
85372,"Sun City",AZ
85373,"Sun City",AZ
85374,"Sun City",AZ
85375,"Sun City West",AZ
85376,"Sun City West",AZ
86025,"Sun Valley",AZ
86029,"Sun Valley",AZ
86435,Supai,AZ
85173,Superior,AZ
85342,Surprise,AZ
85355,Surprise,AZ
85361,Surprise,AZ
85374,Surprise,AZ
85375,Surprise,AZ
85379,Surprise,AZ
85383,Surprise,AZ
85387,Surprise,AZ
85388,Surprise,AZ
85396,Surprise,AZ
85347,Tacna,AZ
85352,Tacna,AZ
85356,Tacna,AZ
85901,Taylor,AZ
85937,Taylor,AZ
85939,Taylor,AZ
86514,"Teec Nos Pos",AZ
85008,Tempe,AZ
85044,Tempe,AZ
85202,Tempe,AZ
85226,Tempe,AZ
85280,Tempe,AZ
85281,Tempe,AZ
85282,Tempe,AZ
85283,Tempe,AZ
85284,Tempe,AZ
85285,Tempe,AZ
85287,Tempe,AZ
85289,Tempe,AZ
86443,"Temple Bar Marina",AZ
85552,Thatcher,AZ
85353,Tolleson,AZ
85638,Tombstone,AZ
86044,Tonalea,AZ
85354,Tonopah,AZ
85553,"Tonto Basin",AZ
85634,Topawa,AZ
85639,Topawa,AZ
86436,Topock,AZ
85190,"Tortilla Flat",AZ
86507,Tsaile,AZ
86556,Tsaile,AZ
86045,"Tuba City",AZ
85640,Tubac,AZ
85646,Tubac,AZ
85629,Tucson,AZ
85641,Tucson,AZ
85701,Tucson,AZ
85702,Tucson,AZ
85703,Tucson,AZ
85704,Tucson,AZ
85705,Tucson,AZ
85706,Tucson,AZ
85707,Tucson,AZ
85708,Tucson,AZ
85709,Tucson,AZ
85710,Tucson,AZ
85711,Tucson,AZ
85712,Tucson,AZ
85713,Tucson,AZ
85714,Tucson,AZ
85715,Tucson,AZ
85716,Tucson,AZ
85717,Tucson,AZ
85718,Tucson,AZ
85719,Tucson,AZ
85720,Tucson,AZ
85721,Tucson,AZ
85722,Tucson,AZ
85723,Tucson,AZ
85724,Tucson,AZ
85725,Tucson,AZ
85726,Tucson,AZ
85730,Tucson,AZ
85731,Tucson,AZ
85732,Tucson,AZ
85733,Tucson,AZ
85734,Tucson,AZ
85738,Tucson,AZ
85741,Tucson,AZ
85745,Tucson,AZ
85746,Tucson,AZ
85747,Tucson,AZ
85748,Tucson,AZ
85749,Tucson,AZ
85750,Tucson,AZ
85751,Tucson,AZ
85754,Tucson,AZ
85756,Tucson,AZ
85775,Tucson,AZ
85777,Tucson,AZ
85640,Tumacacori,AZ
85641,Vail,AZ
85744,Vail,AZ
85747,Vail,AZ
86437,Valentine,AZ
85191,"Valley Farms",AZ
85940,Vernon,AZ
85355,Waddell,AZ
85356,Wellton,AZ
85357,Wenden,AZ
85901,"White Mountain Lake",AZ
85912,"White Mountain Lake",AZ
85941,Whiteriver,AZ
85358,Wickenburg,AZ
85390,Wickenburg,AZ
85360,Wikieup,AZ
85643,Willcox,AZ
85644,Willcox,AZ
86046,Williams,AZ
86445,"Willow Beach",AZ
86511,"Window Rock",AZ
86515,"Window Rock",AZ
85192,Winkelman,AZ
86047,Winslow,AZ
85361,Wittmann,AZ
85942,Woodruff,AZ
86025,Woodruff,AZ
85362,Yarnell,AZ
85554,Young,AZ
85363,Youngtown,AZ
86438,Yucca,AZ
85350,Yuma,AZ
85364,Yuma,AZ
85365,Yuma,AZ
85366,Yuma,AZ
85369,Yuma,AZ
85634,"Ak Chin",AZ
85139,"Ak-chin Village",AZ
85325,"Alamo Lake",AZ
85357,"Alamo Lake",AZ
85321,"Ali Chuk",AZ
85634,"Ali Chukson",AZ
85634,"Ali Molina",AZ
85634,Anegam,AZ
86401,Antares,AZ
85086,Anthem,AZ
85645,"Arivaca Junction",AZ
86440,"Arizona Village",AZ
85364,"Avenue B And C",AZ
85653,"Avra Valley",AZ
85333,Aztec,AZ
85541,"Bear Flat",AZ
86432,"Beaver Dam",AZ
85541,"Beaver Valley",AZ
85621,Beyerville,AZ
86036,"Bitter Springs",AZ
86040,"Bitter Springs",AZ
85128,Blackwater,AZ
85344,Bluewater,AZ
85348,Brenda,AZ
85543,Bryce,AZ
85365,Buckshot,AZ
86505,Burnside,AZ
85546,"Cactus Flats",AZ
85548,"Cactus Flats",AZ
85132,"Cactus Forest",AZ
85623,"Campo Bonito",AZ
86022,"Cane Beds",AZ
85941,"Canyon Day",AZ
85941,Carrizo,AZ
85121,"Casa Blanca",AZ
85221,"Casa Blanca",AZ
85704,"Casas Adobes",AZ
85741,"Casas Adobes",AZ
85742,"Casas Adobes",AZ
85752,"Casas Adobes",AZ
85712,"Catalina Foothills",AZ
85715,"Catalina Foothills",AZ
85716,"Catalina Foothills",AZ
85718,"Catalina Foothills",AZ
85728,"Catalina Foothills",AZ
85749,"Catalina Foothills",AZ
85750,"Catalina Foothills",AZ
85941,"Cedar Creek",AZ
86021,"Centennial Park",AZ
86022,"Centennial Park",AZ
85501,"Central Heights-midland City",AZ
85539,"Central Heights-midland City",AZ
85321,Charco,AZ
85634,"Chiawuli Tak",AZ
86033,Chilchinbito,AZ
85541,"Christopher Creek",AZ
85193,Chuichu,AZ
85344,"Cienega Springs",AZ
85340,"Citrus Park",AZ
85355,"Citrus Park",AZ
86401,"Clacks Canyon",AZ
86409,"Clacks Canyon",AZ
86413,"Clacks Canyon",AZ
85634,Comobabi,AZ
85501,"Copper Hill",AZ
86333,"Cordes Lakes",AZ
86505,Cornfields,AZ
85641,"Corona De Tucson",AZ
85634,Cowlic,AZ
86434,Crozier,AZ
86437,Crozier,AZ
86404,"Crystal Beach",AZ
85550,Cutter,AZ
85541,"Deer Creek",AZ
86503,"Del Muerto",AZ
86404,"Desert Hills",AZ
86303,Dewey-humboldt,AZ
86327,Dewey-humboldt,AZ
86329,Dewey-humboldt,AZ
86047,Dilkon,AZ
86004,"Doney Park",AZ
85364,"Donovan Estates",AZ
85746,"Drexel Heights",AZ
85757,"Drexel Heights",AZ
85192,"Dripping Springs",AZ
85365,Drysdale,AZ
85192,Dudleyville,AZ
85941,"East Fork",AZ
85550,"East Globe",AZ
85541,"East Verde Estates",AZ
85192,"El Capitan",AZ
85501,"El Capitan",AZ
85645,"Elephant Head",AZ
85365,"El Prado Estates",AZ
86042,"First Mesa",AZ
85541,"Flowing Springs",AZ
85704,"Flowing Wells",AZ
85705,"Flowing Wells",AZ
85741,"Flowing Wells",AZ
85743,"Flowing Wells",AZ
85365,"Fortuna Foothills",AZ
85367,"Fortuna Foothills",AZ
86001,"Fort Valley",AZ
85534,Franklin,AZ
85541,"Freedom Acres",AZ
85541,"Geronimo Estates",AZ
85339,"Gila Crossing",AZ
85541,Gisela,AZ
85118,"Gold Canyon",AZ
85119,"Gold Canyon",AZ
86436,"Golden Shores",AZ
86440,"Golden Shores",AZ
85121,"Goodyear Village",AZ
85248,"Goodyear Village",AZ
86023,"Grand Canyon Village",AZ
86434,"Grand Canyon West",AZ
86505,Greasewood,AZ
85283,Guadalupe,AZ
85634,"Gu Oidak",AZ
85554,"Haigler Creek",AZ
85634,"Haivana Nakya",AZ
86030,"Hard Rock",AZ
86039,"Hard Rock",AZ
85928,Heber-overgaard,AZ
85933,Heber-overgaard,AZ
85930,Hondah,AZ
85935,Hondah,AZ
86030,Hotevilla-bacavi,AZ
85541,"Hunter Creek",AZ
85501,"Icehouse Canyon",AZ
85541,"Jakes Corner",AZ
86034,Jeddito,AZ
86001,"Kachina Village",AZ
86022,Kaibab,AZ
85321,Kaka,AZ
86413,Katherine,AZ
86429,Katherine,AZ
85621,"Kino Springs",AZ
86502,Klagetoh,AZ
86505,Klagetoh,AZ
85634,Kohatk,AZ
85541,"Kohls Ranch",AZ
85339,Komatke,AZ
85634,"Ko Vaya",AZ
85929,"Lake Of The Woods",AZ
85346,"La Paz Valley",AZ
86401,"Lazy Y U",AZ
86040,Lechee,AZ
85901,Linden,AZ
85756,Littletown,AZ
85147,"Lower Santan Village",AZ
85248,"Lower Santan Village",AZ
86034,"Low Mountain",AZ
86510,"Low Mountain",AZ
86520,"Low Mountain",AZ
85634,"Maish Vaya",AZ
85339,"Maricopa Colony",AZ
85365,"Martinez Lake",AZ
86401,Mcconnico,AZ
86413,Mcconnico,AZ
85930,Mcnary,AZ
85935,Mcnary,AZ
85617,Mcneal,AZ
85541,"Mead Ranch",AZ
85541,"Mesa Del Caballo",AZ
85602,Mescal,AZ
86440,"Mesquite Creek",AZ
85615,"Miracle Valley",AZ
86022,Moccasin,AZ
86045,Moenkopi,AZ
86440,"Mojave Ranch Estates",AZ
86001,Mountainaire,AZ
85653,Nelson,AZ
86409,"New Kingman-butler",AZ
85634,Nolic,AZ
85941,"North Fork",AZ
86511,"Oak Springs",AZ
84536,"Oljato-monument Valley",AZ
85350,"Orange Grove Mobile Manor",AZ
85541,"Oxbow Estates",AZ
85365,"Padre Ranchitos",AZ
85615,Palominas,AZ
85344,"Parker Strip",AZ
85362,"Peeples Valley",AZ
86332,"Peeples Valley",AZ
85653,"Picture Rocks",AZ
85743,"Picture Rocks",AZ
85602,"Pimaco Two",AZ
85501,Pinal,AZ
86401,"Pine Lake",AZ
85935,"Pinetop Country Club",AZ
85929,Pinetop-lakeside,AZ
85935,Pinetop-lakeside,AZ
86401,"Pinion Pines",AZ
85634,Pisinemo,AZ
85118,"Queen Valley",AZ
85941,"Rainbow City",AZ
85350,"Rancho Mesa Verde",AZ
86514,"Red Mesa",AZ
85641,"Rincon Valley",AZ
85747,"Rincon Valley",AZ
85501,"Rock House",AZ
86503,"Rough Rock",AZ
85541,"Round Valley",AZ
85541,Rye,AZ
85121,"Sacate Village",AZ
85339,"Sacate Village",AZ
85128,"Sacaton Flats Village",AZ
85147,"Sacaton Flats Village",AZ
85623,Saddlebrooke,AZ
85739,Saddlebrooke,AZ
85546,"San Jose",AZ
85551,"San Jose",AZ
85634,"San Miguel",AZ
85339,"Santa Cruz",AZ
85128,"San Tan Valley",AZ
85140,"San Tan Valley",AZ
85142,"San Tan Valley",AZ
85143,"San Tan Valley",AZ
85634,"Santa Rosa",AZ
86504,Sawmill,AZ
86432,Scenic,AZ
89024,Scenic,AZ
86047,"Seba Dalkai",AZ
86507,Sehili,AZ
86556,Sehili,AZ
85926,"Seven Mile",AZ
85941,"Seven Mile",AZ
86043,Shongopovi,AZ
85615,"Sierra Vista Southeast",AZ
85635,"Sierra Vista Southeast",AZ
85636,"Sierra Vista Southeast",AZ
85650,"Sierra Vista Southeast",AZ
85501,"Six Shooter Canyon",AZ
86413,So-hi,AZ
85634,"South Komelik",AZ
85713,"South Tucson",AZ
86333,"Spring Valley",AZ
85541,"Star Valley",AZ
85630,"St. David",AZ
86505,Steamboat,AZ
85339,"St. Johns",AZ
85936,"St. Johns",AZ
86511,"St. Michaels",AZ
86515,"St. Michaels",AZ
85121,"Stotonic Village",AZ
85147,"Stotonic Village",AZ
85248,"Stotonic Village",AZ
85544,Strawberry,AZ
85619,Summerhaven,AZ
85756,Summit,AZ
85625,Sunizona,AZ
85248,"Sun Lakes",AZ
85348,Sunwest,AZ
85121,"Sweet Water Village",AZ
85546,"Swift Trail Junction",AZ
85748,"Tanque Verde",AZ
85749,"Tanque Verde",AZ
85193,"Tat Momoli",AZ
86047,"Tees Toh",AZ
85337,Theba,AZ
85735,"Three Points",AZ
85736,"Three Points",AZ
86047,"Tolani Lake",AZ
85541,"Tonto Village",AZ
85501,Top-of-the-world,AZ
85539,Top-of-the-world,AZ
86505,Toyei,AZ
86411,Truxton,AZ
86434,Truxton,AZ
85713,"Tucson Estates",AZ
85735,"Tucson Estates",AZ
85640,Tumacacori-carmen,AZ
85646,Tumacacori-carmen,AZ
85941,"Turkey Creek",AZ
86023,Tusayan,AZ
85147,"Upper Santan Village",AZ
85325,Utting,AZ
85193,"Vaiva Vo",AZ
85757,"Valencia West",AZ
86046,Valle,AZ
86401,"Valle Vista",AZ
85321,Ventana,AZ
85634,Ventana,AZ
86326,"Verde Village",AZ
85325,Vicksburg,AZ
85346,Vicksburg,AZ
85348,Vicksburg,AZ
86341,"Village Of Oak Creek (big Park)",AZ
86351,"Village Of Oak Creek (big Park)",AZ
85901,"Wagon Wheel",AZ
85929,"Wagon Wheel",AZ
85634,"Wahak Hotrontk",AZ
85365,"Wall Lane",AZ
86413,"Walnut Creek",AZ
85541,"Washington Park",AZ
85356,"Wellton Hills",AZ
85121,"Wet Camp Village",AZ
85501,Wheatfields,AZ
85616,Whetstone,AZ
85541,"Whispering Pines",AZ
86031,Whitecone,AZ
86034,Whitecone,AZ
86441,"White Hills",AZ
86445,"White Hills",AZ
85321,Why,AZ
86502,"Wide Ruins",AZ
86332,Wilhoit,AZ
86305,Williamson,AZ
86323,Williamson,AZ
85619,"Willow Canyon",AZ
86440,"Willow Valley",AZ
86047,"Winslow West",AZ
85354,Wintersburg,AZ
85534,York,AZ
